"nameCompany","streetAddress","postalCode","addressLocality"
"easyApotheke Chemnitz-City","Str. der Nationen 12","09111","Chemnitz"
"easyApotheke Gorbitz","Altgorbitzer Ring 79","01169","Dresden"
"easyApotheke Löbtau","Kesselsdorfer Str. 8","01159","Dresden"
"easyApotheke im Paunsdorf Center","Paunsdorfer Allee 1","04329","Leipzig-Engelsdorf"
"easyApotheke Görlitz","Nieskyer Str. 100","02828","Görlitz-Königshufen"
"easyApotheke Brandenburg","Hauptstr. 7","14776","Brandenburg"
"easyApotheke Teltow","Lichterfelder Allee 7","14513","Teltow"
"easyApotheke Mariendorf","Großbeerenstr. 2","12107","Berlin-Mariendorf"
"easyApotheke im Forum Steglitz","Schloßstr. 1","12163","Berlin"
"easyApotheke Adlershof","Rudower Chaussee 12","12489","Berlin-Adlershof"
"easyApotheke Ku´damm","Kurfürstendamm 110","10711","Berlin"
"easyApotheke Neukölln Arcaden","Karl-Marx-Str. 66","12043","Berlin"
"easyApotheke Wilmersdorfer","Wilmersdorfer Str. 64","10627","Berlin"
"easyApotheke Erkner","Ladestr. 3","15537","Erkner"
"easyApotheke Kottbusser Damm","Kottbusser Damm 78","10967","Berlin"
"easyApotheke Prenzlauer Berg","Storkower Str. 5","10409","Berlin"
"easyApotheke Residenzstraße","Residenzstr. 33","13409","Berlin"
"easyApotheke Märkische Zeile","Senftenberger Ring 17","13439","Berlin"
"easyApotheke Marktcenter Uelzen","Veerßer Str. 59","29525","Uelzen"
"easyApotheke Nenndorf","Bremer Str. 51","21224","Rosengarten-Nenndorf"
"easyApotheke Friesoythe","Am Hafen 5 + 7","26169","Friesoythe"
"easyApotheke Altona","Altonaer Poststr. 15","22767","Hamburg"
"easyApotheke Wandsbek","Wandsbeker Marktstr. 1","22041","Hamburg"
"easyApotheke Bramfeld","Bramfelder Dorfplatz 18","22179","Hamburg-Bramfeld"
"easyApotheke im Nedderfeld Center","Nedderfeld 70","22529","Hamburg-Eppendorf"
"easyApotheke Ahrensburg","Rathausplatz 10","22926","Ahrensburg"
"easyApotheke Henstedt-Ulzburg","Gutenbergstr. 4","24558","Henstedt-Ulzburg"
"easyApotheke Emden","Thüringer Str. 2","26723","Emden"
"easyApotheke Flensburg Galerie","Holm 57-61","24937","Flensburg"
"easyApotheke Duderstadt","Bahnhofstr. 3","37115","Duderstadt"
"easyApotheke Salzgitter Bad","Am Pfingstanger 7","38259","Salzgitter Bad"
"easyApotheke Wolfenbüttel","Schweigerstr. 9","38302","Wolfenbüttel"
"easyApotheke CityLebenstedt","In den Blumentriften 2","38226","Salzgitter Lebenstedt"
"easyApotheke Hildesheim","Bischofskamp 40-42","31137","Hildesheim"
"easyApotheke Wolfsburg","Porschestr. 47","38440","Wolfsburg"
"easyApotheke Hildesheimer Straße","Hildesheimer Str. 213","30519","Hannover"
"easyApotheke Raschplatz","Rundestr. 5","30161","Hannover-Mitte"
"easyApotheke Stadthagen","Breslauer Str. 4","31655","Stadthagen"
"easyApotheke Minden","Ringstr. 74","32427","Minden"
"easyApotheke Remscheid-Lennep","Wupperstr. 17","42897","Remscheid"
"easyApotheke im Medicum","Blumenstr. 3","42551","Velbert"
"easyApotheke Suitbertusstraße","Suitbertusstr. 137","40223","Düsseldorf"
"easyApotheke Heiligenhaus","Höseler Str. 61","42579","Heiligenhaus"
"easyApotheke Ratheim Center","Schibsler Weg 3","41836","Hückelhoven"
"easyApotheke Friedrich-Ebert-Straße","Friedrich-Ebert-Str. 143","48153","Münster"
"easyApotheke Moers","Römerstr. 568","47443","Moers"
"easyApotheke Weidencarrée","Weidenstr. 20","49080","Osnabrück"
"easyApotheke am Kuhm","Heidener Str. 32","46325","Borken"
"easyApotheke Vechta","Falkenweg 1","49377","Vechta"
"easyApotheke Koblenz","Karl-Tesche-Str.1/Schlachthofstrasse","56073","Koblenz"
"easyApotheke Andernach","Koblenzer Str. 39-41","56626","Andernach"
"easyApotheke Mayen","Koblenzer Str. 181","56727","Mayen"
"easyApotheke Siegen","Sandstr. 163","57072","Siegen"
"easyApotheke an der Godesburg","Am Michaelshof 4a","53177","Bad Godesberg"
"easyApotheke Siegburg City","Neue Poststr. 1-3","53721","Siegburg"
"easyApotheke Hürth OHG","Eschweiler Str. 2","50354","Huerth-Hermuelheim"
"easyApotheke Frechen-City","Hauptstr. 107-109","50226","Frechen"
"easyApotheke Kerpen","Am Falder 28","50171","Kerpen"
"easyApotheke Eschweiler","Langwahn 54","52249","Eschweiler"
"easyApotheke Heinsberg","Humboldtstr. 18","52525","Heinsberg"
"easyApotheke Kleinheubach","In Der Seehecke 1","63924","Kleinheubach"
"easyApotheke Heidelberg","Bahnhofstr. 36","69115","Heidelberg"
"easyApotheke Dossenheim","Gewerbestr. 9-11","69221","Dossenheim"
"easyApotheke Höchst (Odw.)","Wernher-von-Braun-Str. 2-6","64739","Höchst"
"easyApotheke Viernheim","Janusz-Korcak-Allee 1","68519","Viernheim"
"easyApotheke Schifferstadt","Waldspitzweg 3","67105","Schifferstadt"
"easyApotheke Main Park Center","Am Glockenturm 1","63814","Mainaschaff"
"easyApotheke Mutterstadt","An der Fohlenweide 21","67112","Mutterstadt"
"easyApotheke Bensheim","Fabrikstr. 2","64625","Bensheim"
"easyApotheke Dieburg","Frankfurterstr. 57","64807","Dieburg"
"easyApotheke Bad Soden-Salmünster","Am Palmusacker 10c","63628","Bad Soden-Salmünster"
"easyApotheke Hainburg","Fasanerie Arkaden 10","63512","Hainburg"
"easyApotheke Dietzenbach","Masayapl. 3","63128","Dietzenbach"
"easyApotheke im Rondo","Otto-Hahn-Str. 18","63456","Hanau"
"easyApotheke Bruchköbel Grünebaum Apotheken OHG","Keltenstr. 18a","63486","Bruchköbel"
"easyApotheke im Ostend","Louis-Appia-Passage 10","60314","Frankfurt am Main"
"easyApotheke Frankfurt Südbahnhof","Hedderichstr. 47","60594","Frankfurt am Main"
"easyApotheke Europaviertel","Europaallee 132","60486","Frankfurt am Main"
"easyApotheke Bad Vilbel","Friedberger Str. 77b","61118","Bad Vilbel"
"easyApotheke Raunheim","Flörsheimer Str. 1","65479","Raunheim"
"easyApotheke am Krifteler Markt","Kapellenstr. 48a","65830","Kriftel"
"easyApotheke Usingen","Neuer Marktplatz 2","61250","Usingen"
"easyApotheke Sulzbach","Quierschieder Weg 3d","66280","Sulzbach"
"easyApotheke Dillingen","Jahnstr. 17","66763","Dillingen/Saar"
"easyApotheke Reutlingen","Föhrstr. 40","72760","Reutlingen"
"easyApotheke Backnang","Im Biegel 16","71522","Backnang"
"easyApotheke Mössingen","Bahnhofstr. 5","72116","Mössingen"
"easyApotheke Kornwestheim","Bahnhofsplatz 16","70806","Kornwestheim"
"easyApotheke Heilbronn","Klarastr. 12","74072","Heilbronn"
"easyApotheke Karlsruhe-Knielingen","Gruenhutstr. 1","76187","Karlsruhe-Knielingen"
"easyApotheke Emmendingen","Freiburger Str. 4","79312","Emmendingen"
"easyApotheke Freiburg im Hbf","Bismarckallee 13","79098","Freiburg im Breisgau"
"easyApotheke Freising","Münchner Str. 32","85354","Freising"
"easyApotheke Aichach","Augsburger Str. 17","86551","Aichach"
"easyApotheke Landsberg","Augsburger Str. 46A","86899","Landsberg"
"easyApotheke Haunstetten","Unterer Talweg 601/2","86179","Augsburg"
"easyApotheke Augsburg-Mitte","Maximilianstr. 13","86150","Augsburg"
"easyApotheke Landshut Park","Ludwig Erhard Str. 9","84034","Landshut"
"easyApotheke Neuburg","Am Südpark 7","86633","Neuburg"
"easyApotheke Wörth","Landshuterstr. 16","84109","Wörth an der Isar"
"easyApotheke Neuötting","Braumeisterstr. 1","84524","Neuötting"
"easyApotheke Donauwörth","Dillinger Str. 22-34","86609","Donauwörth"
"easyApotheke Eggenfelden","Schellenbruckplatz 43","84307","Eggenfelden"
"easyApotheke Bajuwarenstraße","Von-Seeckt-Str. 21","93053","Regensburg"
"easyApotheke Straubing e.K.","Schildhauerstr. 14","94315","Straubing"
"easyApotheke Neumarkt","Nürnbergerstr. 44","92318","Neumarkt"
"easyApotheke Deggendorf","Steinbruchweg 1","94469","Deggendorf"
"easyApotheke im Langwasser Center","Oppelner Str. 223","90473","Nürnberg-Langwasser"
"easyApotheke Geisseestraße","Konstanzenstr. 92","90439","Nürnberg"
"easyApotheke Laufamholzstraße","Laufamholzstr. 114","90482","Nürnberg"
"easyApotheke Weiden","Doktor-Seeling-Str. 18-24","92637","Weiden"
"easyApotheke Forchheim","Hafenstr. 2","91301","Forchheim"
"easyApotheke Bayreuth-Süd","Leuschnerstr. 53","95447","Bayreuth"
"easyApotheke Nürnberger Straße","Nürnberger Str. 61","97076","Würzburg"
"easyApotheke Unterdürrbacher Straße","Unterdürrbacherstr. 6","97080","Würzburg"
"easyApotheke Marktheidenfeld","Georg-Mayr-Str. 15A","97828","Marktheidenfeld"
"easyApotheke Mohrenstraße","Mohrenstr. 7a","96450","Coburg"
"easyApotheke Rödental","Oeslauer Str. 79","96472","Rödental"
"easyApotheke Lauterer Höhe","Niorter Str. 3","96450","Coburg"
"easyApotheke Hof/Saale","Christoph-Klauß-Str. 13","95028","Hof/Saale"
"easyApotheke Bad Neustadt/Saale","Meininger Str. 14","97616","Bad Neustadt/Saale"
"easyApotheke Aue Suhl","Würzburger Str. 29","98529","Suhl"
"easyApotheke Weimar","Damaschkestr. 1a","99425","Weimar"
"DocMorris","Obere Str. 6-10","07318","Saalfeld/Saale"
"DocMorris","Schulstr. 12","01609","Gröditz"
"Apotheke Großbeeren","Berliner Str. 30m","14979","Großbeeren"
"DocMorris","Schönefelder Chaussee 233","12524","Berlin"
"DocMorris","Rudower Chaussee 12","12489","Berlin-Adlershof"
"DocMorris","Strausberger Platz 11-12","10243","Berlin"
"DocMorris","Hönower Str. 95a","12623","Berlin"
"DocMorris","W.-I.-Lenin-Str. 23","19370","Parchim"
"DocMorris","Ostseepark 3","18069","Sievershagen"
"DocMorris","Große Bergstr. 231","22767","Hamburg"
"DocMorris","Grelckstr. 36","22529","Hamburg"
"DocMorris","Wählingsallee 6","22459","Hamburg"
"DocMorris","Sophienblatt 36","24103","Kiel"
"DocMorris","Stadtweg 58","24837","Schleswig"
"DocMorris","Benno-Schilde-Str. 9","36251","Bad Hersfeld"
"DocMorris","Spiekergasse 1","33330","Gütersloh"
"Apofox Apotheke","Marktstr. 28","31303","Burgdorf"
"DocMorris","Worringer Str. 83","40211","Düsseldorf"
"DocMorris","Friedrich-Ebert-Str. 4-8","45127","Essen"
"Gala Apotheke","Heifeskamp 6","45475","Mülheim a.d. Ruhr"
"DocMorris","Oberhausener Str. 177","45476","Mülheim"
"DocMorris","Asterlager Str. 90","47228","Duisburg"
"DocMorris","Burgstr. 31","48151","Münster"
"DocMorris","Hauptstr. 8","41747","Viersen"
"DocMorris","Alzeyer Str. 81","55543","Bad Kreuznach"
"EngelApotheke","Hauptstr. 363","55743","Idar-Oberstein"
"DocMorris","Bahnhofstr. 3","59939","Olsberg"
"DocMorris","Neustr. 34","53879","Euskirchen"
"DocMorris","Frankfurter Str. 17","51065","Köln"
"DocMorris","Herschelstr. 13","51065","Köln"
"DocMorris","Friedrich-Ebert-Str. 13a","51373","Leverkusen"
"Apotheke im Ruhrtal Center","Carl-Bönnhoff-Str. 1","58300","Wetter"
"DocMorris","Wormser Str. 13","67227","Frankenthal"
"DocMorris","Bebelstraße 6","67549","Worms"
"DocMorris","Offenbacher Str. 9","63128","Dietzenbach"
"Limes Vital Apotheke","Dieselstr. 14","61191","Rosbach"
"DocMorris","Bahnhofstr. 41","66538","Neunkirchen"
"DocMorris","Poststr. 3","66822","Lebach"
"DocMorris","Pavillionstr. 13","66740","Saarlouis"
"DocMorris","Friedrich-Ebert-Str. 40","66763","Dillingen"
"DocMorris","Gewerbestr. 18","72525","Münsingen"
"DocMorris","Museumstr. 4","75172","Pforzheim"
"DocMorris","Dombühler str. 8","90449","Nürnberg"
"Gesund leben Apotheke Saalfeld","Obere str. 6-10","'07318","Saalfeld"
"gesund leben Apotheke Saalfeld","Obere Str. 6-10","07318","Saalfeld/Saale"
"Gertruden Apotheke","Blankenburger Straße 1-3","07318","Saalfeld"
"Saxonia Apotheke","Prager str. 8a","'01069","Dresden"
"Saxonia Apotheke","Prager str. 8a","01069","Dresden"
"Arkaden-Apotheke","Holzhaeuser str. 112","'04299","Leipzig"
"Arkaden-Apotheke","Holzhaeuser str. 112","04299","Leipzig"
"Apotheke im Seidnitz Center","Enderstr. 59","'01277","Dresden"
"Apotheke im Seidnitz Center","Schandauer Str. 23","01277","Dresden, Stadt"
"Schloss-Apotheke","Hallesche str. 20","06258","Schkopau"
"Schloss-Apotheke","Hallesche str. 20","'06258","Schkopau"
"Apotheke im Gesundheitszentrum","Koenigsbruecker Land 98","'01109","Dresden"
"Apotheke im Gesundheitszentrum","Koenigsbruecker Land 98","01109","Dresden"
"Moritz-Apotheke","Beesener Straße 211"," 06110","Halle"
"Apotheke am Markt","Schleifenbachstr. 2","'06502","Thale"
"gesund leben Apotheke Altglienicke-Schönefeld","Schönefelder Chaussee 233","12524","Berlin"
"Apollo Apotheke","Turmstr. 46","10551","Berlin"
"Rosen Apotheke","Rud.-Seiffert-straße11","10369","Berlin"
"gesund leben Apotheke Mahlsdorf","Hönower Str. 95 A","12623","Berlin-Hellersdorf"
"Akazien Apotheke","Waldstr. 56","16761","Hennigsdorf"
"Ahorn-Apotheke Vehlefanz","Lindenallee 27","16727","Oberkrämer"
"Apotheke am Papenberg","Rosa-Luxemburg-str. 20 B","17192","Waren"
"Schweden Apotheke","Werdohler Str. 3","17153","Stavenhagen"
"Die Insel am Westring Apotheke","Westring 6 a","27793","Wildeshausen"
"Moorkamp-Apotheke","Brendelweg 5","27755","Delmenhorst"
"gesundleben Apotheke LLOYD-PASSAGE","Lloyd Passage 40","28195","Bremen"
"Ulen Apotheke","Groot Enn 3","21149","Hamburg"
"Apotheke im Marktkauf","Bahnhofstr. 47","21614","Buxtehude"
"Diek Apotheke","Ofenerdieker str. 32","26125","Oldenburg"
"Apotheke am Bahrenfelder Bahnhof","Friedensallee 261","22763","Hamburg"
"Apotheke im Spectrum am UKE","Martinistrasse 64","20251","Hamburg"
"gesund leben Apotheke am UKE","Martinistrasse 52","20251","Hamburg"
"Kleist Apotheke","Eidelstedter Platz 10 d","22523","Hamburg"
"Brahms-Apotheke","Diesterwegstr. 33 c","25421","Pinneberg"
"Dornbusch-Apotheke","Friedensstr. 25","23942","Dassow"
"gesund leben Apotheke Marco Gehrt","Menkestr. 10","26419","Schortens"
"Apotheke am Dorfplatz","Dorfstr. 156","24222","Schwentinental"
"Russeer Apotheke","Rutkamp 1","24111","Kiel"
"Friesen Apotheke","Kronshagener Weg 17","24114","Kiel"
"Mohren Apotheke","Holtenauer str. 148","24105","Kiel"
"Einhorn-Rats Apotheke","Markt 10-12","25813","Husum"
"Stern Apotheke","Brunnenstr. 71","34537","Bad Wildungen"
"Apotheke im Kurzentrum Hussein OHG","Herzog-Wilhelm-str. 86","38667","Bad Harzburg"
"Apotheke am Stern","Olvenstedter Chaussee 104","39130","Magdeburg"
"gesundleben Apotheke am Stadtmarkt","Lange Herzogstr. 1","38300","Wolfenbüttel"
"Hirsch Apotheke","Göttinger str. 22","30982","Pattensen"
"Flora-Apotheke","Schlesierweg 22C","355351","Wolfsburg"
"Adler Apotheke","Geibelstraße 2 A","30890","Barsinghausen"
"Bahnhof-Apotheke","Viktoriastr. 23","32423","Minden"
"Jakobus Apotheke","Roseller str. 5","41516","Grevenbroich"
"Europa Apotheke","Adolf-Flecken-Str. 22-24","41460","Neuss"
"Apoland Apotheke","Lange Straße 54","44579","Castrop-Rauxel"
"Rosen Apotheke","Robert Koch Str. 2","45879","Gelsenkirchen"
"West Apotheke","Thüringer str. 1","46149","Oberhausen"
"Regenbogen Apotheke","Wolbecker str. 21","48155","Münster"
"Osning-Apotheke","Sutthauser str. 108","49080","Osnabrück"
"Stern Apotheke","Goldstr. 10","46325","Borken"
"Königsesch-Apotheke","Königseschstr. 57","48431","Rheine"
"Achat Apotheke","Vollmersbachstr. 65","55743","Idar-Oberstein"
"Achat Apotheke Tiefenstein","Tiefensteiner Str. 286","55743","Idar-Oberstein"
"Schiller Apotheke","Herold-Passage 2","53340","Meckenheim-Merl"
"Wilhelm Apotheke","Wilhelmstr. 68","53721","Siegburg"
"Antonius Apotheke","Toniusplatz 3","53913","Swisttal-Buschhoven"
"gesund leben Apotheke Christian Willeke","Hauptstr. 111","59846","Sundern"
"Sälzer Apotheke","Bahnhofstr. 16","59505","Bad Sassendorf"
"Apotheke im Haubrichforum","Josef Haubrich Hof 5","50676","Köln"
"Apotheke im Ruhrtal Center","Carl-Bönnhoff-Str. 1","58300","Wetter"
"Collini Apotheke","Collinistr. 11","68161","Mannheim"
"Boellensee Apotheke","Wilhelm-Sturmfels-str. 18","65428","Rüsselsheim"
"Viktoria Apotheke","Berliner Platz 24","65428","Rüsselsheim"
"Betzenberg Apotheke","St. Quentin-Ring 2","67663","Kaiserslautern"
"Apotheke am Schillerplatz","Schillerplatz 7","67655","Kaiserslautern"
"Feldberg Apotheke","Konrad-Adenauer-str. 2","61267","Neu-Anspach"
"Apotheke in der WERKStadt","Joseph-Schneider-Str. 1","65549","Limburg"
"Alpha Apotheke","Poststr. 20","66333","Völklingen"
"Apotheke am Ottilienplatz","Ottilienplatz 17","73728","Esslingen"
"Apotheke 55","Schwabstr. 55","70197","Stuttgart"
"Apotheke im Scheck-In","Fautenbacher Str. 25","77855","Achern"
"Franziscus-Apotheke","Bahnhofstr. 55 B","85375","Neufahrn"
"Traun-Apotheke","Werner-von-Siemens-straße2","83301","Traunreut"
"Rudolf Apotheke","Heimenegger Weg 8 b","87719","Mindelheim"
"Storchen Apotheke","Mittelöschstr. 7","88213","Ravensburg"
"Alte Stadt Apotheke","Marktplatz 17","91171","Greding"
"Ratibor Apotheke","Ratiborstr. 23","90473","Nürnberg"
"Birkenwald-Apotheke","Dombühler str. 8","90449","Nürnberg"
"Dreisessel-Apotheke","Dreisesselstr. 41","94089","Neureichenau"
"Sued Apotheke","Gebrüder-Lay-Str. 26","08527","Plauen"
"Schwan Apotheke","Neundorfer Str. 68","08523","Plauen"
"Adler Apotheke","Nicolaistr. 18","08209","Auerbach /Vogtl."
"Galenos Apotheke","Postplatz 3","08309","Eibenstock"
"Apotheke im ece","Am Kuchenhaus 12","08321","Zschorlau"
"Sonnen-Apotheke Bärenstein","Grenzstr. 2","09471","Bärenstein"
"Auer Stadt Apotheke","Altmarkt 7","08280","Aue"
"Apotheke am Borberg","Borbergweg 1","08107","Kirchberg"
"Adler Apotheke","Bahnhofstr. 27 A","08280","Aue"
"Schwanen-Apotheke Sehmatal","Karlsbader Str. 64","09465","Sehmatal-Sehma"
"Mohren Apotheke","Marktplatz 4","08294","Lößnitz"
"Adler-Apotheke Buchholz","Karlsbader Str. 18","09456","Annaberg-Buchholz"
"Apotheke am Sandberg","Gewerbering 6","08112","Wilkau-Haßlau"
"Virchow Apotheke","Karl-Keil-Str. 48","08060","Zwickau"
"Raben Apotheke","Annaberger Str. 8","09456","Mildenau"
"Adler Apotheke","Geraer Straße/Leitergasse 1","07570","Weida/Thür."
"Greifenstein Apotheke","Chemnitzer Str. 10","09419","Thum"
"Neue Apotheke","Invalidenplatz 1","09399","Niederwürschnitz"
"Loewen Apotheke","Markt 9","09429","Wolkenstein"
"Park Apotheke","Chemnitzer Str. 1","09385","Lugau"
"Loewen Apotheke","Markt 16","09496","Marienberg"
"Auersberg Apotheke","Platanenstr. 4","09356","St. Egidien"
"Apotheke Burkhardtsdorf","Lessingstr. 1","09235","Burkhardtsdorf"
"Stadt Apotheke","Quergasse 3","08371","Glauchau"
"Stadt Apotheke","Kirchgasse 4","09514","Pockau-Lengefeld"
"Baumgarten Apotheke","Chemnitzer Str. 46","09224","Chemnitz OT Grüna"
"Apotheke Grünhainichen","Chemnitzer Str. 44","09579","Grünhainichen"
"Baeren Apotheke","Clausstr. 76-80","09126","Chemnitz"
"Apotheke im Aerztehaus","Ludwig-Richter-Str. 10","09212","Limbach-Oberfrohna"
"Apotheke am Kassberg","Barbarossastr. 70","09112","Chemnitz"
"Flemming Apotheke","Rudolf-Krahl-Str. 81","09116","Chemnitz"
"Lukas Apotheke","Wilhelm-Külz-Platz 10","09113","Chemnitz"
"Apoth.im Chemnitz-Center","Ringstr. 54","09247","Chemnitz / OT Roehrsdorf"
"Neue Paracelsus-Apotheke","Leipziger Str. 9-11","09232","Hartmannsdorf"
"Apotheke Niederwiesa","Dresdner Str. 6 B","09577","Niederwiesa"
"Sonnen Apotheke","Friedrich-Marschner-Str. 49","09217","Burgstädt"
"Elefanten Apotheke","Ahnataler Platz 1","09217","Burgstädt"
"Sonnen Apotheke","Gutenbergstr. 70","09669","Frankenberg /Sa."
"Sonnen Apotheke","Schumannstr. 5","09648","Mittweida"
"Apotheke Wasserberg","Tschaikowskistr. 57 A","09599","Freiberg"
"Stadt Apotheke","Schillerstr. 31","04565","Regis-Breitingen"
"Park Apotheke","Parkstr. 2","09599","Freiberg"
"Loewen Apotheke","Burgstr. 7","09599","Freiberg"
"Kirchplatz-Apotheke","Kirchplatz 18/19","04523","Pegau"
"Dippold Apotheke","Kirchplatz 1","01744","Dippoldiswalde"
"Ahorn Apotheke","Leipziger Str. 2","04564","Böhlen"
"Winckelmann Apotheke","Wietzendorfer Str. 6","01728","Bannewitz"
"Sonnen-Apotheke","Str. des Friedens 27","04668","Grimma"
"LIPSIA APOTHEKE","Kochstr. 60","04275","Leipzig"
"Apotheke Gruna","Papstdorfer Str. 49","01277","Dresden"
"Augustus Apotheke","Gerichtsstr. 1","01069","Dresden"
"Elbtal Apotheke","Dresdner Str. 24","01156","Dresden-Cossebaude"
"Arnika Apotheke","Altenberger Platz 5","01277","Dresden"
"Apotheke Reudnitz","Dresdner Str. 53","04317","Leipzig"
"Hof Apotheke","Brühl 1","04109","Leipzig"
"Waldstrassen Apotheke","Waldstr. 43","04105","Leipzig"
"Barbarossa Apotheke","Kyffhäuserstr. 32","01309","Dresden"
"Stadtwald Apotheke im Kaufland","Schützestr. 1","01662","Meißen"
"Apotheke im Kaufland","Weintraubenstr. 31","01445","Radebeul"
"Rathaus Apotheke","Hauptstr. 13","01640","Coswig"
"Scheffel Apotheke","Bästleinstr. 6","04347","Leipzig"
"Nord Apotheke","Georg-Schumann-Str. 50","04155","Leipzig"
"Wilhelm Tell Apotheke","Georg-Schumann-Str. 103-111","04155","Leipzig"
"Hubertus Apotheke","Bautzner Landstr. 91","01324","Dresden"
"Elbtal Apotheke im Elbe Center","Niederauer Str. 43","01662","Meißen"
"Albert Schweitzer Apotheke","Lidicestr. 5","04349","Leipzig"
"Phoenix Apotheke Silberhöhe","Wilhelm-von-Klewiz-Str. 11","06132","Halle (Saale)"
"Neue Apotheke","James-von-Moltke-Str. 6","02826","Görlitz"
"Neue Apotheke","Str. der Einheit 75 A","02923","Kodersdorf"
"Mönchen Apotheke","Mönchenstr. 5","14913","Jüterbog"
"Apotheke Golzow","Hauptstr. 18","14778","Golzow"
"Stadt Apotheke","Baruther Str. 7/8","15806","Zossen"
"Obstland Apotheke","Luise-Jahn-Str. 1","14542","Werder (Havel)"
"Mohren Apotheke","Veilchenweg 2","14772","Brandenburg"
"Babelsberg Apotheke","Großbeerenstr. 123-135","14482","Potsdam"
"Margareten Apotheke","Berliner Str. 4","15754","Heidesee"
"Linden Apotheke","Bahnhofstr. 52","12305","Berlin"
"Süd Apotheke","Ladiusstr. 31","14165","Berlin"
"Linden Apotheke Lichterfelde","Lindenstr. 1 A","12207","Berlin"
"Linden Apotheke Südmeile","Buckower Chaussee 100","12277","Berlin"
"Gertruden Apotheke","Lankwitzer Str. 2-3","12209","Berlin"
"Marien Apotheke","Ruthstr. 12","12247","Berlin"
"Central-Apotheke","Hindenburgdamm 94 A","12203","Berlin"
"Kronen Apotheke","Schützenstr. 7","12165","Berlin"
"Zwilling Apotheke","Breitenbachplatz 10","14195","Berlin"
"Adler Apotheke Adlershof OHG","Dörpfeldstr. 7","12489","Berlin"
"Blitz Apotheke","Wexstr. 30","10715","Berlin"
"Amtsfeld Apotheke","Salvador-Allende-Str. 2-8","12559","Berlin"
"Akazien Apotheke","Hauptstr. 19","10827","Berlin"
"Dr. Warsow Apotheke","Sonnenallee 295","12057","Berlin"
"Arminius Apotheke","Hermannstr. 221","12049","Berlin"
"Wilhelm Busch Apotheke","Karl-Marx-Str. 132","12043","Berlin"
"Apotheke am Adenauerplatz","Kurfürstendamm 69","10707","Berlin"
"Suarez Apotheke","Suarezstr. 64","14057","Berlin"
"Apotheke zum Goldenen Anker","Lenaustr. 19","12047","Berlin"
"Apotheke an der Oper","Bismarckstr. 89","10627","Berlin"
"Paul Lincke Apotheke","Kottbusser Str. 15","10999","Berlin"
"Sonnenschein Apotheke","Treskowallee 128","10318","Berlin"
"Pegasus Apotheke","Adlerstr. 48","14612","Falkensee"
"Pegasus Apotheke im GHZ","Dallgower Str. 9","14612","Falkensee"
"Otto Apotheke","Ottostr. 21","10555","Berlin"
"Kur- Apotheke","Kurstr. 20","13585","Berlin"
"Apotheke Altes Kino","Brandenburgische Str. 76","15566","Schöneiche"
"Humboldt Apotheke","Chausseestr. 7","10115","Berlin"
"Apotheke am Rathaus","Möllendorffstr. 111","10367","Berlin"
"Storchen Apotheke","Hohes Feld 1","15566","Schöneiche"
"Märkische Apotheke","Müllerstr. 33","13353","Berlin"
"Lorbeer Apotheke","Danziger Str. 133","10407","Berlin"
"Steinbock Apotheke","Müllerstr. 96","13349","Berlin"
"Georginen Apotheke","Treskowstr. 76","12623","Berlin"
"Rosen Apotheke","Scharnweberstr. 27","13405","Berlin"
"Apotheke am Markt","Scharnweberstr. 48 A","13405","Berlin"
"Kolonie Apotheke","Koloniestr. 21","13359","Berlin"
"Löwenzahn Apotheke","Adele-Sandrock-Str. 113","12627","Berlin"
"Schneemann's Apotheke OHG","Hansastr. 236","13051","Berlin"
"Klee Apotheke im Plaza Marzahn","Mehrower Allee 20","12687","Berlin"
"Amsel Apotheke","Rostocker Str. 15","13059","Berlin"
"Adler Apotheke","Hauptstr. 3","15377","Buckow (Märkische Schweiz)"
"Henrietten Apotheke","Lehnitzstr. 21 a","16515","Oranienburg"
"Schleusen Apotheke","Granseer Str. 23 B","16515","Oranienburg-Sachsenh."
"Stadt Apotheke","Schinkelplatz 6","16775","Gransee"
"Kranich Apotheke","Hans-Beimler-Str. 42 b","17192","Waren (Müritz)"
"Regenbogen Apotheke","Hamburger-Allee 140 E","19063","Schwerin"
"Fritz-Reuter-Apotheke","Wittenburger Str. 40","19053","Schwerin"
"Apotheke im Gusanum","Wismarsche Str. 132-134","19053","Schwerin"
"Katharinen-Apotheke","Katharinenstr. 7","17033","Neubrandenburg"
"Brunnen Apotheke","Markt 20 B","17335","Strasburg (Uckermark)"
"Randow Apotheke","Chausseestr. 80 E","17321","Löcknitz"
"Apotheke zum Klostersee","Schlossstr. 60","17159","Dargun"
"Apotheke Satow","Fritz-Reuter-Str. 16","18239","Satow"
"Apotheke am Steintor","Neuer Markt 11","17389","Anklam"
"Hubertus Apotheke","Friedenstr. 29","17179","Gnoien"
"Weiden Apotheke","John-Brinckman-Str. 10 A","18190","Sanitz"
"Buchen Apotheke","Friedrich von Flotow Ring 15","18190","Sanitz"
"Altstadt Apotheke","Grubenstr. 20","18055","Rostock"
"Sonnen Apotheke OHG","Ehm-Welk-Str. 22","18106","Rostock"
"Apotheke zur Seebrücke","Strandstr. 41","18225","Kühlungsborn"
"Apotheke Schönwalde","Ernst-Thälmann-Ring 66","17491","Greifswald , Hansestadt"
"Ahorn Apotheke","Ernst-Thälmann-Ring 11-13","17491","Greifswald"
"Rosen Apotheke","Hans-Beimler-Str. 1-3","17491","Greifswald , Hansestadt"
"Adler Apotheke","Gützkower Str. 8","17489","Greifswald , Hansestadt"
"Stadt Apotheke","Wolgaster Str. 4","17489","Greifswald , Hansestadt"
"Sertürner Apotheke","Neue Strandstr. 39","17454","Zinnowitz"
"Bodden Apotheke","Lindenallee 25","18437","Stralsund"
"Kranich Apotheke","An der Stadtkoppel 18","18437","Stralsund"
"Scheele Apotheke","Marienstr. 2-4","18439","Stralsund"
"Baltic-Apotheke","Ossenreyerstr. 56","18439","Stralsund"
"Warmbad Apotheke","Olof-Palme-Platz 5","18439","Stralsund"
"Knieper Apotheke","Knieperdamm 6","18435","Stralsund"
"Rats Apotheke","Lange Str. 28","18356","Barth"
"Wizlaw Apotheke","Stralsunder Str. 33","18445","Prohn"
"Park-Apotheke","Markt 6","18581","Putbus"
"De Aptek","Str. der DSF 7","18528","Bergen auf Rügen"
"Apotheke Rotensee","Störtebekerstr. 31","18528","Bergen auf Rügen"
"Apotheke im Sana Krankenhaus","Calandstr. 7/8","18528","Bergen auf Rügen"
"Adler Apotheke","Markt 12","18569","Gingst"
"Jasmund Apotheke","Schulstr. 1 A","18551","Sagard"
"Kap Apotheke","Max-Reimann-Str. 2","18556","Altenkirchen"
"Apotheke Westercelle","Westerceller Str. 19","29227","Celle"
"Heide Apotheke","Fuhrberger Landstr. 27","29225","Celle"
"Mohren Apotheke","Heese 38","29225","Celle"
"Loens Apotheke","Bahnhofstr. 24","29303","Bergen"
"Heide Apotheke","Neumarkt 3","29562","Suhlendorf"
"Apotheke Wietzendorf","Hauptstr. 21","29649","Wietzendorf"
"Linden Apotheke","Hauptstr. 52","29683","Bad Fallingbostel"
"Rats Apotheke","Bücker Str. 1","27318","Hoya"
"Stern Apotheke","Alte Bremer Str. 1","27327","Martfeld"
"Neue Apotheke","Große Str. 60","27283","Verden (Aller)"
"Rats Apotheke","Obernstr. 22","28832","Achim"
"Haide Apotheke","Bahnhofstr. 3","21376","Salzhausen"
"Löwen Apotheke","Pieperstr. 12A","21357","Bardowick"
"Heidjer Apotheke","Bei der Kirche 30","21271","Hanstedt"
"Apotheke im Plaza","Norderstr. 16","21502","Geesthacht"
"Sonnen Apotheke","Mühlenstr. 2d","21629","Neu Wulmstorf"
"Löwen Apotheke Bergedorf","Hinterm Graben 31","21029","Hamburg"
"Süd Apotheke","Torfweg 8","21614","Buxtehude"
"Brücken Apotheke","Zwischen den Brücken 7","21614","Buxtehude"
"Friesland Apotheke","Morsumer Weg 18","22117","Hamburg"
"Löwen Apotheke","Rothenburgsorter Marktplatz 1","20539","Hamburg"
"Ring Apotheke","Billstedter Hauptstr. 35","22111","Hamburg"
"Nepomuk Apotheke","Schiffbeker Weg 230","22119","Hamburg-Billstedt"
"Hasselbrook-Apotheke","Caspar-Voght-Str. 88","20535","Hamburg"
"Schloss-Apotheke","Schlossstr. 44","22041","Hamburg"
"Claudius Apotheke","Wandsbeker Marktstr. 119","22041","Hamburg"
"Apotheke an der Fabrik","Bahrenfelder Str. 242-244","22765","Hamburg"
"Löwen Apotheke","Ahrensburger Str. 100","22041","Hamburg"
"Tonndorfer Apotheke","Tonndorfer Hauptstr. 53","22045","Hamburg"
"Dulsberg Apotheke","Straßburger Str. 28","22049","Hamburg"
"Mozart Apotheke","Friedrich-Ebert-Damm 85","22047","Hamburg"
"Apotheke am Zoll","Alter Teichweg 7","22081","Hamburg"
"Jarre Apotheke","Jarrestr. 42","22303","Hamburg"
"Laurin Apotheke","Osterstr. 133","20255","Hamburg"
"Apostel Apotheke","Bei der Apostelkirche 20","20257","Hamburg"
"Heine Apotheke Blankenese","Erik-Blumenfeld-Platz 1","22587","Hamburg"
"Förster Apotheke","Wolffstr. 9","22525","Hamburg"
"Florian Apotheke","Privatweg 2-4","22527","Hamburg"
"Goerne Apotheke","Goernestr. 2","20249","Hamburg"
"U-Bahn Apotheke Farmsen","Berner Heerweg 177A","22159","Hamburg"
"Greifenberg Apotheke","Greifenberger Str. 57 B","22147","Hamburg"
"Sülldorfer Apotheke","Sülldorfer Landstr. 206","22589","Hamburg"
"Bienen Apotheke","Alsterdorfer Str. 205","22297","Hamburg"
"Nordland Apotheke","Grönlander Damm 1","22145","Hamburg"
"Heubergredder Apotheke","Alsterdorfer Str. 284","22297","Hamburg"
"Neptun Apotheke","Bramfelder Chaussee 291","22177","Hamburg"
"Berner Apotheke","Hermann-Balk-Str. 139","22147","Hamburg"
"Alte Apotheke in Rissen","Wedeler Landstr. 23","22559","Hamburg"
"Hirsch Apotheke","Bürgerei 3","21720","Steinkirchen"
"Holthof Apotheke","Wedeler Landstr. 43","22559","Hamburg"
"ABC Apotheke","Borsteler Chaussee 177","22453","Hamburg"
"Gode Wind Apotheke","Elbgaustr. 112","22547","Hamburg"
"Alster Apotheke","Ratsmühlendamm 17","22335","Hamburg"
"Blumen Apotheke OHG","Tibarg 44","22459","Hamburg"
"Kornweg Apotheke","Stübeheide 153","22337","Hamburg"
"See Apo. am S-Bhf.-Krupunder","Seestr. 252","25469","Halstenbek"
"Hummelsbütteler Apotheke","Hummelsbütteler Markt 7","22339","Hamburg"
"Saseler Markt Apotheke","Saseler Markt 12B","22393","Hamburg"
"Rosen Apotheke","Manhagener Allee 46","22926","Ahrensburg"
"Poppenbütteler Apotheke","Poppenbütteler Weg 177","22399","Hamburg"
"Eichen Apotheke","Hauptstr. 36","25469","Halstenbek"
"Borwich Apotheke","Roman-Zeller-Platz 10","22457","Hamburg"
"Käkenhof Apotheke","Käkenflur 14B","22419","Hamburg"
"Löwen Apotheke","Hökerstr. 37","21682","Stade"
"Rosen Apotheke","Schweier Str. 1","26935","Stadland-Rodenkirchen"
"Tannenhof Apotheke","Tannenhof 56","22397","Hamburg"
"Coppernicus Apotheke","Berliner Allee 34A","22850","Norderstedt"
"Apotheke in Duvenstedt","Duvenstedter Damm 50","22397","Hamburg"
"Widder Apotheke Moorrege","Wedeler Chaussee 43 a","25436","Moorrege"
"Rathaus Apotheke","Großer Sand 1","25436","Uetersen"
"Liliencron Apotheke","Hauptstr. 115","22889","Tangstedt"
"Goethe Apotheke","Harksheider Weg 99","25451","Quickborn"
"Süd Apotheke","Dammstücken 43","24558","Henstedt-Ulzburg"
"Alster Apotheke","Neuer Weg 24","24558","Henstedt-Ulzburg"
"Apotheke am Behnhaus","Königstr. 14","23552","Lübeck"
"Flottkamp Apotheke","Flottkamp 124","24568","Kaltenkirchen"
"Hirsch Apotheke","Am Markt 3","24568","Kaltenkirchen"
"Humboldt Apotheke","Solmitzstr. 33","23569","Lübeck"
"Strand Apotheke","Strandallee 55","26969","Butjadingen"
"Markt Apotheke","Markt 17","23611","Bad Schwartau"
"Schiffs Apotheke","Rantzauallee 4","23611","Bad Schwartau"
"Engel Apotheke","Bremer Str. 72","26382","Wilhelmshaven"
"Nordland Apotheke","Vorderreihe 39","23570","Lübeck"
"Raphael Apotheke","Bahnhofstr. 53","25364","Westerhorn"
"Nordland Apo. am Dreilingsberg","Am Dreilingsberg 7","23570","Lübeck"
"Südstadt Apotheke","Theodor-Storm-Str. 15C","23795","Bad Segeberg"
"Alte Apotheke","Kirchstr. 31","23795","Bad Segeberg"
"Engel Apotheke","Kurhausstr. 60-62","23795","Bad Segeberg"
"Landweg Apotheke","Landweg 31","24576","Bad Bramstedt"
"Meeresstrand Apotheke","Badeweg 1","23683","Scharbeutz"
"Sonnen Apotheke","Strandallee 128","23683","Scharbeutz"
"Krokodil Apotheke","Hauptstr. 18A","24623","Großenaspe"
"Löwen Apotheke","Zur Ziegelei 1","24598","Boostedt"
"Center Apotheke Boostedt","Neumünsterstr. 51","24598","Boostedt"
"Alte Stadt Apotheke","Am Markt 2","23730","Neustadt in Holstein"
"City Apotheke","Großflecken 51-53","24534","Neumünster"
"Falderapark Apotheke","Wasbeker Str. 145","24534","Neumünster"
"Löwen Apotheke","Am Teich 9","24534","Neumünster"
"Rosen Apotheke","Berliner Platz 12","23701","Eutin"
"Königlich privileg. Apotheke","Kirchenstr. 5","24211","Preetz"
"Sonnen Apotheke","Hegereiterweg 2A","24220","Flintbek"
"Fital Apotheke im famila","Posthofstr. 4","24321","Lütjenburg"
"Apotheke am Freilichtmuseum","Am Museum 1A","24113","Molfsee"
"Roland Apotheke","Rendsburger Landstr. 79","24113","Kiel"
"West Apotheke","Ringstr. 64","24103","Kiel"
"Germania Apotheke","Schönberger Str. 165","24148","Kiel"
"Schwentine Apotheke","Schönberger Str. 11","24148","Kiel"
"Jütland Apotheke","Jütlandring 24","24109","Kiel"
"Rasmus Apotheke","Quedensweg 1","24248","Mönkeberg"
"Ulex Apotheke","Kopperpahler Allee 121","24119","Kronshagen"
"Sonnen Apotheke","Königstr. 18","24768","Rendsburg"
"Nord Apotheke","Holtenauer Str. 344","24106","Kiel"
"Park Apotheke","Hollerstr. 96","24782","Büdelsdorf"
"Eider Apotheke","Hollerstr. 101","24782","Büdelsdorf"
"Apotheke am Rathaus","Dorfstr. 17","24226","Heikendorf"
"Dithmarscher Apotheke","Am Markt 10","25764","Wesselburen"
"Rosen Apotheke","Buschblick 152","24159","Kiel"
"Storch Apotheke","Süderende 10","24803","Erfde"
"Königlich Privilegierte Apo.","P.-H.-Kühl-Platz 4","25774","Lunden"
"Gorch Fock Apotheke","Gorch-Fock-Str. 21","24848","Kropp"
"Bären Apotheke","Mönchenbrückstr. 10","24837","Schleswig"
"Schwan Apotheke","Großstr. 21","25813","Husum"
"Neue Apo am Dehnthof Greßmann","Dehnthof 9","24376","Kappeln"
"Apotheke Handewitt","Wiesharder Markt 2","24983","Handewitt"
"Kalbach Apotheke","Hauptstr. 10 A","36148","Mittelkalbach"
"Adler Apotheke","Kirchgasse 30","35516","Münzenberg"
"Stern Apotheke","Weiseler Str. 25-27","35510","Butzbach"
"Alte Apotheke","Wetzlarer Str. 5","35510","Butzbach"
"Liebig Apotheke","Klinikstr. 33","35392","Gießen"
"Enten Apotheke","Wetzlarer Str. 33","35638","Leun"
"Schönbach Apotheke","Hauptstr. 49","35614","Aßlar-Werdorf"
"Kurbad Apotheke","Baunsbergstr. 46","34131","Kassel-Wilhelmshöhe"
"Muehlen Apotheke","Lange Str. 6","37124","Rosdorf"
"Apotheke Dr. Anschuetz Grone","Salinenweg 1","37081","Göttingen"
"Homburg Apotheke","Neue Str. 2 A","37627","Stadtoldendorf"
"Eulenspiegel Apotheke","Halberstädter Str. 55","39112","Magdeburg-Sudenburg"
"Raabe Apotheke","Raabestr. 2","37632","Eschershausen"
"Apotheke Bodenburg","Am Markt 14","31162","Bad Salzdetfurth"
"Apotheke im Kannenstieg-Center","Hanns-Eisler-Platz 11","39128","Magdeburg"
"Linden Apotheke","Heinder Str. 7","31162","Bad Salzdetfurth"
"Dom Apotheke","Westernstr. 11","38154","Königslutter am Elm"
"Zollplatz Apotheke","Westernstr. 23","38154","Königslutter am Elm"
"Berg Apotheke","Bergsteinweg 40","31137","Hildesheim"
"Weser Apotheke","Hauptstr. 60 A","31860","Emmerthal"
"Apotheke am Steintor","Helmstedter Str. 1 A","38102","Braunschweig"
"St. Petri Apotheke","Lange Str. 36","38100","Braunschweig"
"Apotheke am Saarplatz","Sulzbacher Str. 47","38116","Braunschweig"
"Apotheke am Schwarzen Berge","Ligusterweg 28","38112","Braunschweig"
"Mickefett Apotheke","Zuckerweg 1","31241","Ilsede"
"Loewen Apotheke","Holztorstr. 19","31157","Sarstedt"
"Adler Apotheke","Lange Str. 10","31848","Bad Münder am Deister"
"St. Johannis Apotheke","Pettenkoferstr. 2","30880","Laatzen"
"Kloster Apotheke","Hauptstr. 5 A","30974","Wennigsen (Deister)"
"Berg Apotheke","Hauptstr. 29","30974","Wennigsen (Deister)"
"Rats Apotheke Arnum","Gartenstr. 6","30966","Hemmingen-Arnum"
"Neue-Apotheke Mittelfeld","Lehrter Platz 3","30519","Hannover"
"Westerfelder-Rats Apotheke","Rathausplatz 4","30966","Hemmingen-Westerfeld"
"Ihmer Tor Apotheke","Ihmer Tor 4","30952","Ronnenberg"
"Liebig Apotheke","Burgdorfer Str. 9","31275","Lehrte"
"Gertrauden Apotheke","Hildesheimer Str. 72","30169","Hannover"
"Kleefelder Apotheke","Kirchröder Str. 105","30625","Hannover"
"Wilhelm Apotheke","Marienstr. 70","30171","Hannover"
"Apotheke Schwarzer Baer","Deisterstr. 11","30449","Hannover"
"Loens Apotheke","Lister Meile 64","30161","Hannover"
"Buchholzer Apotheke","Podbielskistr. 390","30659","Hannover"
"Schloss Apotheke","Lange Str. 14","31675","Bückeburg"
"Apotheke Vahrenheide","Vahrenheider Markt 13","30179","Hannover"
"Silbersee Apotheke","Söseweg 5","30851","Langenhagen"
"Stifts Apotheke","Stiftsallee 20-22","32425","Minden"
"Kastanien Apotheke","Am Spielplatz 8","30826","Garbsen"
"Elzer Apotheke","Walsroder Str. 20","30900","Wedemark-Elze"
"Löwen Apotheke","Kaiserstr. 81","42477","Radevormwald"
"Süd Apotheke","Lenneper Str. 6","42855","Remscheid"
"Park-Apotheke","Montanusstr. 8","42799","Leichlingen (Rheinland)"
"Unnersberg Apotheke","Unnersberger Allee 1","42659","Solingen"
"Ahorn Apotheke","Aufderhöher Str. 169 a","42699","Solingen"
"Nußbaum Apotheke","Aufderhöher Str. 120","42699","Solingen"
"Neue Heckinghauser Apotheke","Heckinghauser Str. 137-139","42289","Wuppertal"
"Heide Apotheke","Heideweg 41","44267","Dortmund"
"Mohren Apotheke","Hauptstr. 45","40764","Langenfeld (Rheinland)"
"Zeughaus Apotheke","Gewerbeschulstr. 24","42287","Wuppertal"
"Marien Apotheke","Friedrich-Ebert-Str. 99","42719","Solingen"
"Rosen Apotheke","Friedrich-Ebert-Str. 257","42719","Solingen"
"Deutzerhof Apotheke","Friedrich-Ebert-Str. 122","42719","Solingen"
"Humboldt Apotheke","Weyerstr. 155","42719","Solingen"
"Bergische Apotheke","Düsseldorfer Str. 13","42697","Solingen"
"Goedecke'sche Apotheke","In der Freiheit 21","42653","Solingen"
"Hebbel-Apotheke","Heinestr. 9","40789","Monheim am Rhein"
"Apotheke am Schraberg","Schraberg 12","42279","Wuppertal"
"Äskulap Apotheke","Röttgen 165","42109","Wuppertal"
"Bahnhof Apotheke","Bahnhofstr. 13","42781","Haan"
"Kreuz-Apotheke","Hauptstr. 51 - 53","40789","Monheim am Rhein"
"Rosen-Apotheke","Holzweg 28","40789","Monheim am Rhein"
"Hellerhof-Apotheke","Carlo-Schmid-Str. 2","40595","Düsseldorf"
"Gruitener Apotheke","Bahnstr. 23 A","42781","Haan"
"Schloss-Apotheke","Benrather Schloßallee 103","40597","Düsseldorf"
"Sonnen-Apotheke","Berliner Str. 38 G","40822","Mettmann"
"Luisen Apotheke","Moltkestr. 2","44536","Lünen"
"Bahnhof Apotheke","Dr.-C.-Otto-Str. 121","44879","Bochum"
"Burg Apotheke","Alte Hauptstr. 28","45289","Essen"
"Hütten Apotheke","Hauptstr. 207","42579","Heiligenhaus"
"Merkur Apotheke","Alte Hauptstr. 104","45289","Essen"
"Grafenberger-Apotheke","Grafenberger Allee 409","40235","Düsseldorf"
"Grafentaler Apotheke","Grafenberger Allee 302","40237","Düsseldorf"
"Albert-Schw.Apo a.d.Graf.Allee","Grafenberger Allee 134","40237","Düsseldorf"
"Albert-Schweitzer Apotheke","Uhlandstr. 9","40237","Düsseldorf"
"Düsseldorf Apotheke","Bilker Allee 57","40219","Düsseldorf-Unterbilk"
"Wappen-Apotheke","Graf-Adolf-Str. 18","40212","Düsseldorf"
"Ahorn Apotheke","Schangstr. 1-3","45259","Essen"
"Apotheke St.Martin","Lorettostr. 19","40219","Düsseldorf"
"Lenau Apotheke","Lenaustr. 1","40470","Düsseldorf"
"Apotheke in Rath","Westfalenstr. 49","40472","Düsseldorf"
"Lueg-Apotheke","Luegallee 8","40545","Düsseldorf"
"die Tuchmacherapotheke","Ringstr. 15","45219","Essen"
"Ruhr Apotheke","Werdener Str. 26","45219","Essen"
"Apotheke am Schwanneck","Krefelder Str. 45","41460","Neuss"
"Sofia Apotheke","Unterrather Str. 44","40468","Düsseldorf"
"Kronen Apotheke","Heinrichstr. 11","44623","Herne"
"Aller Apotheke","Rellinghauser Str. 283","45136","Essen"
"Dorotheen Apotheke","Rüttenscheider Str. 107","45130","Essen"
"Apotheke am Markt","Klarastr. 14","45130","Essen"
"Albert-Schweitzer Apotheke","Zweigertstr. 4","45130","Essen"
"Hubertus Apotheke","Speestr. 47","40885","Ratingen"
"Sommerburg Apotheke","Sommerburgstr. 165","45149","Essen"
"Tossehof Apotheke","Hüller Str. 55","45888","Gelsenkirchen"
"Apotheke Kürsch","Huestr. 111","45309","Essen"
"Apotheke im centr-o-med","Heibeckstr. 30","45711","Datteln"
"Apo am St. Vincenz Krankenhaus","Rottstr. 10","45711","Datteln"
"Ahorn Apotheke","Blitzkuhlenstr. 1","45659","Recklinghausen"
"Kaiser-Wilhelm-Apo. Schwier","Gladbecker Str. 271","45326","Essen"
"Hufeisen Apotheke","Paul-Kosmalla-Str. 7","45472","Mülheim an der Ruhr"
"Antonius Apotheke","St.-Eustachius-Platz 3","41564","Kaarst"
"Paracelsus Apotheke","Fersenbruch 17","45883","Gelsenkirchen"
"Malteser Apotheke","Schloßstr. 2","45355","Essen"
"Robert-Koch Apotheke","Altenessener Str. 446","45329","Essen"
"Vogelheimer Apotheke","Vogelheimer Str. 173","45329","Essen"
"Park Apotheke","Fürstäbtissinstr. 3","45355","Essen"
"Apotheke am Rabenhorst","Schloßstr. 174","45355","Essen"
"Frankamp Apotheke","Frankampstr. 49 h","45891","Gelsenkirchen"
"St.Gereon Apotheke","Hauptstr. 44","41836","Hückelhoven"
"Löwen Apotheke","Markt 22","41812","Erkelenz"
"Buersche Falken Apotheke","Hochstr. 1","45894","Gelsenkirchen"
"Apotheke Dr. Müller","Peterstr. 13","47877","Willich"
"Dom-Apotheke","Russellplatz 2","45894","Gelsenkirchen"
"Apotheke am EKO Schwier","Virchowstr. 39","46047","Oberhausen"
"Gutenberg Apotheke","Hermann-Albertz-Str. 61","46045","Oberhausen"
"Samariter Apotheke","Grenzstr. 34","46045","Oberhausen"
"Westfalia Apotheke","Poststr. 10","46236","Bottrop"
"Post Apotheke im Kaufland","Berliner Platz 8","46236","Bottrop"
"Regenbogen Apotheke","Hauptstr. 17","47809","Krefeld"
"Ketteler Apotheke","Bergstr. 9","46117","Oberhausen"
"Haag Apotheke","Parkhofstr. 45","41836","Hückelhoven"
"Damian Apotheke","Bülser Str. 59","45964","Gladbeck"
"Falken Apotheke","Bergstr. 20","45770","Marl"
"Liebfrauen Apotheke","Moosheide 113","41068","Mönchengladbach"
"Ruhr Apotheke","Fabrikstr. 35","47119","Duisburg"
"Stern Apotheke","Hülser Str. 10","47798","Krefeld"
"Apotheke am Volkspark","Weseler Str. 112","46149","Oberhausen"
"Adler Apotheke","Hauptstr. 94","41747","Viersen"
"Nord Apotheke","Hiesfelder Str. 210","46147","Oberhausen"
"Remigius-Apotheke","Löhstr. 11 - 13","41747","Viersen"
"Alte Markt Apotheke","Essener Str. 8","46282","Dorsten"
"Sonnen Apotheke","Borkener Str. 132","46284","Dorsten"
"Kuhtor-Apotheke","Burgring 1","47906","Kempen"
"Engel-Apotheke","Hauptstr. 36","41372","Niederkrüchten"
"Apotheke am Katharinenhof","Borner Str. 32","41379","Brüggen"
"Barbara Apotheke","Borther Str. 225","47495","Rheinberg"
"Laurentius Apotheke","Overhagenweg 2","48653","Coesfeld"
"Apotheke Büderich","Pastor-Bergmann-Str. 30","46487","Wesel"
"Löwen-Apotheke","Gelderner Str. 19","47661","Issum"
"Tannen Apotheke","Feldstr. 9","46485","Wesel"
"Dorf Apotheke","Hamminkelner Str. 4","46499","Hamminkeln"
"Südwall-Apotheke","Bahnhofstr. 9","47608","Geldern"
"Adler Apotheke OHG","Hochstr. 75","47665","Sonsbeck"
"Gesundpunkt Apotheke","Stadtlohner Str. 24","48683","Ahaus"
"Markt-Apotheke","Mühlenstr. 8","47589","Uedem"
"Bahnhof Apotheke","Bahnhofstr. 31","47574","Goch"
"Markt Apotheke","Zur Lieth 5","49424","Goldenstedt"
"Markt Apotheke am Rathaus","Markt 6","49716","Meppen"
"Sant Ambrogio Apotheke","Sant-Ambrogio-Ring 7","55276","Oppenheim"
"Marien Apotheke","Mainzer Str. 2","55294","Bodenheim"
"Bacchus Apotheke","Oppenheimer Str. 65 A","55130","Mainz-Laubenheim"
"Martinus Apotheke","Bürgermeister-Schmitt-Str. 1","55129","Mainz-Hechtsheim"
"Andreas Apotheke","Wassergasse 2","55270","Klein-Winternheim"
"Apotheke am Römischen Theater","Holzhofstr. 3","55116","Mainz"
"Süd Apotheke OHG","Südring 96","55128","Mainz-Bretzenheim"
"Mohren Apotheke","Christofsstr. 2","55116","Mainz"
"Europa Apotheke am Schillerpl.","Schillerstr. 26-28","55116","Mainz"
"Lothar Apotheke","Lotharstr. 7","55116","Mainz"
"Engel Apotheke","Große Bleiche 42","55116","Mainz"
"Hartenberg Apotheke","Dr. Martin-Luther-King Weg 20","55122","Mainz"
"Dijon Apotheke","Dijonstr. 26","55122","Mainz-Münchfeld"
"Westring Apotheke","Westring 5 A","55120","Mainz-Mombach"
"Löwen Apotheke","Mannheimer Str. 35","55545","Bad Kreuznach"
"Basilika Apotheke","Basilikastr. 26","55411","Bingen"
"St. Barbara Apotheke","Hochstr. 2","55425","Waldalgesheim"
"Apotheke Kirschweiler","Hauptstr. 62","55743","Kirschweiler"
"Marien Apotheke","Rheinuferstr. 36","56341","Kamp-Bornhofen"
"Adler Apotheke","Langer Markt 9","54411","Hermeskeil"
"Sophien Apotheke","Brenderweg 216","56070","Koblenz-Neuendorf"
"Remigius Apotheke","Herrensteg 13","54421","Reinsfeld"
"Medardus Apotheke","Bachstr. 4","56170","Bendorf"
"Dr. Althoff'sche Apotheke","Hauptstr. 87","56170","Bendorf"
"Althoff Apoth im Schlickcenter","Langendorfer Str. 94","56564","Neuwied"
"Burgtor Apotheke","Burgstr. 41","54516","Wittlich"
"Die Apotheke Mariahof","Am Mariahof 27","54296","Trier"
"Petrisberg Apotheke","Max-Planck-Str. 7","54296","Trier"
"Oranien Apotheke","Sohlbacher Str. 18","57078","Siegen"
"Apotheke Heiligkreuz","Rotbachstr. 30","54295","Trier"
"Rosen Apotheke","Bahnhofstr. 30-32","54292","Trier"
"Paulin Apotheke","Paulinstr. 88","54292","Trier"
"Apostel Apotheke","Matthiasstr. 17","54290","Trier"
"Grüne Apotheke","Heckingstr. 35","54439","Saarburg"
"Jesuiten Apotheke","Neustr. 1","54290","Trier"
"Hubertus Apotheke","Wasserbilliger Str. 12","54294","Trier-Zewen"
"Martinus Apotheke","Meierstr. 2","54294","Trier-Zewen"
"Baeren Apotheke","Hauptstr. 2","54306","Kordel"
"Trierweiler Apotheke","An der Kirche 1","54311","Trierweiler"
"Katharinen Apotheke","Linzer Str. 78 A","53562","St. Katharinen"
"Hundem-Apotheke","Würdinghauser Str. 40","57399","Kirchhundem"
"Mosel Apotheke","Kirchenweg 18","54453","Nittel"
"Sonnen Apotheke","Bahnhofstr. 7","57462","Olpe"
"Apotheke am Markt","Westfälische Str. 19","57462","Olpe"
"Elisabeth Apotheke","Prümzurlayer Str. 13","54666","Irrel"
"Flora Apotheke","Hauptstr. 18","54634","Bitburg"
"St.Engelbert-Apotheke","Friedrichstr. 4","59929","Brilon"
"Wachtberg Apotheke","Rathausstr. 3","53343","Wachtberg"
"Apotheke Nieder","Bundesstr. 159","59909","Bestwig"
"Martin Apotheke","Hopmannstr. 7","53177","Bonn"
"Burg Apotheke","Kaiserstr. 1","53773","Hennef (Sieg)"
"Robert-Koch Apotheke","Beethovenallee 19","53173","Bonn"
"Max und Moritz Apotheke","Hauptstr. 8","53819","Neunkirchen-Seelscheid"
"Löwen Apotheke","Wallstr. 14","54576","Hillesheim"
"Holzlarer Apotheke","Hauptstr. 56","53229","Bonn"
"Falken Apotheke","Drabenderhöher Str. 35","51674","Wiehl"
"Adelheidis Apotheke","Pützchens Chaussee 179","53229","Bonn"
"Apotheke am Europaplatz","Europaplatz 6","53721","Siegburg"
"St.Clemens Apotheke","Rheindorfer Str. 119","53225","Bonn"
"Linden Apotheke","Hauptstr. 55","53797","Lohmar"
"Quellen Apotheke","Chateauneufstr. 7","53347","Alfter"
"Einhorn Apotheke","Hauptstr. 22","54649","Waxweiler"
"Rochus Apotheke","Hauptstr. 154","59846","Sundern"
"Montigny-Apotheke","Friedrich-Ebert-Str. 236-238","58566","Kierspe"
"Apotheke am Teichplatz","Teichplatz 8","54595","Prüm"
"Apotheke in Bleialf","Auwer Str. 10","54608","Bleialf"
"Europa Apotheke","An St. Adelheid 12","51109","Köln"
"Malteser Apotheke","Odenthaler Str. 107","51465","Bergisch Gladbach"
"Bergische Apotheke","Handstr. 281","51469","Bergisch Gladbach"
"Sleidanus Apotheke","Blumenthaler Str. 19","53937","Schleiden"
"Brücken Apotheke","Buchheimer Str. 53","51063","Köln"
"Böcking-Apotheke","Böckingstr. 54 - 56","51063","Köln"
"Barbara-Apotheke","Bergstr. 213","51519","Odenthal"
"Hildegardis Apotheke","Neusser Str. 231","50733","Köln"
"Engel-Apotheke","Venloer Str. 325","50823","Köln"
"Goethe Apotheke im Helios-Haus","Venloer Str. 389","50825","Köln"
"Schloss Apotheke","Graf-Galen-Platz 9","51377","Leverkusen"
"Dr.Oehms-Apotheke","Lützenkirchener Str. 217","51381","Leverkusen"
"Gartenstadt-Apotheke","Altonaer Str. 53","50737","Köln"
"Blüten Apotheke","Wuppertalstr. 1","51381","Leverkusen"
"Falken Apotheke","Kölner Str. 31","51379","Leverkusen"
"Martinus-Apotheke","Chorbuschstr. 41","50765","Köln"
"Rursee-Apotheke","Nideggener Str. 8","52385","Nideggen"
"Kreuz-Apotheke","Hauptstr. 7","52372","Kreuzau"
"Hirsch Apotheke","Auf dem Driesch 32","50259","Pulheim"
"Linden Apotheke","Hackenbroicher Str. 72","50769","Köln"
"Roemerberg Apotheke","Am Römerberg 33","59192","Bergkamen"
"Adler-Apotheke","Rathausstr. 10","52459","Inden"
"Barbara-Apotheke","Stefanstr. 3","52223","Stolberg (Rhld.)"
"Eifel-Apotheke","Trierer Str. 800","52078","Aachen"
"Apotheke an der Westpromenade","Westpromenade 84","52525","Heinsberg"
"Kur Apotheke","Theodor-Leutwein-Str. 4","69429","Waldbrunn"
"Laurentius Apotheke","Goethestr. 60","63801","Kleinostheim"
"Odenwald Apotheke","Odenwaldstr. 122","64372","Ober-Ramstadt"
"Sonnen Apotheke","Wilhelm-Leuschner-Str. 27","64846","Groß-Zimmern"
"Brunnen Apotheke","Frankfurter Str. 26","64807","Dieburg"
"Sonnen Apotheke","Alte Bergstr. 79","64665","Alsbach-Hähnlein"
"Apfel Apotheke","Darmstädter Str. 79","64839","Münster"
"Central Apotheke","Heidelberger Landstr. 230","64297","Darmstadt"
"Einhorn Apotheke","Nieuwpoorter Str. 68","63110","Rodgau-Dudenhofen"
"Apotheke Klose im WEP","Schönauer Str. 8","67547","Worms"
"Apotheke Klose Kaiserpassage","Am Römischen Kaiser 9","67547","Worms"
"Stern Apotheke","Frankfurter Str. 19","64293","Darmstadt"
"Greifen Apotheke","Offenbacher Landstr. 52","63512","Hainburg-Hainstadt"
"Apotheke St. Peter","Schillerstr. 11-13","63110","Rodgau-Weiskirchen"
"Stern Apotheke","Bissersheimer Str. 27","67281","Kirchheim an der Weinstraße"
"Ahorn Apotheke","Salzstr. 11","63450","Hanau"
"Bären Apotheke","Verladeplatz 2","67269","Grünstadt"
"Bären Apotheke","Tizianplatz 37","64546","Mörfelden-Walldorf"
"Schubert Apotheke","Schubertstr. 26-28","64546","Mörfelden-Walldorf"
"Schweizer Apotheke","Schweizer Str. 47","60594","Frankfurt-Sachsenhausen"
"Rathaus Apotheke","Hauptstr. 50","65468","Trebur"
"Sertürner Apotheke","Alte Falterstr. 13","65933","Frankfurt-Griesheim"
"Az Apotheke","Burggrafenlacher Weg 18","65428","Rüsselsheim"
"Gräfenstein Apotheke","Prinzregentenstr. 5","66981","Münchweiler an der Rodalb"
"Smart Apotheke","Alzeyer Str. 11","65428","Rüsselsheim"
"Main Apotheke","Flörsheimer Str. 3","65795","Hattersheim-Eddersheim"
"Rathaus Apotheke","Untergasse 2","65474","Bischofsheim"
"Vitus Apotheke","Frankfurter Str. 32","65830","Kriftel"
"Paracelsus Apotheke","Weiherstr. 25","65239","Hochheim am Main"
"Taunus Apotheke","Friedrich-Ebert-Str. 4","65824","Schwalbach am Taunus"
"Liebig Apotheke","Schneiderstr. 8","67655","Kaiserslautern"
"Schwanen Apotheke OHG","Fackelstr. 19-21","67655","Kaiserslautern"
"Hirsch Apotheke","Louisenstr. 102","61348","Bad Homburg"
"Wallau Apotheke","Rathausstr. 1","65719","Hofheim am Taunus"
"Regenbogen Apotheke","Camp-King-Allee 8","61440","Oberursel (Taunus)"
"Franken Apotheke","Berliner Str. 272","65205","Wiesbaden"
"Apotheke am Hochfeld","Weglache 48","65205","Wiesbaden-Erbenheim"
"Kur Apotheke","Frankfurter Str. 36","61231","Bad Nauheim"
"Parkfeld Apotheke","Albert-Schweitzer-Allee 51","65203","Wiesbaden-Biebrich"
"Lilien Apotheke","Bahnhofsplatz 3","65189","Wiesbaden"
"Ahorn Apotheke","Frankfurter Str. 44","61239","Ober-Mörlen"
"Hubertus Apotheke","Danziger Str. 48","65191","Wiesbaden-Sonnenberg"
"Apotheke Klose im Luisen-Forum","Dotzheimer Str. 6-8","65185","Wiesbaden"
"Vital Apotheke im Mediceum","Kaiserstr. 171","66849","Landstuhl"
"Neue Apotheke","Bismarckring 24","65183","Wiesbaden"
"Markt Apotheke","Am Alten Markt 7","66849","Landstuhl"
"Poseidon Apotheke","Erikaweg 2","65396","Walluf"
"Sonnen Apotheke","Austr. 10","65527","Niedernhausen"
"Adler Apotheke","Rheingaustr. 56","65375","Oestrich-Winkel"
"Rosen Apotheke","Aarstr. 90","65232","Taunusstein-Bleidenstadt"
"Brunnen Apotheke","Lahnstr. 1","65606","Villmar-Aumenau"
"Rochus Apotheke","Hauptstr. 100","66583","Spiesen-Elversberg"
"Gambrinus Apotheke OHG","Poststr. 1","66386","St. Ingbert"
"Marien Apotheke","St. Ingberter Str. 1","66583","Spiesen-Elversberg"
"Römer Apotheke","Provinzialstr. 77","66130","Saarbrücken-Fechingen"
"Markus Apotheke","Kaiserstr. 77","66133","Saarbrücken-Scheidt"
"Spiemont Apotheke","Oberlinxweilerstr. 27","66606","St. Wendel-Niederlinxweiler"
"Markt Apotheke","Illinger Str. 1","66299","Friedrichsthal-Bildstock"
"Markt Apotheke","Am Markt 4","66280","Sulzbach"
"Glückauf Apotheke","Bahnhofstr. 25","66280","Sulzbach"
"Kramer'sche Apotheke","Saargemünder Str. 125","66119","Saarbrücken"
"Marien Apotheke","Trierer Str. 3-5","66125","Saarbrücken-Dudweiler"
"Engel Apotheke","Feldmannstr. 2 A","66119","Saarbrücken"
"Barbara Apotheke","Neunkircher Str. 3","66557","Illingen-Hüttigweiler"
"Schwanen Apotheke","Hauptstr. 14","66557","Illingen"
"St. Lukas Apotheke","Hochstr. 149","66115","Saarbrücken"
"Brunnen Apotheke","Schieferstr. 2","65620","Waldbrunn (Westerwald)"
"Barbara Apotheke","Alleestr. 32","66126","Saarbrücken-Altenkessel"
"Apotheke am Stumpen OHG","Ziegelhütter Str. 2","66292","Riegelsberg"
"Bergmanns Apotheke","Saarbrücker Str. 17","66265","Heusweiler"
"Lilien Apotheke","Hauptstr. 22","66346","Püttlingen-Köllerbach"
"Liebfrauen Apotheke","Pickardstr. 17","66346","Püttlingen"
"Apotheke am Markt","Am Markt 15","66822","Lebach"
"Tal Apotheke","Talstr. 1","66773","Schwalbach-Hülzweiler"
"St. Martin Apotheke","Schloßplatz 5","66793","Saarwellingen"
"Loewen Apotheke","Provinzialstr. 107","66806","Ensdorf"
"Crispinus Apotheke","Provinzialstr. 62B","66740","Saarlouis-Lisdorf"
"Ring Apotheke","Französische Str. 20","66740","Saarlouis"
"Donatus Apotheke","Schulstr. 21","66740","Saarlouis"
"Vitalikum Apotheke","Gluckstr. 1B","66802","Überherrn"
"Brunnen Apotheke","Odilienplatz 7","66763","Dillingen"
"Tal Apotheke","Honzrather Str. 69","66701","Beckingen-Honzrath"
"Rathaus Apotheke","Poststr. 19","66663","Merzig"
"Abtei Apotheke","Heinertstr. 8","66693","Mettlach"
"St. Lutwinus Apotheke","Freiherr-vom-Stein-Str. 13","66693","Mettlach"
"St. Nikolaus Apotheke","Saarburger Str. 23","66693","Mettlach-Orscholz"
"Römer Apotheke","Martinusstr. 24","66706","Perl-Nennig"
"Apotheke im Reichsst. Markt","Friedhofstr. 1","73430","Aalen"
"Lonetal Apotheke","Hauptstr. 103","73340","Amstetten"
"Schloss Apotheke","Tauchenweiler Str. 4","73457","Essingen"
"Stifts Apotheke","Priestergasse 9","73479","Ellwangen (Jagst)"
"Adler-Apotheke","Marienstr. 2","73479","Ellwangen (Jagst)"
"Apotheke im Ärztezentrum","Karlstr. 1","73479","Ellwangen (Jagst)"
"Nepomuk Apotheke","Nikolaistr. 12","73479","Ellwangen (Jagst)"
"Cosmas Apotheke","Bahnhofstr. 30","73329","Kuchen"
"Adler Apotheke","Hauptstr. 7","73560","Böbingen an der Rems"
"Filstal Apotheke","Heidenheimer Str. 63","73079","Süßen"
"Staufen Apotheke","Wilhelmstr. 2","73084","Salach"
"Bären Apotheke","Eichenstr. 8","73037","Göppingen"
"Schloss Apotheke","Schlossplatz 6","73054","Eislingen"
"Apotheke am Rathaus","Hauptstr. 17","73557","Mutlangen"
"Stadt Apotheke","Hauptstr. 47","73349","Wiesensteig"
"Stadt Apotheke","Bleichstr. 12","73033","Göppingen"
"Baronner'sche Apotheke","Hauptstr. 97","73087","Bad Boll"
"Schiller Apotheke","Hauptstr. 50","73033","Göppingen"
"Schloss Apotheke","Karlstr. 29","72525","Münsingen"
"Stadt Apotheke","Marktplatz 11","72525","Münsingen"
"Römerstein Apotheke","Aglishardter Str. 3","72587","Römerstein"
"Betz'sche Apotheke","Hauptstr. 37","74423","Obersontheim"
"Löwen Apotheke","Stuttgarter Str. 7","73066","Uhingen"
"Hohberg Apotheke","Hauptstr. 53","73655","Plüderhausen"
"Stadt Apotheke","Hauptstr. 19","73061","Ebersbach an der Fils"
"Schloss Apotheke","Frankenplatz 3","74592","Kirchberg an der Jagst"
"Hubertus Apotheke","Wieslauftalstr. 31","73614","Schorndorf"
"Apotheke Bernloch","Marktstr. 8","72531","Hohenstein-Bernloch"
"Apotheke am Ottilienberg","Silcherstr. 77","73614","Schorndorf"
"Gaupp'sche Apotheke","Oberer Marktplatz 1","73614","Schorndorf"
"Nord Apotheke","Welzheimer Str. 15","73614","Schorndorf"
"Markt Apotheke","Hirschstr. 5","72813","St. Johann"
"Berg'sche Apotheke","Kirchheimer Str. 97","73249","Wernau (Neckar)"
"Alb Apotheke","Lange Str. 1","72829","Engstingen"
"Apotheke am Markt","Kirchheimer Str. 4","73240","Wendlingen am Neckar"
"Rathaus Apotheke","Uracher Str. 4","73240","Wendlingen am Neckar"
"Apotheke Gerabronn","Blaufeldener Str. 10","74582","Gerabronn"
"Mörike Apotheke","Kirchheimer Str. 7","72622","Nürtingen"
"Baum Apotheke","Oberensinger Str. 14","72622","Nürtingen-Zizishausen"
"Uhland Apotheke","Uhlandstr. 3","72622","Nürtingen"
"St. Walterich Apotheke","Marktplatz 6","71540","Murrhardt"
"Rems Apotheke","Rathausstr. 30","73630","Remshalden"
"Bilharz Apotheke","Antonstr. 1","72488","Sigmaringen"
"Bären Apotheke","Bahnhofstr. 25-27","73630","Remshalden"
"Linden Apotheke","Hauptstr. 121","73730","Esslingen am Neckar"
"Linden Apotheke","Lindenstr. 13","72658","Bempflingen"
"Obertor Apotheke Dr.H.Kienzler","Obertorstr. 41","73728","Esslingen am Neckar"
"Apotheke Stetten","Klosterstr. 17","71394","Kernen im Remstal"
"Bären Apotheke","Wäldenbronner Str. 44","73732","Esslingen am Neckar"
"Pliensau Apotheke OHG","Oberer Metzgerbach 2","73728","Esslingen am Neckar"
"Aichtal Apotheke","Waldenbucher Str. 38","72631","Aichtal"
"Apotheke am Rathaus","Schulberg 5","72124","Pliezhausen"
"Apotheke am Obstmarkt","Dilleniusstr. 9","71522","Backnang"
"Adler Apotheke","Fellbacher Str. 1","71394","Kernen im Remstal"
"Apotheke Marktgasse","Marktgasse 5","71332","Waiblingen"
"Bären Apotheke","Gerberstr. 3","74635","Kupferzell"
"Schönbuch Apotheke","Hauptstr. 5","72141","Walddorfhäslach"
"Filder Apotheke","Nürtinger Str. 6","70794","Filderstadt"
"Apotheke Friedrich","Schillerstr. 58","71336","Waiblingen"
"Rinkenberg Apotheke","Ulmer Str. 292 B","70327","Stuttgart-Wangen"
"Marien Apotheke","Markgrafenstr. 14 A","78467","Konstanz"
"Apotheke Oeffingen","Schulstr. 15","70736","Fellbach-Oeffingen"
"Apotheke Hochberg","Waldallee 35","71686","Remseck am Neckar"
"Seelberg Apotheke","Wildunger Str. 52","70372","Stuttgart"
"Rossberg Apotheke","Ostendstr. 72","70188","Stuttgart-Ost"
"Quellen-Apotheke","König-Karl-Str. 20","70372","Stuttgart"
"Scarabaeus-Apotheke","König-Karl-Str. 34","70372","Stuttgart"
"Apotheke im Neckarzentrum","Neckaraue 2","71686","Remseck-Hochberg"
"Max Eyth Apotheke","Kapellenweg 20","70378","Stuttgart"
"Kronen Apotheke","Kronenstr. 3","72461","Albstadt"
"Kosmas Apotheke","Hauptstr. 42","74629","Pfedelbach"
"Schloss Apotheke","Mühlstr. 2","74653","Ingelfingen"
"Apotheke am Diakonie-Klinikum","Rosenbergstr. 21","70176","Stuttgart"
"Hölderlin Apotheke","Herrenberger Str. 36","72070","Tübingen"
"Nikolaus Apotheke","Konstanzer Str. 3","78476","Allensbach"
"Johannes Apotheke","Johannesstr. 37","70806","Kornwestheim"
"Stadt Apotheke","Bahnhofstr. 29","70806","Kornwestheim"
"Kuony Apotheke","Goethestr. 16","78333","Stockach"
"Alamannen Apotheke","Tübinger Str. 11","71088","Holzgerlingen"
"Schönbuch Apotheke","Böblinger Str. 9","71088","Holzgerlingen"
"Apotheke Neuhausen","Tuttlinger Str. 2","78579","Neuhausen ob Eck"
"Apotheke Dr.Dorda","Bahnhofstr. 89","71679","Asperg"
"Rathaus Apotheke","Rathausplatz 15","71696","Möglingen"
"Rathaus Apotheke","Marktplatz 2","71679","Asperg"
"Nellenburg Apotheke","Stockacher Str. 14","78576","Emmingen-Liptingen"
"Apotheke im Buch","Buchstr. 8","74321","Bietigheim-Bissingen"
"Sonnen Apotheke","Mercedesstr. 11/1","71063","Sindelfingen"
"See Apotheke in Gaienhofen","Hauptstr. 223","78343","Gaienhofen"
"Central Apotheke","Vaihinger Str. 4","71701","Schwieberdingen"
"Landern Apotheke","Auf Landern 24","71706","Markgröningen"
"Friedrich Apotheke","Friedrichstr. 17","72336","Balingen"
"Apotheke im Enztal-Center","Riedstr. 4","74354","Besigheim"
"Apotheke am Markt","Marktplatz 3","71139","Ehningen"
"Bürgerhaus Apotheke","Sindelfinger Str. 31","71069","Sindelfingen"
"Park Apotheke","Münchinger Str. 2","71282","Hemmingen"
"Höri Apotheke","Hauptstr. 53","78337","Öhningen-Wangen"
"Rathaus Apotheke","Rathausstr. 2","78532","Tuttlingen"
"Hubertus Apotheke","Bahnhofstr. 41","78532","Tuttlingen"
"Apotheke Actuell","Schillerstr. 18","74348","Lauffen am Neckar"
"Schütz'sche Apotheke","Jahnstr. 39","71272","Renningen"
"Obere Apotheke","Meinradstr. 2","72401","Haigerloch"
"Sonnen Apotheke","Pforzheimer Str. 4","71277","Rutesheim"
"Jagsttal Apotheke","Züttlinger Str. 10/1","74219","Möckmühl"
"Hohentwiel Apotheke","Hegaustr. 14","78224","Singen (Hohentwiel)"
"Drei Eichen Apotheke","Calwer Str. 8","71272","Renningen"
"Enz Apotheke","Vaihinger Str. 4","71665","Vaihingen an der Enz"
"Engel Apotheke","Angerstr. 2","78549","Spaichingen"
"Marien Apotheke","Hauptstr. 169","78549","Spaichingen"
"Paracelsus Apotheke","Marktplatz 2","78549","Spaichingen"
"Stadt Apo medizentrum zabergäu","Austr. 30","74336","Brackenheim"
"Schloss Apotheke","Franckstr. 21","71665","Vaihingen an der Enz"
"mea - meine apotheke, Schloss Apotheke VaiSana","Andreaestraße","71665","Vaihingen an der Enz"
"Rathaus Apotheke","Simmozheimer Str. 14","75382","Althengstett"
"Stadt Apotheke","Marktstr. 1","72202","Nagold"
"Schmid'sche Apotheke OHG","Marktstr. 13","72202","Nagold"
"Central Apotheke OHG","Freudenstädter Str. 25","72202","Nagold"
"Apotheke Wildberg","Marktstr. 20","72218","Wildberg"
"Schiller Apotheke","Schillerstr. 14","72160","Horb am Neckar"
"Spitzweg Apotheke","Friedhofstr. 21","75365","Calw"
"Schneider's Apotheke im Markt","Saline 5","78628","Rottweil"
"Stadt Apotheke","Löhrstr. 5","78647","Trossingen"
"Die Bahnhof Apotheke","Bahnhofstr. 9","74906","Bad Rappenau"
"Stadt Apotheke","Lederstr. 35","75365","Calw"
"Stadt Apotheke","Hauptstr. 18","78187","Geisingen"
"Stadt Apotheke","Marktstr. 7","78250","Tengen"
"Linden Apotheke","Hauptstr. 323","75223","Niefern-Öschelbronn"
"Schwanen Apotheke","In der Muslen 55","78054","Villingen-Schwenningen"
"Burg Apotheke","Gartenstr. 12","75056","Sulzfeld"
"Eschach-Apotheke","Steigstr. 3","78078","Niedereschach"
"Johannis Apotheke","Salzstr. 2","78073","Bad Dürrheim"
"Salinen Apotheke","Bahnhofstr. 4","78073","Bad Dürrheim"
"Marien Apotheke","Adolf-Kolping-Str. 16","74731","Walldürn"
"Paracelsus Apotheke am Sedanpl","Dillsteiner Str. 10A","75173","Pforzheim"
"Schwarzwald Apotheke","Lindenstr. 22","75328","Schömberg"
"Stadt Apotheke","Obere Torstr. 27-29","72175","Dornhan"
"Einhorn Apotheke","Winklerstr. 5","78176","Blumberg"
"Sonnenhof Apotheke","Carl-Schurz-str. 50 A","75180","Pforzheim"
"Zentral Apotheke","Freudenstädter Str. 7","78737","Fluorn-Winzeln"
"Hof Apotheke","Karlstr. 40","78166","Donaueschingen"
"Schellenberg Apotheke","Hauptstr. 56","78183","Hüfingen"
"Markt Apotheke","Baumgartenstr. 18","75217","Birkenfeld"
"Raban Apotheke","Rabanstr. 11","74921","Helmstadt-Bargen"
"Apotheke im Haslach","Breslauer Str. 16","78052","Villingen-Schwenningen"
"Hirsch Apotheke","Melanchthonstr. 74","75015","Bretten"
"Sonnen-Apotheke Sulgen","Gartenstr. 5","78713","Schramberg"
"Schwarzwald-Apotheke","Friedrichstr. 8","78126","Königsfeld im Schwarzwald"
"Burg Apotheke","Hauptstr. 52","78713","Schramberg"
"Apotheke Singen","Goethering 141","75196","Remchingen"
"Apotheke Unterkirnach","Villinger Str. 2","78089","Unterkirnach"
"Apotheke Melder","Hauptstr. 58","75196","Remchingen"
"Löwen Apotheke Tennenbronn","Hauptstr. 39/1","78144","Schramberg"
"Kur Apotheke","Pfarrer-Sieger-Str. 28","78730","Lauterbach"
"Rathaus Apotheke","Hauptstr. 8","78112","St. Georgen im Schwarzwald"
"Apotheke an der Lorenzkirche","Hauptstr. 24","78112","St. Georgen im Schwarzwald"
"Hochrhein Apotheke","Kirchstr. 1","79801","Hohentengen am Hochrhein"
"Luz'sche Stadt Apotheke","Hauptstr. 61","78098","Triberg im Schwarzwald"
"Albtal Apotheke","Schöllbronner Str. 2","76275","Ettlingen"
"Tulla Apotheke","Tullastr. 74","76131","Karlsruhe"
"Linden Apotheke","Wilhelmstr. 3","78120","Furtwangen im Schwarzwald"
"Apotheke am Markt","Friedrichstr. 3","78120","Furtwangen im Schwarzwald"
"mea - meine apotheke, Apotheke im Scheck-In-Center","Rüppurrer straße","76137","Karlsruhe"
"Rheintal Apotheke","Hauptstr. 21","79790","Küssaberg"
"Schönberger Apotheke","Hauptstr. 43","76316","Malsch"
"Sonnen Apotheke","Gebhardstr. 35","76135","Karlsruhe"
"Apotheke am Seidenhof","Hauptstr. 12","79761","Waldshut-Tiengen"
"Kinzigtal Apotheke","Lindenstr. 5","77716","Haslach im Kinzigtal"
"Olympia-Apotheke","Raiffeisenplatz 4 B","76448","Durmersheim"
"Apotheke am Kurgarten","Hauptstr. 169","77736","Zell am Harmersbach"
"Hornisgrinde Apo Sasbachwalden","Talstr. 28","77887","Sasbachwalden"
"Apotheke Dr.Kammerer","Bernau-Menzenschwander-Str. 5","79837","St. Blasien"
"Hornisgrinde Apotheke Lauf","Hauptstr. 37 A","77886","Lauf"
"Apotheke Steinach","Hauptstr. 29","77790","Steinach"
"Rohan's Burg-Apotheke","Renchener Str. 1","77704","Oberkirch"
"Bären Apotheke","Mitteldorfstr. 8","77781","Biberach"
"Albtal Apotheke","Schulstr. 10","79774","Albbruck"
"Stadt Apotheke","Hauptstr. 49","77855","Achern"
"Marien Apotheke am Turm","Hauptstr. 24","77723","Gengenbach"
"Ortenau Apotheke","Ortenauer Str. 33","77767","Appenweier"
"Rohan-Apotheke im Schuttertal","Hauptstr. 30","77960","Seelbach"
"Apotheke Zunsweier","Am Kirchberg 2","77656","Offenburg"
"Weingarten Apotheke","Moltkestr. 50","77654","Offenburg"
"Schwarzwald Apotheke","Hauptstr. 19","77652","Offenburg"
"Rössle Apotheke","Franckensteinstr. 30","77749","Hohberg"
"Löwen Apotheke","Hauptstr. 25","77749","Hohberg"
"Stadt Apotheke","Baron-Kückh-Str. 2","77866","Rheinau-Freistett"
"Immental-Apotheke","Urbanstr. 2","79104","Freiburg im Breisgau"
"Fridolins Apotheke","Steinbrückstr. 12","79713","Bad Säckingen"
"Rohan-Apotheke","Friedrichstr. 52","77955","Ettenheim"
"Stadt Apotheke","Hauptstr. 69","79664","Wehr"
"Apotheke am Wehrahof","Hauptstr. 4-6","79664","Wehr"
"Ried Apotheke","Kehler Str. 48","77743","Neuried-Altenheim"
"Adler Apotheke","Basler Str. 18-20","79664","Wehr"
"Iris Apotheke","Kehler Str. 1","77694","Kehl"
"Post Apotheke","Hauptstr. 94","77694","Kehl"
"Rohan's Anker-Apotheke","Hauptstr. 43","77694","Kehl"
"Rathaus Apotheke","Hauptstr. 13","79341","Kenzingen"
"Apotheke im Kaufland Rheinfeld","Großfeldstr. 2","79618","Rheinfelden"
"Rhein Apotheke","Zähringerstr. 21","79618","Rheinfelden (Baden)"
"Römer Apotheke","Bahnhofplatz 3","79618","Rheinfelden (Baden)"
"Kaiserstuhl Apotheke","Hauptstr. 3","79235","Vogtsburg im Kaiserstuhl"
"Breisgau Apotheke","Vogesenstr. 2","79206","Breisach am Rhein"
"Europa Apotheke","Richard-Müller-Str. 3c","79206","Breisach am Rhein"
"Stadt Apotheke","Neutorstr. 2","79206","Breisach am Rhein"
"Linden Apotheke","Basler Str. 15","79639","Grenzach-Wyhlen"
"Liebig Apotheke","Liebigstr. 5","80538","München"
"Apotheke am Thierschplatz","Thierschstr. 55","80538","München"
"Prinzregenten Apotheke","Einsteinstr. 149","81675","München"
"St. Nepomuk Apotheke","Lindwurmstr. 141","80337","München"
"Hirschgarten Apotheke","Wotanstr. 68","80639","München"
"Fürstenrieder Apotheke","Fürstenrieder Str. 102","80686","München"
"St. Heinrich Apotheke","Waldfriedhofstr. 38A","81377","München"
"Apotheke am Guardinipark","Guardinistr. 184","81375","München"
"Montessori Apotheke","Pfingstrosenstr. 85","81377","München"
"Wensauer Apotheke","August-Exter-Str. 2","81245","München"
"Katharinen Apotheke","Hauptstr. 27","82008","Unterhaching"
"Tell Apotheke","Steinkirchner Str. 28","81475","München"
"Maxhof Apotheke OHG","Maxhofstr. 32","81475","München"
"Allacher Apotheke","Nikolaus-Rüdinger-Str. 17","80999","München"
"Linden Apotheke","Eichenstr. 36","82024","Taufkirchen"
"Apotheke am Rathaus","Naupliaallee 8","85521","Ottobrunn"
"Jahn Apotheke","Jahnplatz 1-3","82166","Gräfelfing"
"Rosen Apotheke","Bahnhofstr. 23","82152","Planegg"
"Marien Apotheke","Margaretenstr. 52","82152","Krailling"
"Apotheke am Maxfeld","Maxfeldhof 5","85716","Unterschleißheim"
"Lessing Apotheke","Münchner Str. 64","85221","Dachau"
"Bosco Apotheke","Planegger Str. 6","82110","Germering"
"Johannes Apotheke","Kirchenstr. 7","82194","Gröbenzell"
"Obere Apotheke","Konrad-Adenauer-Str. 18","85221","Dachau"
"Eho Apotheke","Bahnhofstr. 4B","85386","Eching"
"Friedens Apotheke","Hubert-Deschler-Str. 11","82131","Gauting"
"Schloss Apotheke","Hauptstr. 4","85778","Haimhausen"
"Spitzweg Apotheke","Echinger Str. 13","85375","Neufahrn b. Freising"
"Tassilo Apotheke","Herzogplatz 14","85604","Zorneding"
"Römer Apotheke","Römerstr. 3a","85232","Bergkirchen"
"Hallberg Apotheke","Theresienstr. 63","85399","Hallbergmoos"
"Glonntal Apotheke","Schloßstr. 24","85256","Vierkirchen"
"Paulus Apotheke","Hauptstr. 16","85253","Erdweg"
"Apotheke im Kaufland","Raiffeisenstr. 25","85356","Freising"
"Marien Apotheke","Obere Hauptstr. 20","85354","Freising"
"Pilsensee Apotheke","Günteringer Str. 2","82229","Seefeld"
"St. Zeno Apotheke","St.-Zeno-Platz 4","84424","Isen"
"Apotheke Schondorf","Uttinger Str. 5","86938","Schondorf am Ammersee"
"Apotheke am Dorfbrunnen","Am Dorfbrunnen 3","86919","Utting am Ammersee"
"Weltrichsche Apotheke","Obere Hauptstr. 4","85456","Wartenberg"
"Ludwigs Apotheke Friedberg oHG","Ludwigstr. 25","86316","Friedberg"
"Kapuziner Apotheke","Kapuzinerstr. 4","85283","Wolnzach"
"Kur Apotheke","Bahnhofstr. 16","83661","Lenggries"
"Richildis Apotheke","Marktplatz 4","86558","Hohenwart"
"Rottal Apotheke","Dießener Str. 1","86935","Rott"
"Brücken Apotheke","Friedberger Str. 132 1/2","86163","Augsburg"
"Don Bosco Apotheke","Wilhelm-Hauff-Str. 34","86161","Augsburg"
"Apotheke am Schlössle","Blücherstr. 1","86165","Augsburg"
"Elisabeth Apotheke","Soldnerstr. 21","86167","Augsburg"
"Löwen Apotheke","Gögginger Str. 41-41 A","86159","Augsburg"
"Schwaben Apotheke","Neuburger Str. 254","86169","Augsburg"
"Die Ludwigs Apotheke","Ulmer Str. 8","86154","Augsburg"
"Apotheke am Oberhauser Bahnhof","Ulmer Str. 36","86154","Augsburg"
"Fuchstal Apotheke","Freybergstr. 4","86925","Fuchstal"
"Inter Apotheke","Mühlenstr. 1","84028","Landshut"
"Rosen Apotheke","Kirchenstr. 3","84478","Waldkraiburg"
"Stethaimer Apotheke","Äußere Regensburger Str. 52","84034","Landshut"
"St. Nepomuk Apotheke","Gustl-Waldau-Str. 61","84030","Ergolding"
"St. Georg Apotheke","Eichenstr. 2","83125","Eggstätt"
"St. Josef Apotheke","Schützenstr. 16F","84137","Vilsbiburg"
"Süd Apotheke","Münchener Str. 99","85051","Ingolstadt"
"Asam Apotheke","Asamstr. 37","85053","Ingolstadt"
"Landgerichts Apotheke","Landshuter Str. 53 b","84056","Rottenburg a.d.Laaber"
"St. Anna Apotheke","Schwarzkreuzstr. 2","86977","Burggen"
"Bahnhof Apotheke","Max-von-Müller-Str. 35A","84056","Rottenburg a.d.Laaber"
"Bahnhof Apotheke","Bahnhofstr. 10","84453","Mühldorf a. Inn"
"Hubertus Apotheke","Levelingstr. 102","85049","Ingolstadt"
"Apotheke d.Barmherz.Brüder","Bahnhofstr. 107","86633","Neuburg a.d.Donau"
"Marien Apotheke","Marktplatz 2","86989","Steingaden"
"Bahnhof Apotheke","Bahnhofstr. 7","86825","Bad Wörishofen"
"Neue Apotheke z.Goldenen Engel","Rottenburger Str. 7","84061","Ergoldsbach"
"Vitalis Apotheke","Hauptstr. 43","84061","Ergoldsbach"
"Flösser Apotheke","Bahnhofstr. 11","86983","Lechbruck am See"
"Ludwigs Apotheke","Ludwigstr. 50","82467","Garmisch-Partenkirchen"
"St. Martins-Apotheke","Fuggerstr. 8","86690","Mertingen"
"Burg Apotheke","Bad Wörishofer Str. 20","87719","Mindelheim"
"Engel Apotheke","Maximilianstr. 55","87719","Mindelheim"
"Landgerichts Apotheke OHG","Bahnhofstr. 8","84066","Mallersdorf-Pfaffenberg"
"Maximilium Apotheke","Kapellstr. 42","86609","Donauwörth"
"Rathaus Apotheke","Weberstr. 3","89343","Jettingen-Scheppach"
"Stadt Apo. Ludwig Steger e.K.","Stadtplatz 12","84307","Eggenfelden"
"Untere Stadt Apotheke","Königstr. 34","89407","Dillingen a.d.Donau"
"Obere Stadt Apotheke","Heinrich-Roth-Platz 1","89407","Dillingen a.d.Donau"
"Schwaben-Apotheke","Große Allee 31a","89407","Dillingen a.d.Donau"
"Apotheke auf der Wies","Auf der Wies 3","87727","Babenhausen"
"Stadt Apotheke","Professor-Bamann-Str. 13","89423","Gundelfingen a.d.Donau"
"Sonnen Apotheke","Ziertheimer Str. 3","89426","Wittislingen"
"Apotheke Brenner","Reindlstr. 5","89312","Günzburg"
"Apotheke im Oberösch","Im Oberösch 2","87437","Kempten (Allgäu)"
"Zangmeister Apotheke","Zwinggasse 3","87700","Memmingen"
"Güssen Apotheke","Von-Richthofen-Str. 18","89340","Leipheim"
"Stadt Apotheke","Memminger Str. 10","89264","Weißenhorn"
"Ludwigs Apotheke","Machnigstr. 4","87700","Memmingen"
"Marien Apotheke a.d. Sparkasse","Luitpoldstr. 1","83435","Bad Reichenhall"
"Rathaus Apotheke","Hauptstr. 28 A","89284","Pfaffenhofen a.d.Roth"
"Lonetal Apotheke OHG","Große Gasse 23","89168","Niederstotzingen"
"Marien Apotheke","Hauptstr. 13","89561","Dischingen"
"Martinus Apotheke","Rathausstr. 2","87448","Waltenhofen"
"St. Rupertus Apotheke","Berchtesgadener Str. 42","83457","Bayerisch Gmain"
"Schulhaus Apotheke","Hauptstr. 14","86738","Deiningen"
"Ries Apotheke","Schäfflesmarkt 6","86720","Nördlingen"
"Büttel Apotheke","Weißenhorner Str. 11","89278","Nersingen"
"St. Ulrich Apotheke","Schwalbenstr. 1","89278","Nersingen"
"Stadt Apotheke","Königstr. 53","89165","Dietenheim"
"Engel Apotheke","Heidenheimer Str. 36","89537","Giengen an der Brenz"
"Brücken Apotheke","Ulmer Str. 55","89537","Giengen an der Brenz"
"Deutschorden Apotheke","Vöhringer Str. 64","89186","Illerrieden"
"Hubertus Apotheke Unterelchi.","Hauptstr. 9","89275","Elchingen"
"Bavaria Apotheke","Thalfinger Str. 83","89233","Neu-Ulm"
"Apotheke Nattheim","Fleinheimer Str. 1","89564","Nattheim"
"Rosen Apotheke","Ottmannshofer Str. 19","88299","Leutkirch im Allgäu"
"St. Cosmas Apotheke","Hauptstr. 13 A","89233","Neu-Ulm"
"Matthäus Apotheke","Hauptstr. 45/1","89171","Illerkirchberg"
"Zoeppritz Apotheke","Zoeppritzstr. 1","89522","Heidenheim an der Brenz"
"Allgäu Apotheke","Grüntenstr. 24","87527","Sonthofen"
"Adler Apotheke","Promenadestr. 5 A","87527","Sonthofen"
"Central Apotheke","Hochstr. 7","87527","Sonthofen"
"Apotheke Friedrichsau","Eberhardtstr. 93","89073","Ulm"
"Insel Apotheke","Marienstr. 1","89231","Neu-Ulm"
"Grünstein Apotheke","Artenreitring 1A","83471","Schönau a. Königssee"
"Mohren Apotheke","Münsterplatz 37","89073","Ulm"
"Zentral Apotheke","Eugen-Jaekle-Platz 12","89518","Heidenheim an der Brenz"
"Apotheke 2000","Buchauer Str. 6","89079","Ulm"
"Heckental Apotheke","Rückertstr. 23","89518","Heidenheim an der Brenz"
"Römer Apotheke","Elisabethenstr. 10","89077","Ulm"
"Elisabethen Apotheke","Söflinger Str. 80","89077","Ulm"
"West Apotheke","Söflinger Str. 168","89077","Ulm"
"Pelikan Apotheke","Neue Gasse 11","89077","Ulm"
"St. Leonhard Apotheke","Weihgasse 3","89077","Ulm"
"Klosterhof Apotheke","Gemeindeplatz 2","89077","Ulm"
"Virchow Apotheke","Virchowstr. 1 - 3","89075","Ulm"
"Wassertor Apotheke","Wassertorstr. 51","88316","Isny im Allgäu"
"Kronen Apotheke","Marktplatz 7","88471","Laupheim"
"7 Schwaben Apotheke","Mittelstr. 16","88471","Laupheim"
"Ehrenstein Apotheke","Hummelstr. 3","89134","Blaustein"
"Neue Apotheke","Mittelstr. 46","88471","Laupheim"
"Löwen Apotheke","Ehinger Str. 31 - 33","89155","Erbach"
"Brenz Apotheke","Voithstr. 1","89551","Königsbronn"
"Apotheke an der Lone","Kirchstr. 6","89198","Westerstetten"
"Kreuz Apotheke","Bahnhofstr. 14/1","89134","Blaustein"
"Apotheke im Umlachtal","Fischbacher Str. 19","88436","Eberhardzell"
"Fünf Linden Apotheke","Fünf Linden 29","88400","Biberach an der Riß"
"Karls Apotheke","Karlstr. 58","89143","Blaubeuren"
"kur-apotheke","Friedhofstr. 4","88339","Bad Waldsee"
"Beckersche Apotheke z.St.Peter","Hauptstr. 58","88339","Bad Waldsee"
"Marien-Apotheke","Hauptstr. 76","89584","Ehingen (Donau)"
"Alpha Apotheke","Spitalstr. 29","89584","Ehingen (Donau)"
"Stadt Apotheke","Schulstr. 7","89601","Schelklingen"
"Apotheke Dr.Mack a.Wenzelstein","Am Wenzelstein 53","89584","Ehingen (Donau)"
"Apotheke Dr. Mack Rottenacker","Konrad-Sam-Str. 24","89616","Rottenacker"
"Allgäu Apotheke","Wangener Str. 3","88267","Vogt"
"Apotheke Dr. Mack Munderkingen","Schillerstr. 14","89597","Munderkingen"
"Apo. Dr. Mack am Marktplatz","Marktstr. 5","89597","Munderkingen"
"Apo. Amtzell am Cosner Platz","Martinstr. 3","88279","Amtzell"
"Adler-Apotheke","Hauptstr. 50","88326","Aulendorf"
"Apotheke am Alten Rathausplatz","Hauptstr. 66","88326","Aulendorf"
"Achtal Apotheke","Ravensburger Str. 6","88255","Baienfurt"
"Kloster Apotheke","Karlstr. 13","88250","Weingarten"
"Apotheke 14 Nothelfer","Ravensburger Str. 35","88250","Weingarten"
"Zeppelin Apotheke","Gartenstr. 22 - 24","88212","Ravensburg"
"Engel Apotheke","Kirchstr. 3","88212","Ravensburg"
"Apotheke am Goetheplatz","Goetheplatz 1","88214","Ravensburg"
"Storchen Apotheke","Mittelöschstr. 7","88213","Ravensburg"
"Apotheke in Oberzell","Josef-Strobel-Str. 13","88213","Ravensburg"
"Marien-Apotheke","Krähbrunnenstr. 5","88521","Ertingen"
"Kloster Apotheke","Hauptstr. 8","88529","Zwiefalten"
"Schloss Apotheke","Karlstr. 14","88069","Tettnang"
"St. Georgs Apotheke","Bahnhofstr. 7","88142","Wasserburg (Bodensee)"
"Schussen Apotheke","Hauptstr. 26","88074","Meckenbeuren"
"Raphael Apotheke","Lindberghstr. 1","88074","Meckenbeuren"
"Ried Apotheke","Zußdorfer Str. 7","88271","Wilhelmsdorf"
"Marien Apotheke","Heiliggasse 2","88048","Friedrichshafen"
"Marien Apotheke","Hauptstr. 78","88512","Mengen"
"Apotheke im Rosenhof","Salemer Str. 3","88697","Bermatingen"
"Central Apotheke OHG","Hauptstr. 40","88630","Pfullendorf"
"Rats Apotheke","Grabenbachstr. 12","88605","Meßkirch"
"Dr.Hauser'sche Apotheke","Adlerplatz 4","88605","Meßkirch"
"Marien Apotheke","Ringstr. 15","92339","Beilngries"
"Altstadt Apotheke","Hauptstr. 37","92339","Beilngries"
"Marien Apotheke","Bruckdorfer Str. 7A","93161","Sinzing"
"Sebastiani Apotheke","Hauptstr. 91","94405","Landau a.d.Isar"
"Johannis Apotheke","Straubinger Str. 23","94405","Landau a.d.Isar"
"Stadtpark Apotheke","Prüfeninger Str. 35","93049","Regensburg"
"Ahorn Apotheke","Sudetendeutsche Str. 1 C","93057","Regensburg"
"St. Lorenz Apotheke","St.-Lorenz-Str. 6","92334","Berching"
"Einhorn Apotheke","Rosenstr. 3","91781","Weißenburg i.Bay."
"Park Apotheke","Obere Bachstr. 28","94315","Straubing"
"St. Georgs Apotheke","Straubinger Str. 5","94330","Aiterhofen"
"Hof Apotheke","Marktplatz 1","93086","Wörth a.d.Donau"
"Alte Post Apotheke","Marktplatz 2","91785","Pleinfeld"
"Apotheke Holzner","Bahnhofstr. 9 B","94327","Bogen"
"Markt-Apotheke Greiff e.K.","Marktplatz 36","94094","Rotthalmünster"
"St. Georgs Apotheke","Burgstr. 66","94360","Mitterfels"
"Markt Apotheke","Marktplatz 20/22","91710","Gunzenhausen"
"St. Konrad Apotheke","Hauptstr. 16","94086","Bad Griesbach i.Rottal"
"Markt Apotheke","Bayerwaldstr. 16","94374","Schwarzach"
"Schloss Apotheke","Marktplatz 14","93167","Falkenstein"
"Spitzweg Apotheke","Regensburger Str. 31","93158","Teublitz"
"Rohrberg Apotheke","Deggendorfer Str. 3","94491","Hengersberg"
"Thermen Apotheke","Sonnenstr. 4","94072","Bad Füssing"
"Stadt Apotheke OHG","Stadtplatz 19","94474","Vilshofen"
"Marien Apotheke","Kirchplatz 9","94060","Pocking"
"St. Ulrich Apotheke","Simbacher Str. 6","94060","Pocking"
"St. Vitus Apotheke","Neumarkter Str. 38","92348","Berg b.Neumarkt i.d.OPf."
"Römer Apotheke","Hauptstr. 6","91614","Mönchsroth"
"Apotheke vor den Toren","Königsberger Str. 4","91550","Dinkelsbühl"
"Hubertus Apotheke","Oberer Markt 5","94535","Eging a.See"
"Mönchshof Apotheke OHG","Mönchshofstr. 46","94234","Viechtach"
"Burg Apotheke","Ansbacher Str. 15","91595","Burgoberbach"
"St. Gotthard Apotheke","Pointweg 4","94259","Kirchberg i.Wald"
"Bavaria Apotheke","Grünaustr. 13A","94032","Passau"
"Moritzberg Apotheke","Kornmarkt 1","91227","Leinburg"
"Werderau Apotheke","Volckamerplatz 18","90441","Nürnberg"
"Vita Apotheke im Röthenbachc.","Dombühler Str. 9","90449","Nürnberg"
"Zabo Apotheke","Zerzabelshofer Hauptstr. 18","90480","Nürnberg"
"Wilhelm Busch Apotheke","Allersberger Str. 81","90461","Nürnberg"
"Hirsch Apotheke","Bucher Str. 37 A","90419","Nürnberg"
"Paracelsus Apotheke","Regensburger Str. 17","92507","Nabburg"
"Mozart Apotheke","Kölner Str. 34","90425","Nürnberg"
"Alpha Apotheke","Schwabacher Str. 265","90763","Fürth"
"Föhren Apotheke","Ziegelsteinstr. 22","90411","Nürnberg"
"Aesculap Apotheke","Waldstr. 36","90763","Fürth"
"Apotheke im Forum","Bahnhofplatz 6","90762","Fürth"
"Kleeblatt Apotheke","Hirschenstr. 1","90762","Fürth"
"Arberland Apotheke am Anger","Angerstr. 32","94227","Zwiesel"
"Arberland Apotheke","Angerstr. 28","94227","Zwiesel"
"West Apotheke","Komotauer Str. 45","90766","Fürth"
"Apotheke am Kieselbühl","Hansastr. 5","90766","Fürth"
"Rachel Apotheke","Hauptstr. 27","94258","Frauenau"
"Andreas Apotheke","Lichtenfelser Str. 2a","90427","Nürnberg"
"Stadt Apotheke","Stadtplatz 17","93437","Furth im Wald"
"Felicitas Apotheke","Reutleser Str. 22","90427","Nürnberg"
"Linden Apotheke Albers OHG","Fürther Str. 11","90587","Veitsbronn"
"St. Anna Apotheke","Nürnberger Str. 9","92533","Wernberg-Köblitz"
"Linden Apotheke Albers OHG","Veitsbronner Str. 21a","90587","Obermichelbach"
"Schloss Apotheke","Hauptstr. 27","91452","Wilhermsdorf"
"Sternen Apotheke","Niederndorfer Hauptstr. 25","91074","Herzogenaurach-Niederndorf"
"Markt Apotheke","Oederichgasse 2","91448","Emskirchen"
"Marien Apotheke","Unterer Markt 31","91275","Auerbach i.d.OPf."
"Burg Apotheke Filiale der","Frühlingstr. 2","92648","Vohenstrauß"
"Stadt Apotheke OHG","Marktplatz 10","92648","Vohenstrauß"
"Rosen Apotheke Filiale der","Bahnhofstr. 16","92648","Vohenstrauß"
"Sebastian Apotheke","Untere Torstr. 12","92655","Grafenwöhr"
"St. Georgs Apotheke","Stadtplatz 21-23","92660","Neustadt a.d.Waldnaab"
"Altstadt Apotheke","Ludwig-Bock-Str. 2","92690","Pressath"
"Franken Apotheke","Ansbacher Str. 5","97215","Uffenheim"
"Apotheke Speichersdorf","Hauptstr. 17","95469","Speichersdorf"
"Ahorn Apotheke","Alte Bayreuther Str. 3","95496","Glashütten"
"Ahorn Apotheke am Bruderwald","Buger Str. 82","96049","Bamberg"
"Hof Apotheke","Karolinenstr. 20","96049","Bamberg"
"MedCenter Apotheke","Spinnereistr. 7","95445","Bayreuth"
"Linden Apotheke","Siechenstr. 47","96052","Bamberg"
"Rosen Apotheke","Troppauplatz 1 A","96052","Bamberg"
"Rats Apotheke","Hauptstr. 31","97199","Ochsenfurt"
"Markt Apotheke","Hauptstr. 1","96120","Bischberg"
"St. Bartholomäus Apotheke","Schweinfurter Str. 7","96173","Oberhaid"
"St. Nikolaus Apotheke","Bamberger Str. 55","96149","Breitengüßbach"
"Sonnen Apotheke am Klinikum","Nansenstr. 9","95615","Marktredwitz"
"Sonnen Apotheke","Markt 11","95615","Marktredwitz"
"Stadt Apotheke","Prinz-Ludwig-Str. 23","95652","Waldsassen"
"Kloster Apotheke","Klosterstr. 9","97084","Würzburg"
"Sonnen Apotheke","Hans-Löffler-Str. 8","97074","Würzburg"
"Stern Apotheke","Melkendorfer Str. 9","95326","Kulmbach"
"Franken Apotheke","Hauptstr. 33","95336","Mainleus"
"Stadtpark Apotheke","Hardenbergstr. 30","95326","Kulmbach"
"Adalbero Apotheke","Neubergstr. 2","97072","Würzburg"
"Obere Apotheke","Obere Stadt 2","95326","Kulmbach"
"Apotheke im Fritz","Fritz-Hornschuch-str. 9","95326","Kulmbach"
"St. Rochus Apotheke","Versbacher Str. 108","97078","Würzburg"
"Sonnen Apotheke","Wachtelberg 18","97273","Kürnach"
"Nikolaus Apotheke","Nikolaus-Fey-Straße","97209","Veitshöchheim"
"St. Margareten Apotheke","Zeller Str. 2","97276","Margetshöchheim"
"Maternus Apotheke","Würzburger Str. 22A","97261","Güntersleben"
"Stadt Apotheke","Bayreuther Str. 4","95213","Münchberg"
"Alte Apotheke","Ludwigstr. 9","95100","Selb"
"Saale Apotheke","Kirchenlamitzer Str. 1","95126","Schwarzenbach a.d.Saale"
"Apotheke Untersiemau OHG","Rathausplatz 5","96253","Untersiemau"
"Bären Apotheke","Keßlergasse 14","97421","Schweinfurt"
"Mühlen Apotheke","Hirtenwiesen 1","96364","Marktrodach"
"Hubertus Apotheke","Karlstadter Str. 5","97450","Arnstein"
"Igel Apotheke","Hauptstr. 28","96346","Wallenfels"
"Conrads Apotheke","Weberstr. 1","95176","Konradsreuth"
"Sonnen Apotheke","Kronacher Str. 10","96342","Stockheim"
"Mohren Apotheke","Hauptstr. 39","97753","Karlstadt"
"VitaFit Apotheke am Krankenh.","Gemündener Str. 10","97753","Karlstadt"
"Pluwig Apotheke","Am alten Dorfplatz 1","54316","Pluwig"
"Frankenwald Apotheke","Marktplatz 8","96355","Tettau"
"Fuchs Apotheke","Alexander-Gerbig-Str. 3","98527","Suhl"
"Magdalenen Apotheke","Hauptstr. 6","98544","Zella-Mehlis"
"Apotheke am Jakobstor","Friedensstr. 2","99423","Weimar"
"deine Apotheke LindenApotheke","Harburger Str. 28A","21435","Stelle"
"Apotheke am Heertor","Rabanusstrasse 1A-3","36037","Fulda"
"Taunus Apotheke","Braunfelser Straße 8","35606","Solms-Oberndorf"
"deine Apotheke Apotheke im Gesundheitszentrum","Norderneystr. 1","31303","Burgdorf"
"deine Apotheke Sonnen-Apotheke","Elberfelder Str. 55","42553","Velbert-Neviges"
"deine Apotheke Schwanen-Apotheke","Im Orth 2","42553","Velbert-Neviges"
"deine Apotheke Brunnen Apotheke","Bernhard-Becker-Str. 4","54338","Schweich"
"deine Apotheke Kaiser-Apotheke","Kaiser Str. 71","53721","Siegburg"
"deine Apotheke Rosen-Aptheke an der Tiefburg","Dossenheimer Landstr. 8","69121","Heidelberg"
"deine Apotheke Flora Apotheke","Hauptstr. 112","68259","Mannheim"
"deine Apotheke St. Barbara Apotheke","Hauptstr. 50","65843","Sulzbach"
"deine Apotheke Seebach Apotheke","Hohenstaufenstr. 18","73313","Geislingen an der Steige"
"deine Apotheke Rathaus Apotheke","Hauptstr. 70","79215","Elzach"
"Rebland-Apotheke","Basler Straße 24","79227","Schallstadt"
"deine Apotheke Marien-Apotheke Aichach","Gerhauser Str. 6","86551","Aichach"
