"nameCompany","streetAddress","postalCode","addressLocality"
"Sparda-Bank","Markt 26","07318","Saalfeld"
"Sparda-Bank","Georgenstr. 2","08056","Zwickau"
"Sparda-Bank","Humboldtstr. 11","07545","Gera"
"Sparda-Bank","Schillerstr. 1","07745","Jena"
"SB-Sparda-Bank","Bahnhofstr. 5","09111","Chemnitz"
"Sparda-Bank","Klosterstr. 4-6","06667","Weißenfels"
"Sparda-Bank","Dr.-Wilhelm-Külz-Str. 13","01796","Pirna"
"Sparda-Bank","Kesselsdorfer Str. 32","01159","Dresden"
"SB-Sparda-Bank","Wiener Platz 1","01069","Dresden"
"Sparda-Bank","Dr.-Külz-Ring 15","01067","Dresden"
"Sparda-Bank","Königstr. 26","01097","Dresden"
"Sparda-Bank","Schillerplatz 1-2","01309","Dresden"
"Sparda-Bank","Goethestr. 87","01587","Riesa"
"Sparda-Bank","Reichenstr. 16","02625","Bautzen"
"Sparda-Bank","Friedrich-List-Str. 6","04895","Fralkenberg"
"Sparda-Bank","Tie 22/22a","06449","Aschersleben"
"Sparda-Bank","Karlsplatz 20","06406","Bernburg"
"SB-Sparda-Bank","Heidestr. 246a","06849","Dessau"
"Sparda-Bank","Franzstr. 90","06842","Dessau"
"SB-Sparda-Bank","Frankfurter Str. 14","04916","Herzberg"
"Sparda-Bank","Postplatz 20","02826","Görlitz"
"Sparda-Bank","Dessauer Str. 288a","06886","Lutherstadt Wittenberg"
"SB-Sparda-Bank","Vetschauer Str. 12","03048","Cottbus"
"Sparda-Bank","Bahnhofstr. 43","03046","Cottbus"
"Sparda-Bank","Berliner Str. 152","03046","Cottbus"
"SB-Sparda-Bank","Am Südtor 1","14774","Brandenburg an der Havel"
"Sparda-Bank","Steinstr. 63","14776","Brandenburg an der Havel"
"Sparda-Bank","Friedrich-Engels-Straße 100","14473","Potsdam"
"Sparda-Bank","Schloßstr. 97","12163","Berlin"
"SB-Sparda-Bank","Adlergestell 143","12439","Berlin"
"Sparda-Bank","Blissestr. 5","10713","Berlin"
"Sparda-Bank","Baumschulenstr. 84/85","12437","Berlin"
"Sparda-Bank","Bahnhofstr. 42","12555","Berlin"
"Sparda-Bank","Seegefelder Str. 1","13597","Berlin"
"Sparda-Bank","Warschauer Str. 31/32","10243","Berlin"
"Sparda-Bank","Georgenstr. 23","10117","Berlin"
"SB-Sparda-Bank","Revaler Str. 2","10243","Berlin"
"Sparda-Bank","Ruschestr. 104","10365","Berlin"
"Sparda-Bank","Storkower Str. 101a","10407","Berlin"
"Sparda-Bank","Breite Str. 22","13187","Berlin"
"Sparda-Bank","Berliner Str. 2","13507","Berlin"
"SB-Sparda-Bank","Granitzstr. 55-56","13189","Berlin"
"Sparda-Bank","Alte Hellersdorfer Str. 140","12629","Berlin"
"Sparda-Bank","Bäckerstr. 32","19322","Wittenberge"
"SB-Sparda-Bank","Grabenstr. 1","19061","Schwerin"
"Sparda-Bank","Treptower Str. 9","17033","Neubrandenburg"
"Sparda-Bank","Pferdemarkt 28","19322","Güstrow"
"Sparda-Bank","Steinstr. 6","18055","Rostock"
"Sparda-Bank","Walter-Stoecker-Str. 2","18069","Rostock"
"Sparda-Bank","Warnowallee 31c","18107","Rostock"
"Sparda-Bank","Lomonossowallee 58","17491","Greifswald"
"Sparda-Bank","Schuhhagen 2","17489","Greifswald"
"Sparda-Bank","Tribseer Damm 76","18437","Stralsund"
"Sparda-Bank","Störtebekerstraße 31","18528","Bergen"
"Sparda-Bank","Schloßplatz 8","29221","Celle"
"Sparda-Bank","Gudesstr. 10/12","29525","Uelzen"
"Sparda-Bank Filiale Lüneburg","Grapengießerstr. 35","21335","Lüneburg"
"Sparda-Bank","Herdentorsteinweg 1a","28195","Bremen"
"Sparda-Bank","Lange Str. 128","27749","Delmenhorst"
"Sparda-Bank","Hemmstr. 261","28215","Bremen"
"Sparda-Bank Hamburg eG und DEVK","Kirchenstr. 10a","21244","Buchholz"
"Sparda-Bank","Gerhard-Rohlfs-Str. 20","28757","Bremen"
"Sparda-Bank","Cloppenburger Str. 345","26133","Oldenburg"
"SB-Sparda-Bank","Cloppenburger Str. 224","26133","Oldenburg"
"Harburg","Schloßmühlendamm 14","21073","Hamburg"
"Bergedorf","Kupferhof 4","21029","Hamburg"
"SB-Sparda-Bank","Bahnhofsplatz 12d (Hauptbahnhof)","26122","Oldenburg"
"SB-Sparda-Bank","Donnerschweer Str. 215","26123","Oldenburg i.O."
"Sparda-Bank","Peterstr. 45","26121","Oldenburg"
"SB-Sparda-Bank","Bloherfelder Str. 126","26129","Oldenburg"
"SB-Sparda-Bank","Nadorster Str. 287","26125","Oldenburg"
"SB-Sparda-Bank","Alexanderstr. 420","26127","Oldenburg"
"Sparda-Bank","Beim Strohhause 29","20097","Hamburg"
"Am Thalia Theater","Rosenstr. 8","20095","Hamburg"
"Abc-straße","Abc-Str. 38","20354","Hamburg"
"Altona","Präsident-Krahn-Str. 16-17","22765","Hamburg"
"Wandsbek","Wandsbeker Marktstr. 48-50","22041","Hamburg"
"Rothenbaum","Grindelallee 100","20146","Hamburg"
"Hamburger straße","Hamburger Str. 27","22083","Hamburg"
"Sparda-Bank","Osterstr. 116","20255","Hamburg"
"Barmbek","Fuhlsbüttler Str. 100","22305","Hamburg"
"Elbvororte","Osdorfer Landstr. 102","22549","Hamburg"
"Winterhude","Winterhuder Marktplatz 5","22299","Hamburg"
"Sparda-Bank","Überseering 5-7","22297","Hamburg"
"Bramfeld","Bramfelder Chaussee 230","22177","Hamburg"
"Eidelstedt","Alte Elbgaustr. 16","22523","Hamburg"
"Niendorf","Niendorfer Marktplatz 10","22459","Hamburg"
"Poppenbüttel","Heegbarg 4","22391","Hamburg"
"Sparda-Bank","Krohnstieg 4","22415","Hamburg-Langenhorn"
"SB-Sparda-Bank","Hauptkanal rechts 33","26871","Papenburg"
"Norderstedt","Im Moorbek-Rondeel, Rathausallee 70","22846","Norderstedt"
"Sparda-Bank","Rathausstr. 70","22846","Norderstedt"
"Sparda-Bank","Bahnhofsring 16-20","26789","Leer"
"Sparda-Bank","Bürgermeister-Smidt-Str. 27","27568","Bremerhaven"
"Sparda-Bank","Königstr. 38","25335","Elmshorn"
"Sparda-Bank","Hegede 3","23966","Wismar"
"Sparda-Bank","Sandstr. 1","23552","Lübeck"
"Lübeck","Werner-Kock-Str. 6","23554","Lübeck"
"Sparda-Bank","Gökerstr. 58/60","26384","Wilhelmshaven"
"SB-Sparda-Bank","Banter Weg 175","26382","Wilhelmshaven"
"SB-Sparda-Bank","Im Gewerbegebiet 6","26419","Schortens"
"Sparda-Bank","Neuer Markt 29","26721","Emden"
"Neumünster","Bahnhofstr. 2","24534","Neumünster"
"Kiel Sophienblatt","Sophienblatt 25","24114","Kiel"
"Flensburg","Rathausstr. 2","24937","Flensburg"
"Sparda-Bank","Am Bahnhof 2","36037","Fulda"
"SB-Sparda-Bank","Maberzeller Str. 45","36037","Fulda"
"Sparda-Bank","Dudenstr. 9","36251","Bad Hersfeld"
"Sparda-Bank","Bahnhofstr. 16","36179","Bebra"
"SB-Sparda-Bank","Adolph-Kolping-Str. 9","35392","Gießen-Schlangenzahl"
"Sparda-Bank","An der Johanneskirche 6","35390","Gießen"
"SB-Sparda-Bank","Braunfelser Str. 1","35578","Wetzlar"
"Sparda-Bank","Bahnhofstr. 14","35576","Wetzlar"
"SB-Sparda-Bank","An Der Backstania 1a","35781","Weilburg"
"Sparda-Bank","Markplatz 13","37269","Eschwege"
"SB-Sparda-Bank","Universitätsstr. 15","35037","Marburg"
"Sparda-Bank","Krummbogen 15","35039","Marburg"
"Sparda-Bank","Brückenstr. 8","34212","Melsungen"
"Sparda-Bank","Schloßstr. 2","35745","Herborn"
"Sparda-Bank","Marktplatz 20","34560","Fritzlar"
"Sparda-Bank","Maibachstr. 3","35683","Dillenburg"
"Sparda-Bank","Heinrich-Hertz-Str. 103","34123","Kassel"
"SB-Sparda-Bank","Leipziger Str. 128","34123","Kassel"
"Sparda-Bank","Marktplatz 1a","34225","Baunatal"
"SB-Sparda-Bank","Frankfurter Str. 128","34121","Kassel"
"SB-Sparda-Bank","Karlsplatz","34117","Kassel"
"SB-Sparda-Bank","Mauerstr. 1","34117","Kassel"
"Sparda-Bank","Friedrich-Ebert-Str. 4","34117","Kassel"
"Sparda-Bank","Wilhelmshöher Allee 262","34131","Kassel-Atrium"
"Sparda-Bank","Blumenäckerweg 21","34117","Kassel"
"SB-Sparda-Bank","Lange Wender 7","34246","Vellmar"
"Sparda-Bank","Rathausplatz 5","34128","Vellmar"
"Sparda-Bank","Groner Str. 24","37073","Göttingen"
"SB-Sparda-Bank","Bahnhofstr. 30","34369","Hofgeismar"
"Sparda-Bank","Breite Str. 1","37154","Northeim"
"Sparda-Bank","Breite Str. 84","38640","Goslar"
"Sparda-Bank","Otto-von-Guericke-Str. 50","39104","Magdeburg"
"Sparda-Bank","Am Alten Theater 2","39104","Magdeburg"
"SB-Sparda-Bank","Bahnhofstr. 25a","33102","Paderborn"
"Sparda-Bank","Bahnhofstr. 5","33102","Paderborn"
"Sparda-Bank","Hannoversche Straße 7","31134","Hildesheim"
"Sparda-Bank","Willy-Brandt-Platz 3","32756","Detmold"
"Sparda-Bank","Ritterbrunnen 1","38100","Braunschweig"
"Sparda-Bank","Emmernstr. 12","31785","Hameln"
"Sparda-Bank","Berliner Str. 83-85","33330","Gütersloh"
"Sparda-Bank","Porschestr. 35","38440","Wolfsburg"
"Sparda-Bank","Hauptstr. 120","33647","Bielefeld"
"Sparda-Bank","Bahnhofstr. 40","33602","Bielefeld"
"SB-Sparda-Bank","Herforder Str. 110-114","33602","Bielefeld"
"SB-Sparda-Bank","Burgdorfer Str. 29","31275","Lehrte"
"SB-Sparda-Bank","Lindemannallee 21","30179","Hannover"
"Sparda-Bank","Brüderstraße 38","32052","Herford"
"SB-Sparda-Bank","Marktstr. 45","30159","Hannover"
"SB-Sparda-Bank","Davenstedter Str. 80","30453","Hannover"
"Sparda-Bank","Ernst-August-Platz 8","30159","Hannover"
"Sparda-Bank","Lister Meile 89","30161","Hannover"
"SB-Sparda-Bank","Hannoversche Str. 77","30926","Seelze-Letter"
"Sparda-Bank","Ostpassage 9","30853","Langenhagen"
"Sparda-Bank","Markt 11","39576","Stendal"
"Sparda-Bank","Bäckerstraße 74/76","32423","Minden"
"SB-Sparda-Bank","Industriestr. 1","31515","Wunstorf"
"SB-Center Der Sparda-Bank West eG","Ringelstr. 2","42897","Remscheid Lennep"
"Sparda-Bank West eG","Alleestr. 90","42853","Remscheid Innenstadt"
"Sparda-Bank West eG","Hauptstr. 56","42651","Solingen"
"SB-Center Der Sparda-Bank West eG","Rosenau 32","42277","Wuppertal Barmen"
"Sparda-Bank West eG","Werth 65","42275","Wuppertal Barmen"
"SB-Center Der Sparda-Bank West eG","Mauerstr. 14","42285","Wuppertal"
"Sparda-Bank West eG","Düsseldorfer Str. 43","42697","Solingen Ohligs"
"Immobilienfinanzcenter Sparda-Bank West eG","Bankstr. 3","42103","Wuppertal Elberfeld"
"SB-Center Der Sparda-Bank West","Schüruferstr. 285","44287","Dortmund"
"Sparda-Bank West eG","Kaiserstr. 24","42329","Wuppertal Vohwinkel"
"SB-Center Der Sparda-Bank West eG","Hochdahler Str. 127","40127","Hilden"
"SB-Center Der Sparda-Bank West eG","Strobelallee 50","44139","Dortmund Mitte"
"SB-Sparda-Bank","Südwall 13-15","44137","Dortmund"
"Sparda-Bank West eG","Hansastr. 95","44137","Dortmund"
"Sparda-Bank West eG","Börchemstr. 35","40597","Düsseldorf Benrath"
"Sparda-Bank","Freistuhl 7","44137","Dortmund"
"SB-Center Der Sparda-Bank West eG","Zur Fliethe 8","42489","Wülfrath"
"SB-Center Der Sparda-Bank West eG","Bonsfelder Str. 85","42555","Velbert Langenberg"
"SB-Sparda-Bank","Universitätsstr. 117","44801","Bochum"
"Sparda-Bank","Bebelstr. 65","44532","Lünen"
"Sparda Bank West eG","Friedrichstr. 140","42551","Velbert Mitte"
"SB-Sparda-Bank","Kurt-Schumacher-Platz 3","44787","Bochum"
"Sparda-Bank West eG","Ludwig-Erhard-Allee 15","40227","Düsseldorf Oberbilk"
"Sparda-Bank","Grabenstr. 14","44787","Bochum"
"Sparda-Bank West eG","Friedrichstr. 20-22","40217","Düsseldorf Friedrichstadt"
"Sparda-Bank West eG","Breite Str. 8-10","41515","Grevenbroich Widdeshoven"
"Sparda-Bank West eG","Stadttor 1","40219","Düsseldorf Unterbilk"
"SB-Center Der Sparda-Bank West","Platz Des Landtags 1","40221","Düsseldorf"
"Sparda-Bank West eG","Marktplatz 9","40213","Düsseldorf Altstadt"
"Sparda-Bank West eG","Nordstr. 85","40477","Düsseldorf Pempelfort"
"SB-Center Der Sparda-Bank West eG","Brückstr. 12","45239","Essen Werden"
"Sparda-Bank West eG","Bochumer Str. 24","45276","Essen Steele"
"SB-Center Der Sparda-Bank West eG","Am Sandbach 30","40878","Ratingen"
"Sparda-Bank West eG","Kapitelstr. 16","41460","Neuss Mitte"
"Sparda-Bank","Bahnhofstr. 44","44623","Herne"
"Sparda-Bank","Wanner Str. 6-8","44649","Herne"
"Sparda-Bank West eG","Willy-Brandt-Platz 8","45127","Essen Stadtkern"
"Sparda-Bank","Kruppstr. 41","45127","Essen"
"Sparda-Bank West eG","Kruppstr. 41","45128","Essen Südviertel"
"SB-Center Der Sparda-Bank West","Kennedyplatz 9-11","45127","Essen"
"Sparda-Bank","Von-Oven-Str. 6-8","45879","Gelsenkirchen"
"SB-Center Der Sparda-Bank West eG","Segerothstr. 73","45127","Essen Zentrum"
"SB-Center Der Sparda-Bank West eG","Altendorfer Str. 129","45127","Essen Altendorf"
"Sparda-Bank West eG","Kaiserswerther Markt 35","40489","Düsseldorf Kaiserswerth"
"SB-Sparda-Bank","Münsterstr. 1","48231","Warendorf"
"SB-Center Der Sparda-Bank West eG","Düsseldorfer Str. 98","45481","Mülheim An Der Ruhr Saarn"
"SB-Center Der Sparda-Bank West eG","Altenessener Str. 411","45329","Essen"
"Sparda-Bank West eG","Eppinghofer Str. 50","45468","Mülheim An Der Ruhr Mitte"
"SB-Center Der Sparda-Bank West","Schloßstr. 24","45468","Mülheim"
"Sparda-Bank West eG","Marktstr. 21","45355","Essen Borbeck-Mitte"
"Sparda-Bank West eG","Kurfürstenwall 1-3","45657","Recklinghausen Mitte"
"SB-Center Der Sparda-Bank West eG","Hermann-Grothe-Str. 29","47279","Duisburg Wedau"
"Sparda-Bank West eG","Wedauer Markt 11-13","47279","Duisburg Wedau"
"SB-Center Der Sparda-Bank West eG","Masurenallee 33","47055","Duisburg Neudorf-Süd"
"SB-Center Der Sparda-Bank West eG","Am Südring-Center 5","46242","Bottrop Zentrum"
"Sparda-Bank","De-la-Chevallerie-Str. 21","45894","Gelsenkirchen"
"Sparda-Bank West eG","Langemarkstr. 24","46045","Oberhausen Altstadt-Mitte"
"SB-Center Der Sparda-Bank West eG","Centroallee 1000","46047","Oberhausen"
"Sparda-Bank West eG","Bismarckstr. 100","41061","Mönchengladbach Stadtmitte"
"Sparda-Bank West eG","Kammerstr. 6","47057","Duisburg Neudorf-Süd"
"SB-Center Der Sparda-Bank West eG","Hansastr. 15","47058","Duisburg Duissern"
"Sparda-Bank West eG","Bottroper Str. 168","46117","Oberhausen Osterfeld-West"
"Sparda-Bank West eG","Düsseldorfer Str. 23-25","47051","Duisburg Innenstadt"
"SB-Sparda-Bank","Westfalenstr. 124-126","48165","Münster"
"SB-Center Der Sparda-Bank West","Barkhausstr. 11","45768","Marl"
"Sparda-Bank West eG","Königstr. 91-93","47798","Krefeld Mitte"
"SB-Sparda-Bank","Bahnhofstr. 60a","46145","Oberhausen"
"SB-Sparda-Bank","Weseler Str. 383","48163","Münster"
"Sparda-Bank West eG","Hauptstr. 137-139","41747","Viersen Mitte"
"SB-Sparda-Bank","Weseler Str. 212","48151","Muenster"
"Sparda-Bank","Merschstr. 11","45721","Haltern"
"SB-Sparda-Bank","Berliner Platz 31","48143","Münster"
"SB-Sparda-Bank","Berliner Platz 21","48143","Münster"
"Sparda-Bank","Königsstr. 51-53","48143","Münster"
"Sparda-Bank","Joseph-König-Str. 3","48147","Münster"
"Sparda-Bank West eG","Neumarkt 11","47441","Moers Mitte"
"SB-Sparda-Bank","Roxeler Str. 416-420","48165","Münster"
"Sparda-Bank","Gartenbreie 1","48161","Münster-Gievenbeck"
"SB-Sparda-Bank","Schiffahrter Damm 506","48157","Muenster"
"SB-Sparda-Bank","Steinfurter Str. 166","48149","Münster"
"SB-Sparda-Bank","Auf dem Quellberg 18","48565","Dülmen"
"SB-Sparda-Bank","Hannoversche Str. 20","49084","Osnabrueck"
"SB-Sparda-Bank","Theodor-Heuss-Platz","49074","Osnabrück"
"SB-Sparda-Bank","Natruper Str. 166","49090","Osnabrück"
"Sparda-Bank","Kleine Viehstr. 14","48653","Coesfeld"
"Sparda-Bank","Wilhelmstr. 5-7","46483","Wesel"
"SB-Sparda-Bank","Borghorster Str. 16","48231","Emsdetten"
"SB-Sparda-Bank","Lechtestr. 6","48565","Steinfurt"
"Sparda-Bank","Kanalstr. 4","49477","Ibbenbüren"
"SB-Sparda-Bank","Carl-Benz-Str. 2","48565","Steinfurt"
"Sparda-Bank","Poststr. 28","48431","Rheine"
"Sparda-Bank","Neustr. 2","48599","Gronau"
"Sparda-Bank","Marienstr. 18","49808","Lingen"
"Sparda-Bank","Lange Str. 3","49661","Cloppenburg"
"SB-Sparda-Bank","Schullendamm 63","49716","Meppen"
"SB-Sparda-Bank","Sant-Ambrogio-Ring 33","55276","Oppenheim"
"Sparda-Bank","Augustinerstr. 2","55232","Alzey"
"SB-Sparda-Bank","Bahnhofstr. 3","55268","Nieder-Olm"
"SB-Sparda-Bank","Robert-Koch-Str. 45","55129","Mainz"
"SB-Sparda-Bank","Friedrich-Ebert-Str. 63","55286","Wörrstadt"
"SB-Sparda-Bank","Rheinstr. 4","55116","Mainz-Altstadt"
"Sparda-Bank","Emmeransstr. 21","55116","Mainz"
"Sparda-Bank","Rhabanusstr. 1","55118","Mainz"
"SB-Sparda-Bank","Hindemithstr. 13","55127","Mainz"
"Sparda-Bank","Breite Str. 42","55124","Mainz"
"Sparda-Bank","Binger Str. 38","55218","Ingelheim am Rhein"
"Sparda-Bank","Salinenstr. 39","55543","Bad Kreuznach"
"SB-Sparda-Bank","Salzstr. 1","55411","Bingen"
"Sparda-Bank","Benediktusgarten 1","55411","Bingerbrück"
"Sparda-Bank","Bahnhofstr. 7","56355","Nastätten"
"Sparda-Bank","Hauptstr. 299-301","55743","Idar-Oberstein"
"Sparda-Bank","Hindenburgstr. 2","57072","Siegen"
"SB-Sparda-Bank","Bahnhofstr. 11","57223","Kreuztal"
"Sparda-Bank","Am Rathaus 3","57368","Lennestadt-Altenhundem"
"Sparda-Bank West eG","Dieringhauser Str. 2","51645","Gummersbach Dieringhausen"
"Sparda-Bank West eG","Heussallee 12-14","53113","Bonn Gronau"
"Sparda-Bank West eG","Mühlenstr. 58","53721","Siegburg"
"Sparda-Bank West eG","Wesselstr. 2","53113","Bonn Zentrum"
"Immobilienfinanzcenter Sparda- Bank West eG","Rochusstr. 118-120","53123","Bonn Duisdorf"
"Sparda-Bank","Clemens-August-Str. 3","59821","Arnsberg"
"Sparda-Bank West eG","Friedrichstr. 1","58507","Lüdenscheid"
"Sparda-Bank","Bahnhofstr. 27-29","53879","Euskirchen"
"Sparda-Bank","Ernst-Mühlendyck-Str. 1","51143","Köln"
"SB-Center Der Sparda-Bank West eG","Refrather Weg 1","51465","Bergisch Gladbach"
"Sparda-Bank West eG","Johann-Wilhelm-Lindlarstr. 10","51465","Bergisch-Gladbach Mitte"
"Sparda-Bank West eG","Deutzer Freiheit 113","50679","Köln Deutz"
"SB-Sparda-Bank","Wasserstr. 11","58636","Iserlohn"
"Sparda-Bank","Am Seel 1a","59494","Soest"
"Sparda-Bank West eG","Johannisstr. 60-64","50668","Köln Altstadt-Nord"
"Sparda-Bank West eG","Appellhofplatz 1","50667","Köln Altstadt-Nord"
"SB-Center Der Sparda-Bank West eG","Riehler Str. 3","50668","Köln Neustadt-Nord"
"SB-Center Der Sparda-Bank West eG","Werkstattstr. 102","50733","Köln Nippes"
"SB-Center Der Sparda-Bank West eG","Heinrich-von-Stephan-Str. 2","51373","Leverkusen"
"Sparda-Bank West eG","Kölner Str. 120","51379","Leverkusen Opladen"
"SB-Center Der Sparda-Bank West eG","Goethestr. 23","51379","Leverkusen Opladen"
"SB-Center Der Sparda-Bank West","Freimersdorfer Weg 6","50829","Köln Bocklemünd/Mengenich"
"Sparda-Bank West eG","Rathausstr. 6","58239","Schwerte Mitte"
"Sparda-Bank","Kölnstraße 24","52349","Düren"
"Sparda-Bank","Kölner Str. 13","50126","Bergheim"
"Sparda-Bank West eG","Hauptstr. 54","50126","Bergheim Erft"
"Sparda-Bank","Marktstr.","58452","Witten"
"Sparda-Bank","Gustav-Heinemann-Str. 14-18","59065","Hamm"
"Sparda-Bank","Poststr. 14","52428","Jülich"
"SB-Sparda-Bank","Lagerhausstr. 9","52064","Aachen"
"Sparda-Bank","Blondelstr. 9-21","52062","Aachen"
"Filiale Heidelberg","Römerstr. 1","69115","Heidelberg"
"SB-Filiale Hockenheim","Untere Hauptstr. 25-27","68766","Hockenheim"
"Filiale Schwetzingen","Hildastr. 3","68723","Schwetzingen"
"Sparda-Bank","Gilgenstr. 5","67346","Speyer"
"SB-Filiale Mannheim-Neckarau","Friedrichstr. 27","68199","Mannheim"
"Sparda-Bank","Heinsestr. 8","63739","Aschaffenburg"
"SB-Filiale Mannheim-Käfertal","Auf Dem Sand 75-77","68309","Mannheim"
"Filiale Mannheim","L 15-17","68161","Mannheim"
"SB-Sparda-Bank","Liliengasse 1","67105","Schifferstadt"
"SB-Sparda-Bank","Bruchweg 1","67117","Limburgerhof"
"Sparda-Bank","Bismarckstr. 120-122","67059","Ludwigshafen"
"Sparda-Bank","Rodensteinstr. 19","64625","Bensheim"
"SB-Sparda-Bank","Oggersheimerstr. 45","67112","Mutterstadt"
"SB-Sparda-Bank","Langgasse 52","67454","Haßloch"
"Sparda-Bank","August-Bebel-Str. 15-17","67227","Frankenthal"
"SB-Sparda-Bank","Tanzstr. 29","67480","Edenkoben"
"SB-Sparda-Bank","Haardtstr. 23-25","67240","Bobenheim-Roxheim"
"Sparda-Bank","Karl-Helfferich-Str. 7","67433","Neustadt"
"Sparda-Bank","Hagenstr. 4","67547","Worms"
"Sparda-Bank","Rheinstr. 27","64283","Darmstadt"
"SB-Sparda-Bank","Töpferstr. 1a","67549","Worms"
"SB-Sparda-Bank","Kasinostr. 92","64293","Darmstadt"
"Sparda-Bank","Rudolf-Walther-Str. 1a","63584","Gründau-Lieblos"
"Sparda-Bank","Weinstr. Nord 19b","67098","Bad Dürkheim"
"Sparda-Bank","Leimenstr. 8","63450","Hanau"
"SB-Sparda-Bank","Carlo-Mierendorff-Str. 2","67574","Osthofen"
"Sparda-Bank","Poststr. 7","67269","Grünstadt"
"Sparda-Bank","Bieberer Str. 282","63071","Offenbach am Main"
"SB-Sparda-Bank","Campus 1","63225","Langen"
"SB-Sparda-Bank","Frankfurter Str. 132-134","63263","Neu-Isenburg"
"SB-Sparda-Bank","Braubachstr. 18","63477","Maintal-Dörnigheim"
"Sparda-Bank","Kaiserstr. 42","63065","Offenbach am Main"
"Sparda-Bank","Frankfurter Str. 13","64521","Groß-Gerau"
"Sparda-Bank","Mörfelder Landstr. 45","60598","Frankfurt am Main"
"SB-Sparda-Bank","Zeil 48","60313","Frankfurt am Main"
"SB-Sparda-Bank","Hahnstr. 49","60528","Frankfurt am Main"
"SB-Sparda-Bank","Jürgen-Ponto-Platz 1","60329","Frankfurt am Main"
"Sparda-Bank","Osloer Str. 2","60327","Frankfurt am Main"
"SB-Sparda-Bank","Europa-Allee 6","60327","Frankfurt am Main"
"SB-Sparda-Bank","Friedberger Landstr. 362-420","60389","Frankfurt am Main"
"SB-Sparda-Bank","Europa-Allee 37","60327","Frankfurt am Main"
"SB-Sparda-Bank","Idsteiner Str. 9","60329","Frankfurt am Main"
"SB-Sparda-Bank","Pfarrer-Perabo-Platz 2","60326","Frankfurt am Main"
"Sparda-Bank","Frankfurter Str. 113","61118","Bad Vilbel"
"Sparda-Bank","Eschersheimer Landstr. 420","60433","Frankfurt am Main"
"Sparda-Bank","Rathausstr. 37-39","61184","Karben"
"Sparda-Bank","Heusingerstr. 76","65934","Frankfurt am Main"
"Sparda-Bank","Frerdinand-Stuttmann-Str. 10","65428","Rüsselsheim"
"Sparda-Bank","Uhlandstr. 1","67292","Kirchheimbolanden"
"Sparda-Bank","Altenhöferallee 88","60438","Frankfurt am Main"
"Sparda-Bank","Elisabethenstr. 1","65719","Hofheim"
"SB-Sparda-Bank","Guimaraesplatz 1","67655","Kaiserslautern"
"Sparda-Bank","Fackelstr. 27","67655","Kaiserslautern"
"Sparda-Bank","Schloßstr. 25","66953","Pirmasens"
"Sparda-Bank","Waisenhausstr. 1","61348","Bad Homburg vor der Höhe"
"SB-Sparda-Bank","Pariser Str. 300","67663","Kaiserslautern"
"Sparda-Bank","Hunsrückstr. 43","65205","Wiesbaden"
"SB-Sparda-Bank","Boelckestr. 58","55252","Mainz-Kastel"
"SB-Sparda-Bank","Schnurgasse 4","61169","Friedberg"
"SB-Sparda-Bank","Rödger Weg T42","61231","Bad Nauheim"
"SB-Sparda-Bank","Kreuznacher Str. 14","67806","Rockenhausen"
"Sparda-Bank","Limesstr. 20","65191","Wiesbaden"
"Sparda-Bank","Äppelallee 110","65203","Wiesbaden"
"SB-Sparda-Bank","Konrad-Adenauer-Ring 41-43","65185","Wiesbaden"
"Sparda-Bank","Friedrichstr. 16-18","65185","Wiesbaden"
"Sparda-Bank","Adolph-Kolping-Platz 7","66849","Landstuhl"
"Sparda-Bank","Talstr. 51","66424","Homburg"
"Sparda-Bank","Trierer Str. 29","66869","Kusel"
"Sparda-Bank","Bahnhofstr. 22","66538","Neunkirchen"
"Sparda-Bank","Rickertstr. 38a","66386","St. Ingbert"
"Sparda-Bank","Wilhelmstr. 20","66606","St. Wendel"
"Sparda-Bank","Mainzer Str. 135-137","66121","Saarbrücken"
"Sparda-Bank","Hospitalstr. 10","65549","Limburg an der Lahn"
"Sparda-Bank","Talstr. 17","66119","Saarbrücken"
"Filiale Aalen","Johann-Gottfried-Pahl-Str. 1","73430","Aalen"
"SB-Filiale Geislingen","Stockstr. 2","73312","Geislingen An Der Steige"
"SB-Filiale Ellwangen","Haller Straße","73479","Ellwangen (Jagst)"
"SB-Filiale Ellwangen","Haller Str. 78","73479","Ellwangen (Jagst)"
"SB-Filiale Süßen","Bühlstr. 21","73079","Süßen"
"SB-Filiale Süßen","Bühlstraße","73079","Süßen"
"Filiale Schwäbisch Gmünd","Kornhausstr. 21","73525","Schwäbisch Gmünd"
"SB-Filiale Eislingen","Hauptstr. 46","73054","Eislingen/Fils"
"Filiale Göppingen","Schillerplatz 10","73033","Göppingen"
"SB-Filiale Crailsheim","Postplatz 2","74564","Crailsheim"
"SB-Filiale Uhingen","Stuttgarter Str. 1","73066","Uhingen"
"SB-Filiale Ebersbach","Marktplatz","73061","Ebersbach an der Fils"
"SB-Filiale Ebersbach","Marktplatz 4","73061","Ebersbach An Der Fils"
"Filiale Kirchheim/Teck","Dettinger Str. 36","73230","Kirchheim Unter Teck"
"SB-Sparda-Bank","Arnoldweg","73614","Schorndorf"
"SB-Filiale Schorndorf","Karlstraße","73614","Schorndorf"
"SB-Filiale Plochingen","Bahnhof","73207","Plochingen"
"SB-Filiale Nürtingen","Steinenbergstr. 10","72622","Nürtingen"
"SB-Filiale Nürtingen","Steinenbergstraße","72622","Nürtingen"
"SB-Filiale Weinstadt","Strümpfelbacher Str. 10","71384","Weinstadt"
"Filiale Reutlingen","Kaiserstr. 15-17","72764","Reutlingen"
"SB-Filiale Winnenden","Marktstr. 58","71364","Winnenden"
"Filiale Esslingen","Bahnhofstraße","73728","Esslingen"
"Filiale Esslingen","Bahnhofstr. 1","73728","Esslingen"
"SB-Filiale Backnang","Bahnhofstr. 1","71522","Backnang"
"SB-Filiale Ostfildern","Bonhoefferstr. 2","73760","Ostfildern"
"Filiale Waiblingen","Bahnhofstr. 40","71332","Waiblingen"
"Filiale Waiblingen","Bahnhofstraße","71332","Waiblingen"
"SB-Filiale Stuttgart-Plieningen","Filderhauptstr. 30","70599","Stuttgart"
"SB-Filiale Fellbach","Bahnhofstr. 87","70736","Fellbach"
"SB-Filiale Stuttgart-Sillenbuch","Kirchheimer Str. 34","70619","Stuttgart"
"Filiale Konstanz","Obere Augustinergasse 8","78462","Konstanz"
"Sparda-Bank","Augustinerplatz 8","78462","Konstanz"
"SB-Filiale Leinfelden-Echterdingen","Hauptstr. 35","70771","Leinfelden-Echterdingen"
"SB-Filiale Stuttgart Bad Cannstatt","Bahnhofstraße","70372","Stuttgart"
"SB-Filiale Stuttgart","Neckarstr. 144","70190","Stuttgart"
"Filiale S-Degerloch","Epplestr. 29","70597","Stuttgart"
"Filiale Stuttgart","Am Hauptbahnhof 3","70173","Stuttgart"
"SB-Filiale Stuttgart-Möhringen","Holdermannstr. 36","70567","Stuttgart"
"SB-Filiale Stuttgart / Outdoor Geldautomat","Theodor-Heuss-Straße","70174","Stuttgart"
"Filiale Tübingen","Europaplatz 2","72072","Tübingen"
"SB-Filiale Marbach a.N.","Rielingshäuser Str. 1","71672","Marbach Am Neckar"
"Filiale S-Vaihingen","Möhringer Landstraße","70563","Stuttgart"
"SB-Filiale Stuttgart Feuerbach","Stuttgarter Str. 71-77","70469","Stuttgart"
"Filiale S-Vaihingen","Möhringer Landstr. 5","70563","Stuttgart"
"Filiale Kornwestheim","Bahnhofsplatz 4","70806","Kornwestheim"
"Filiale Ludwigsburg","Myliusstr. 8","71638","Ludwigsburg"
"SB-Filiale Rottenburg","Sprollstraße","72108","Rottenburg am Neckar"
"SB-Filiale Rottenburg","Sprollstr. 10","72108","Rottenburg Am Neckar"
"SB-Filiale Asperg","Lammstr. 1","71679","Asperg"
"Filiale Böblingen","Konrad-Zuse-Str. 1","71034","Böblingen"
"SB-Filiale Radolfzell","Bahnhofstr. 7","78315","Radolfzell Am Bodensee"
"SB-Filiale Sindelfingen","Poststr. 5","71063","Sindelfingen"
"SB-Filiale Bietigheim","Bahnhofsplatz 1","74321","Bietigheim-Bissingen"
"Filiale Leonberg","Römerstr. 75","71229","Leonberg"
"Filiale Heilbronn","Allee 36","74072","Heilbronn"
"SB-Filiale Heilbronn / Outdoor Geldautomat","Bahnhofstr. 12","74072","Heilbronn"
"SB-Filiale Heilbronn / Outdoor Geldautomat","Bahnhofstraße","74072","Heilbronn"
"SB-Filiale Herrenberg","Bronngasse 17","71083","Herrenberg"
"Filiale Singen","Erzbergerstr. 5","78224","Singen (Hohentwiel)"
"Filiale Singen","Erzbergerstraße","78224","Singen (Hohentwiel)"
"SB-Filiale Vaihingen/Enz","Franckstr. 2","71665","Vaihingen An Der Enz"
"SB-Filiale Mühlacker","Bahnhofstr. 119","75417","Mühlacker"
"Filiale Mosbach","Schwanengasse 9","74821","Mosbach"
"Filiale Pforzheim","Bahnhofstr. 7","75172","Pforzheim"
"Sparda-Bank","Niedere Str. 59","78050","Villingen-Schwenningen"
"Filiale VS-Villingen","Niedere Straße","78050","Villingen-Schwenningen"
"SB-Filiale Bretten","Melanchthonstr. 40","75015","Bretten"
"SB-Filiale Bretten","Melanchthonstraße","75015","Bretten"
"SB-Filiale Karlsbad","Benzstr. 3","76307","Karlsbad"
"Filiale Bruchsal","Kaiserstr. 37","76646","Bruchsal"
"Filiale Karlsruhe-Durlach","Pfinztalstraße","76227","Karlsruhe"
"Filiale Karlsruhe-Durlach","Pfinztalstr. 73","76227","Karlsruhe"
"Filiale Ettlingen","Schillerstr. 5-9","76275","Ettlingen"
"SB-Filiale Gaggenau","Theodor-Bergmann-Straße","76571","Gaggenau"
"SB-Sparda-Bank","Am Bahnhofsplatz 8","76571","Gaggenau"
"SB-Filiale Karlsruhe","Baumeisterstr. 21","76137","Karlsruhe"
"SB-Filiale Karlsruhe","Bahnhofplatz 1A","76137","Karlsruhe"
"SB-Sparda-Bank","Ettlinger Str. 1","76135","Karlsruhe"
"SB-Filiale Karlsruhe","Karl-Friedrich-Str. 26","76133","Karlsruhe"
"Filiale Karlsruhe","Kaiserstraße","76133","Karlsruhe"
"Filiale Karlsruhe","Kaiserstr. 207","76133","Karlsruhe"
"SB-Filiale Karlsruhe","Südendstraße","76135","Karlsruhe"
"SB-Filiale Karlsruhe","Südendstr. 44","76135","Karlsruhe"
"SB-Filiale Baden-Baden","Lichtentaler Allee","76530","Baden-Baden"
"Filiale Karlsruhe-Mühlburg","Rheinstr. 34","76185","Karlsruhe"
"Filiale Rastatt","Am Schloßplatz 2/1","76437","Rastatt"
"SB-Filiale Bühl","Eisenbahnstr. 15","77815","Bühl"
"SB-Sparda-Bank","Sandstr. 19","76726","Germersheim"
"SB-Sparda-Bank","Rathausgasse 2","76870","Kandel"
"Filiale Offenburg","Hauptstr. 115","77652","Offenburg"
"Filiale Freiburg","Bertoldstr. 48","79098","Freiburg"
"Sparda-Bank","Ostbahnstr. 26","76829","Landau"
"SB-Sparda-Bank","Marktstr. 59","76887","Bad Bergzabern"
"SB-Filiale Bad Krozingen","Bahnhofstr. 3","79189","Bad Krozingen"
"Filiale Lörrach","Grabenstr. 7","79539","Lörrach"
"Filiale Weil am Rhein","Leopoldstr. 1","79576","Weil Am Rhein"
"Sparda-Bank Filiale München Maxvorstadt","Oskar-Von-Miller-Ring 35","80333","München Maxvorstadt"
"Sparda-Bank Filiale München Altstadt-Lehel","Triftstr. 4","80538","München Altstadt-Lehel"
"Sparda-Bank","Triftstr. 4","80638","München"
"Sparda-Bank SB-Center München Ludwigsvorstadt-Isarvorstadt","Arnulfstr. 1","80335","München"
"Sparda-Bank","Arnulfstr. 15","80335","München"
"Sparda-Bank SB-Center München Schwabing-West","Schleißheimer str. 119","80797","München Schwabing-West"
"Sparda-Bank SB-Center München","Hackerbrücke 4","80335","München"
"Sparda-Bank Filiale München Ludwigsvorstadt-Isarvorstadt","Bayerstr. 107","80335","München Ludwigsvorstadt-Isarvorstadt"
"SB-Center München Bogenhausen","Denninger Straße 15","81679","München Bogenhausen"
"Sparda-Bank Filiale München Au-Haidhausen","Orleansplatz 11","81667","München"
"Sparda-Bank Filiale München Obergiesing","Tegernseer Landstr. 36","81541","München Obergiesing"
"SB-Sparda-Bank","Donnersberger Brücke","80634","München"
"SB-Center München Neuhausen-Nymphenburg","Richelstr. 3","80634","München Neuhausen-Nymphenburg"
"SB-Center München Milbertshofen-Am Hart","Riesenfeldstr. 75","80809","München Milbertshofen-Am Hart"
"Sparda-Bank Filiale München","Albert-Roßhaupter-str. 32","81369","München"
"Sparda-Bank Filiale München Untergiesing-Harlaching","Mangfallplatz 6","81547","München Untergiesing-Harlaching"
"Sparda-Bank Filiale München","Völckerstr. 5","80939","München"
"Sparda-Bank SB-Center München Schwabing-Freimann","Margot-Kalinke-Straße 4","80939","München Schwabing-Freimann"
"Sparda-Bank SB-Center München","Hanauer Str. 68","80993","München"
"SB-Center München","Fürstenrieder Str. 67","80686","München"
"Sparda-Bank Filiale München Moosach","Dachauer str. 413","80992","München Moosach"
"Sparda-Bank SB-Center München Moosach","Bunzlauer Str. 9","80992","München"
"Sparda-Bank Filiale München Perlach","Thomas-Dehler-Str. 10","81737","München"
"Sparda-Bank Filiale München Trudering-Riem","Am Willy-Brandt-Platz 5","81829","München"
"Sparda-Bank Filiale München Hadern","Würmtalstr. 132","81375","München Hadern"
"SB-Center Großhadern-Klinikum","Marchioninistr. 15","81377","München Hadern"
"Sparda-Bank Filiale München Pasing-Obermenzing","Spiegelstr. 3","81241","München Pasing-Obermenzing"
"SB-Sparda-Bank","Bahnhofsplatz 3","85521","Ottobrunn"
"Sparda-Bank Filiale Unterschleißheim","Pater-Kolbe-str. 7","85716","Unterschleißheim"
"Sparda-Bank Filiale Dachau","Münchner str. 23","85221","Dachau"
"Sparda-Bank Filiale Germering Unterpfaffenhofen","Otto-Wagner-str. 2a","82110","Germering Unterpfaffenhofen"
"Sparda-Bank SB-Center Puchheim","Lochhauser str. 22","82178","Puchheim"
"Sparda-Bank Filiale Olching","Feursstr. 17","82140","Olching"
"Sparda-Bank Filiale Starnberg","Maximilianstr. 18","82319","Starnberg"
"Sparda-Bank Filiale Fürstenfeldbruck Buchenau","Kurt-Huber-Ring 2","82256","Fürstenfeldbruck Buchenau"
"Sparda-Bank SB-Center Markt Indersdorf","Gewerbestr. 5","85229","Markt Indersdorf"
"SB-Sparda-Bank","Münchner Straße 32","85354","Freising"
"Sparda-Bank SB-Center Ebersberg","Altstadtpassage 6+7","85560","Ebersberg"
"Sparda-Bank Filiale Erding","Lange Zeile 11","85435","Erding"
"Sparda-Bank Filiale Holzkirchen","Bahnhofplatz 1","83607","Holzkirchen"
"Sparda-Bank Filiale Grafing Bei München","Vazaninistr. 18","85567","Grafing Bei München"
"Sparda-Bank Filiale Freising","Obere Hauptstr. 14","85354","Freising"
"Sparda-Bank Filiale Pfaffenhofen","Poststr. 3","85276","Pfaffenhofen"
"Sparda-Bank SB-Center Bad Aibling","Sedanstr. 1","83043","Bad Aibling"
"Sparda-Bank Filiale Weilheim","Bahnhofstr. 9","82362","Weilheim"
"SB-Sparda-Bank","Ohmstr. 2-6","86415","Mering-Sankt Afra"
"Sparda-Bank Filiale Wasserburg","Bahnhofsplatz 6","83512","Wasserburg"
"Sparda-Bank Filiale Rosenheim","Papinstr. 17","83022","Rosenheim"
"SB-Sparda-Bank","Bahnhofplatz 12","83022","Rosenheim"
"SB-Sparda-Bank","Friedberger Str. 120","86163","Augsburg"
"SB-Sparda-Bank","Brahmsstr. 2","86179","Augsburg"
"Sparda-Bank","City-Galerie, Willy-Brandt-Platz 1","86153","Augsburg"
"Sparda-Bank SB-Center Raubling","Rosenheimer str. 23","83064","Raubling"
"Sparda-Bank","Ostmarkt 12","86152","Augsburg"
"SB-Sparda-Bank","Gögginger Str. 52","86159","Augsburg"
"Sparda-Bank","Prinzregentenstr. 23","86150","Augsburg"
"Sparda-Bank","Ludwig-Erhard-Str. 8","84034","Landshut"
"Sparda-Bank SB-Center Murnau Am Staffelsee","Untermarkt 56","82418","Murnau"
"Sparda-Bank SB-Center Bad Endorf","Bahnhofstr. 18","83093","Bad Endorf"
"Sparda-Bank","Maximilianstr. 18","85290","Geisenfeld"
"Sparda-Bank","Neustadt 448","84028","Landshut"
"SB-Sparda-Bank","Bahnhofstr. 18","86368","Gersthofen"
"Sparda-Bank Filiale Waldkraiburg","Braunauer str. 2","84478","Waldkraiburg"
"SB-Sparda-Bank","Daimlerstr. 4","86356","Neusäß"
"SB-Sparda-Bank","Industriestr. 38-44","84030","Ergolding"
"Sparda-Bank Filiale Ingolstadt","Münchener str. 85","85051","Ingolstadt"
"Sparda-Bank Filiale Ingolstadt","Harderstr. 17","85049","Ingolstadt"
"Sparda-Bank Filiale Mühldorf","Bahnhofplatz 11","84453","Mühldorf"
"Sparda-Bank SB-Center Ingolstadt","Friedrichshofener Str. 16","85049","Ingolstadt-Friedrichshofen"
"Sparda-Bank Filiale Traunreut","Dr.-Johannes-Heidenhain-str. 4","83301","Traunreut"
"Sparda-Bank Filiale Garmisch-Partenkirchen","Bahnhofstr. 46","82467","Garmisch-Partenkirchen"
"SB-Sparda-Bank","Bahnhofstr. 31","82467","Garmisch-Partenkirchen"
"Sparda-Bank Filiale Traunstein","Bahnhofplatz 6","83278","Traunstein"
"SB-Sparda-Bank","Bahnhofstr. 23","86609","Donauwörth"
"Sparda-Bank Filiale Burghausen","Robert-Koch-str. 7","84489","Burghausen"
"Sparda-Bank","Hallhof 7","87700","Memmingen"
"Sparda-Bank","Beethovenstraße 14","87435","Kempten"
"Sparda-Bank Filiale Bad Reichenhall","Bahnhofplatz 2","83435","Bad Reichenhall"
"SB-Sparda-Bank","Simon-Breu-Str. 47-61","84359","Simbach am Inn"
"Sparda-Bank","Bahnhofstr. 8","83395","Freilassing"
"Sparda-Bank","Im Starkfeld 1","89231","Neu-Ulm"
"SB-Sparda-Bank","Triftplatz 5","83471","Schönau"
"Filiale Ulm","Küfergasse 10","89073","Ulm"
"SB-Filiale Ulm-Söflingen","Schlößlesgasse 2","89077","Ulm"
"Filiale Ravensburg","Roßbachstr. 4","88212","Ravensburg"
"SB-Sparda-Bank","Bahnhofplatz 1","88213","Ravensburg"
"SB-Filiale Ravensburg","Bahnhofstr. 1","88214","Ravensburg"
"Filiale Friedrichshafen","Scheffelstr. 52","88045","Friedrichshafen"
"Filiale Friedrichshafen","Scheffelstraße","88045","Friedrichshafen"
"SB-Center der Sparda-Bank Ostbayern eG","Stromerstraße 2a","93049","Regensburg"
"Sparda-Bank","Hauptstr. 15","91757","Treuchtlingen"
"Sparda-Bank","Pommernstr. 4","93073","Neutraubling"
"SB-Sparda-Bank","Friedenstr. 23","93053","Regensburg"
"Sparda-Bank","Bahnhofstr. 5","93047","Regensburg"
"Sparda-Bank","Weichser Weg 5","93059","Regensburg"
"Sparda-Bank","Theresienplatz 34","94315","Straubing"
"SB-Sparda-Bank","Deggendorfer Str. 2","94447","Plattling"
"Sparda-Bank","REGENSBURGER STRAßE 60","93133","Burglengenfeld"
"Sparda-Bank","Michael-Fischer-Platz 2","94469","Deggendorf"
"Sparda-Bank","Kugelbühlstr. 15","91154","Roth"
"SB-Sparda-Bank","Passauer Str. 56","94060","Pocking"
"SB-Sparda-Bank","Am Brunnfeld 8","92421","Schwandorf"
"Sparda-Bank SB-Center Schwandorf","Breite Straße 21","92421","Schwandorf"
"Sparda-Bank","Südliche Ringstr. 5c","91126","Schwabach"
"Sparda-Bank","Rodinger Str. 1a","93413","Cham"
"Sparda-Bank","Breslauer Str. 201","90471","Nürnberg"
"Sparda-Bank","Sonnenstr. 4","90471","Nürnberg"
"SB-Sparda-Bank","Nibelungenplatz 5","94032","Passau"
"Sparda-Bank","Nibelungenplatz 4","94032","Passau"
"SB-Sparda-Bank","Bahnhof 1","94209","Regen"
"Sparda-Bank","Südwestpark 62","90449","Nürnberg"
"Sparda-Bank","Residenzstr. 2-6","91522","Ansbach-Neuses"
"Sparda-Bank","Eilgutstr. 9","90443","Nürnberg"
"SB-Sparda-Bank","Hauptbahnhof","90443","Nürnberg"
"Sparda-Bank","Karolinenstr. 38","90402","Nürnberg"
"Sparda-Bank","Ostendstr. 242","90482","Nürnberg"
"Sparda-Bank","Rückertstr. 2","90419","Nürnberg"
"SB-Sparda-Bank","Professor-Ernst-Nathan-Str. 1","90419","Nürnberg"
"SB-Sparda-Bank","Fürther Str. 212","90429","Nürnberg"
"Sparda-Bank","Nürnberger Str. 69","91052","Erlangen"
"Sparda-Bank","Bahnhofstr. 17","92637","Weiden in der Oberpfalz"
"Sparda-Bank","Sattlertorstr. 4","91301","Forchheim"
"SB-Sparda-Bank","Innere Floßer Str. 7","92660","Neustadt a.d.Waldnaab"
"Sparda-Bank","Luitpoldplatz 2","95444","Bayreuth"
"Sparda-Bank","Lange Str. 19","96047","Bamberg"
"SB-Filiale Lauda-Königshofen","Bahnhofstr. 23","97922","Lauda-Königshofen"
"Sparda-Bank","Martin-Luther-Straße 7","95615","Marktredwitz"
"Sparda-Bank","Haugerring 3","97070","Würzburg"
"Sparda-Bank","Marktplatz 3","96215","Lichtenfels"
"Sparda-Bank","Schrammstr. 2a","97421","Schweinfurt"
"Sparda-Bank","Mohrenstraße 30","96450","Coburg"
"SB-Sparda-Bank","Königstr. 4","95028","Hof"
"Sparda-Bank","Ludwigstr. 54","95028","Hof"
"Sparda-Bank","Charlottenstr. 1","98617","Meiningen"
"Sparda-Bank","Friedensstr. 1","99423","Weimar"
"Sparda-Bank","Augustmauer 1","99084","Erfurt"
"Sparda-Bank","Domplatz 6","99084","Erfurt"
"Sparda-Bank","Marktstr. 17","99867","Gotha"
"Sparda-Bank","Karlstr. 57-59","99817","Eisenach"
"Sparda-Bank","Bahnhofsplatz 4","99734","Nordhausen"
"Volksbank Krefeld eG - Geschäftsstelle Lank","Schulstr. 1","40668","Meerbusch"
"Volksbank Krefeld eG - Geldautomat REWE Einkaufsmarkt","Düsseldorfer Str. 304","47809","Krefeld/Linn-Gellep-Stratum"
"Volksbank Krefeld eG - Geldautomat Linn","Hafenstr. 15","47809","Krefeld"
"Volksbank Krefeld eG - Geschäftsstelle Fischeln","Kölner str. 533","47807","Krefeld"
"Volksbank Krefeld eG - Geldautomat REAL Einkaufsmarkt","Hafelstr. 200","47809","Krefeld"
"Volksbank Krefeld eG - Geschäftsstelle Uerdingen","Kurfürstenstr. 22","47829","Krefeld"
"Volksbank Krefeld eG - Geschäftsstelle Oppum","Maybachstr. 143-145","47809","Krefeld"
"Volksbank Krefeld eG - Geschäftsstelle Bockum","Uerdinger str. 552","47800","Krefeld"
"Volksbank Krefeld eG - Geldautomat Hochschule Niederrhein","Reinarzstr. 49","47805","Krefeld"
"Volksbank Krefeld eG - Geldautomat REWE Einkaufsmarkt","Magdeburger Str. 9","47800","Krefeld-Verberg"
"Volksbank Krefeld eG - Geschäftsstelle Platz der Wiedervereinigung","Ritterstr. 224","47805","Krefeld"
"Volksbank Krefeld eG - Geldautomat Hansa Centrum","Neusser Str. 3","47798","Krefeld"
"Volksbank Krefeld eG - Geldautomat Rumeln-Kaldenhausen","Düsseldorfer Str. 141","47239","Duisburg"
"Volksbank Krefeld eG - Geldautomat Schwanenmarkt","Hochstr. 114","47798","Krefeld"
"Volksbank Krefeld eG - Hauptstelle Dionysiusplatz","Dionysiusplatz 23","47798","Krefeld"
"Volksbank Krefeld eG - Geldautomat MEDIA Markt","Blumentalstr. 151-155","47803","Krefeld"
"Volksbank Krefeld eG - Geldautomat REAL Einkaufsmarkt","Mevissenstr. 60","47803","Krefeld"
"Volksbank Krefeld eG - Geschäftsstelle St. Tönis","Rathausplatz 7","47918","Tönisvorst"
"Volksbank Krefeld eG - Geldautomat REAL Einkaufsmarkt","Höhenhöfe 19","47918","Tönisvorst"
"Volksbank Krefeld eG - Geschäftsstelle Vorst","Hauptstr. 6","47918","Tönisvorst"
"Volksbank Krefeld eG - Geschäftsstelle Hüls","Tönisberger str. 37-39","47839","Krefeld"
"Volksbank Krefeld eG - Geldautomat Aral-Tankstelle","Klever Str. 165","47839","Krefeld"
"Volksbank Krefeld eG - Geschäftsstelle Tönisberg","Vluyner str. 1","47906","Kempen"
"Volksbank Krefeld eG - Geschäftsstelle St. Hubert","Hauptstr. 2","47906","Kempen"
"Volksbank Krefeld eG - Geschäftsstelle Born","Born 21","41379","Brüggen"
"Volksbank Krefeld eG - Geschäftsstelle Schaag","Hubertusplatz 20","41334","Nettetal"
"Volksbank Krefeld eG - Geldautomat Kaufland","Johannes-Cleven-Str. 4","41334","Nettetal"
"Volksbank Krefeld eG - Geschäftsstelle Lobberich","Niedieckstr. 1","41334","Nettetal"
"Volksbank Krefeld eG - Geldautomat REWE Einkaufsmarkt","Borner Str. 50","41379","Brüggen"
"Volksbank Krefeld eG - Geschäftsstelle Brüggen","Bruchstr. 42983","41379","Brüggen"
"Volksbank Krefeld eG - Geschäftsstelle Breyell","Biether str. 15b","41334","Nettetal"
"Volksbank Krefeld eG - Geschäftsstelle Hinsbeck","Markt 9","41334","Nettetal"
"Volksbank Krefeld eG - Geschäftsstelle Bracht","Breyeller str. 2","41379","Brüggen"
"Volksbank Krefeld eG - Geschäftsstelle Leuth","Petershof 42890","41334","Nettetal"
"Volksbank Krefeld eG - Geschäftsstelle Kaldenkirchen","Klostergasse 8","41334","Nettetal"
"Volksbank Krefeld eG - Geldautomat REWE Einkaufsmarkt","Bahnhofstr. 16","41334","Nettetal"
"Deutsche Bank SB-Stelle","Markneukirchner Str. 2","08248","Klingenthal"
"Deutsche Bank SB-Stelle","Bahnhofstr. 15","08523","Plauen"
"Deutsche Bank SB-Stelle","Göltzschtalstr. 36","08209","Auerbach"
"Deutsche Bank SB-Stelle","Markt 4","09484","Oberwiesenthal"
"Deutsche Bank SB-Stelle","Saalstr. 48","07318","Saalfeld"
"Deutsche Bank Filiale","Bahnhofstr. 9","08468","Reichenbach"
"Deutsche Bank Filiale","Carolinenstr. 2","07973","Greiz-Irchwitz"
"Deutsche Bank Filiale","Altmarkt 12","08280","Aue"
"Deutsche Bank Filiale","Breite Str. 51","07381","Pößneck"
"Deutsche Bank Filiale","Marktstr. 45","07407","Rudolstadt-Volkstedt"
"Finanzagentur für die Deutsche Bank - Selbstständige Finanzberater","Rodaer Str. 7a","07806","Neustadt / Orla"
"Deutsche Bank Filiale","Wolkensteiner Str. 15","09456","Annaberg-Buchholz-Annaberg"
"Deutsche Bank Filiale","Dr.-Friedrichs-Ring 10","08056","Zwickau"
"Deutsche Bank","Markt 39","08412","Werdau"
"Deutsche Bank SB-Stelle","Roßmarkt 5","09366","Stollberg-Hoheneck"
"Finanzagentur für die Deutsche Bank - Selbstständige Finanzberater","Hauptmarkt 4","09366","Stollberg-Hoheneck"
"Finanzagentur für die Deutsche Bank - Selbstständige Finanzberater","Poststr. 2","09496","Marienberg"
"Deutsche Bank Filiale","Friedrich-August-Str. 2a","08451","Crimmitschau"
"Deutsche Bank SB-Stelle","Schleizer Str. 6","07549","Gera-Lusan"
"Deutsche Bank SB-Stelle","Karl-Marx-Allee 20","07747","Jena-Lobeda"
"Deutsche Bank","Dr. Dörffel-Str. 1","08371","Glauchau"
"Deutsche Bank SB-Stelle","Immanuel-Kant-Str. 7a","09337","Hohenstein-Ernstthal"
"Deutsche Bank SB-Stelle","Humboldtstr. 26","07545","Gera-Ostviertel"
"Deutsche Bank Geldautomat","Markt 1","09526","Olbernhau"
"Deutsche Bank SB-Stelle","Leutragraben 1","07743","Jena"
"Deutsche Bank Filiale","Hechinger Str. 3","09212","Limbach-Oberfrohna"
"Deutsche Bank SB-Stelle","Falkeplatz 2","09112","Chemnitz-Zentrum"
"Deutsche Bank SB-Stelle","Uferstr. 48/50","09126","Chemnitz-Lutherviertel"
"Deutsche Bank","Str. der Nationen 56","09111","Chemnitz"
"Deutsche Bank","Str. der Deutschen Einheit 29","09217","Burgstädt"
"Finanzagentur für die Deutsche Bank - Selbstständige Finanzberater","Burgstr. 3-4","04600","Altenburg"
"Deutsche Bank SB-Stelle","Baderberg 6","09669","Frankenberg"
"Deutsche Bank SB-Stelle baw geschlossen","Brüderstr. 3","06712","Zeitz"
"Deutsche Bank SB-Stelle","Am Baderdamm 17","04610","Meuselwitz"
"Deutsche Bank Filiale","Markt 21-23","09648","Mittweida"
"Deutsche Bank Filiale","Platz der Oktoberopfer 5","09599","Freiberg"
"Deutsche Bank SB-Stelle","Lindenring 48","06618","Naumburg"
"Deutsche Bank Filiale","Markt 5","04552","Borna"
"Deutsche Bank","Jüdenstr. 48","06667","Weißenfels"
"Finanzagentur für die Deutsche Bank - Selbstständige Finanzberater","Dresdner Str. 180","01705","Freital"
"Deutsche Bank SB-Stelle","Städtelner Str. 54","04416","Markkleeberg"
"Finanzagentur für die Deutsche Bank - Selbstständige Finanzberater","Rathausstr. 1","04416","Markkleeberg"
"Finanzagentur für die Deutsche Bank - Selbstständige Finanzberater","Hohnstädter Str. 2","04668","Grimma"
"Finanzagentur für die Deutsche Bank - Selbstständige Finanzberater","Leipziger Str. 63 -63b","04420","Markranstädt-Kulkwitz"
"Finanzagentur für die Deutsche Bank - Selbstständige Finanzberater","Ernst-Thälmann-Str. 17","01809","Heidenau"
"Deutsche Bank SB-Stelle","Zwickauer Str. 125","04279","Leipzig"
"Deutsche Bank SB-Stelle","Merianplatz 4","01169","Dresden"
"Deutsche Bank SB-Stelle","Nürnberger Str. 37","01187","Dresden"
"Deutsche Bank Filiale","Jacobäerstr. 3","01796","Pirna"
"Deutsche Bank SB-Stelle","Försterlingstr. 26","01259","Dresden-Leuben"
"Deutsche Bank SB-Stelle","Kesselsdorfer Str. 22","01159","Dresden"
"Deutsche Bank Filiale","Stuttgarter Allee 29","04209","Leipzig"
"Deutsche Bank SB-Stelle","Könneritzstr. 86","04229","Leipzig"
"Deutsche Bank SB-Stelle","Prager Str. 8","01069","Dresden"
"Deutsche Bank Geldautomat","Zschochersche Str. 48","04229","Leipzig"
"Deutsche Bank Filiale","Große Ritterstr. 1c-d","06217","Merseburg"
"Deutsche Bank SB-Stelle","Riemannstr. 29b","04107","Leipzig"
"Deutsche Bank SB-Stelle","Marktstr. 2-6","04177","Leipzig-Altlindenau"
"Deutsche Bank SB-Stelle","Martin-Luther-Ring 2","04109","Leipzig"
"Deutsche Bank SB-Stelle","Burgplatz","04109","Leipzig"
"Deutsche Bank SB-Stelle","Königsbrücker Str. 15","01099","Dresden"
"Deutsche Bank SB-Stelle","Willy-Brandt-Platz 3","04109","Leipzig-Zentrum-Ost"
"Deutsche Bank Filiale","Loschwitzer Str. 52","01309","Dresden-Blasewitz"
"Deutsche Bank SB-Stelle","Leipziger Str. 159","01139","Dresden-Mickten"
"Deutsche Bank Filiale","Moritzburger Str. 1","01445","Radebeul"
"Deutsche Bank SB-Stelle","Gorkistr. 110","04347","Leipzig"
"Deutsche Bank SB-Stelle","Moritzburger Str. 6-8","01640","Coswig"
"Deutsche Bank Filiale","Roßmarkt 5","01662","Meißen"
"Deutsche Bank SB-Stelle","Lindenthaler Str. 24","04155","Leipzig"
"Deutsche Bank","Delitzscher Str. 49","04129","Leipzig"
"Deutsche Bank","Goldsternstr. 39","04329","Leipzig"
"Deutsche Bank SB-Stelle","Essener Str. 102","04357","Leipzig"
"Finanzagentur für die Deutsche Bank - Selbstständige Finanzberater","Rathaus-QuarreesLessingstraße/Theodor Heuß-Str. am Rathausplatz","04435","Schkeuditz"
"Finanzagentur für die Deutsche Bank - Selbstständige Finanzberater","Rathausplatz 1","04435","Schkeuditz"
"Deutsche Bank","Königsbrücker Landstr. 21","01109","Dresden"
"Deutsche Bank SB-Stelle","Wilhelm-von-Klewitz-Str. 9","06132","Halle (Saale)"
"Deutsche Bank SB-Stelle","Markt 4","04425","Taucha"
"Deutsche Bank","Hospitalstr. 14","04758","Oschatz"
"Deutsche Bank SB-Stelle","Albert-Kuntz-Str. 11","04808","Wurzen"
"Deutsche Bank Filiale","Göpenstr. 8","06526","Sangerhausen"
"Deutsche Bank SB-Stelle","Pulsnitzer Str. 4","01454","Radeberg"
"Deutsche Bank","Steinweg 25","06110","Halle (Saale)"
"Deutsche Bank SB-Stelle","Neustädter Passage 6","06122","Halle (Saale)"
"Deutsche Bank SB-Stelle","Leipziger Str. 87-92","06108","Halle (Saale)-Altstadt"
"Deutsche Bank Filiale","Alexander-Puschkin-Platz 11","01587","Riesa-Pausitz"
"Finanzagentur für die Deutsche Bank - Selbstständige Finanzberater","Bernburger Str. 16","06108","Halle (Saale)"
"Finanzagentur für die Deutsche Bank - Selbstständige Finanzberater","Plan 4","06295","Eisleben"
"Deutsche Bank SB-Stelle","Schloßstr. 14","01558","Großenhain"
"Finanzagentur für die Deutsche Bank - Selbstständige Finanzberater","Mozartallee 133","01558","Großenhain"
"Deutsche Bank SB-Stelle","Leipziger Str. 1","04509","Delitzsch"
"Finanzagentur für die Deutsche Bank - Selbstständige Finanzberater","Breite Str. 9","04509","Delitzsch"
"Deutsche Bank Filiale","Neustadt 47","02763","Zittau"
"Deutsche Bank","Untere Bahnhofstr. 1-3","06333","Hettstedt"
"Deutsche Bank Filiale","Bismarckstr. 15","06749","Bitterfeld-Wolfen"
"Finanzagentur für die Deutsche Bank - Selbstständige Finanzberater","Schulplatz 3","01917","Kamenz"
"Deutsche Bank SB-Stelle","Markt 5","04860","Torgau"
"Finanzagentur für die Deutsche Bank - Selbstständige Finanzberater","Spitalstr. 5","04860","Torgau"
"Deutsche Bank SB-Stelle","Postplatz 6","02625","Bautzen"
"Finanzagentur für die Deutsche Bank - Selbstständige Finanzberater","Altmarkt 3","02708","Löbau"
"Deutsche Bank SB-Stelle","Sachsenstr. 8","02708","Löbau"
"Deutsche Bank SB-Stelle","Dessauer Allee","06766","Bitterfeld-Wolfen"
"Deutsche Bank SB-Stelle","Markt 15","06449","Aschersleben"
"Finanzagentur für die Deutsche Bank - Selbstständige Finanzberater","Schalaunische Str. 35","06366","Köthen"
"Deutsche Bank SB-Stelle","Schalaunische Str. 6-7","06366","Köthen"
"Deutsche Bank","Karlsplatz 33","06406","Bernburg"
"Deutsche Bank","Marktstr. 3","06484","Quedlinburg"
"Deutsche Bank Filiale","Kavalierstr. 20-22","06844","Dessau-Roßlau"
"Finanzagentur für die Deutsche Bank - Selbstständige Finanzberater","Albert-Einstein-Str. 47b","02977","Hoyerswerda"
"Deutsche Bank Filiale","Demianiplatz 10","02826","Görlitz"
"Deutsche Bank geschlossen","Markt 33","03238","Finsterwalde"
"Deutsche Bank SB-Stelle","Bahnhofstr. 8","01968","Senftenberg"
"Deutsche Bank SB-Stelle","Görlitzer Str. 7","02906","Niesky"
"Deutsche Bank Filiale","Juristenstr. 1-2","06886","Lutherstadt Wittenberg"
"Finanzagentur für die Deutsche Bank - Selbstständige Finanzberater","Am Markt 5","03130","Spremberg"
"Deutsche Bank Filiale","Berliner Str. 2","02943","Weißwasser"
"Deutsche Bank","Bertold-Brecht-Str. 8","03050","Cottbus"
"Deutsche Bank SB-Stelle","Spremberger Str. 18","03046","Cottbus-Mitte"
"Deutsche Bank","Muskauer PLatz 3","03042","Cottbus"
"Deutsche Bank","Berliner Str. 28","03172","Guben"
"Deutsche Bank Filiale","Pferdestr. 54","14913","Jüterbog"
"Deutsche Bank","Breite Str. 44","14943","Luckenwalde"
"Finanzagentur für die Deutsche Bank - Selbstständige Finanzberater","Baruther Str. 1","15806","Zossen"
"Finanzagentur für die Deutsche Bank - Selbstständige Finanzberater","Potsdamer Str. 51","14974","Ludwigsfelde"
"Deutsche Bank SB-Stelle","Sankt-Annen-Str. 38","14776","Brandenburg"
"Finanzagentur für die Deutsche Bank - Selbstständige Finanzberater","Unter den Linden 10","14542","Werder / Havel"
"Deutsche Bank SB-Stelle","Unter den Linden 4","14542","Werder / Havel"
"Deutsche Bank SB-Stelle","Tschirchdamm 17","14772","Brandenburg"
"Deutsche Bank Filiale","Bahnhofstr. 18","15711","Königs Wusterhausen"
"Deutsche Bank Filiale","Karl-Liebknecht-Str. 11-13","14482","Potsdam"
"Deutsche Bank SB-Stelle","Charlottenstr. 40","14467","Potsdam"
"Deutsche Bank","Berliner Str. 21","15848","Beeskow"
"Finanzagentur für die Deutsche Bank - Selbstständige Finanzberater","Förster-Funke-Allee 102","14532","Kleinmachnow"
"Deutsche Bank SB-Stelle","Bahnhofstr. 47","12305","Berlin-Lichtenrade"
"Deutsche Bank Geldautomat","Flughafen Schönefeld","12521","Berlin"
"Deutsche Bank SB-Stelle","Marienfelder Allee 149","12279","Berlin-Marienfelde"
"Deutsche Bank SB-Stelle","Teltower Damm 2","14169","Berlin-Zehlendorf"
"Deutsche Bank Filiale","Kladower Damm 366","14089","Berlin-Kladow"
"Deutsche Bank SB-Stelle","Mariendorfer Damm 444","12107","Berlin-Mariendorf"
"Deutsche Bank SB-Stelle","Kranoldplatz 5","12209","Berlin-Lichterfelde"
"Deutsche Bank Filiale","Drakestr. 48a","12205","Berlin-Lichterfelde"
"Deutsche Bank geschlossen","Hindenburgdamm 30","12203","Berlin"
"Deutsche Bank Filiale","Hausstockweg 57","12107","Berlin-Mariendorf"
"Deutsche Bank SB-Stelle","Köpenicker Str. 184","12355","Berlin-Rudow"
"Deutsche Bank","Takustr. 39","14195","Berlin"
"Deutsche Bank SB-Stelle","Johannisthaler Chaussee 300","12351","Berlin-Buckow"
"Deutsche Bank SB-Stelle","Schloßstr. 114","12163","Berlin-Steglitz"
"Deutsche Bank SB-Stelle","Mariendorfer Damm 69","12109","Berlin-Mariendorf"
"Deutsche Bank SB-Stelle","Lindenallee 56-58","15890","Eisenhüttenstadt"
"Deutsche Bank SB-Stelle","Breite Str. 36","14199","Berlin-Schmargendorf"
"Deutsche Bank Filiale","Dörpfeldstr. 11","12489","Berlin-Adlershof"
"Deutsche Bank Filiale","Wexstr. 1","10825","Berlin"
"Deutsche Bank SB-Stelle","Uhlandstr. 97","10715","Berlin-Wilmersdorf"
"Deutsche Bank SB-Stelle","Schnellerstr. 127","12439","Berlin"
"Deutsche Bank SB-Stelle","Kaiser-Wilhelm-Platz 1-2","10827","Berlin"
"Deutsche Bank SB-Stelle","Bahnhofstr. 6","12555","Berlin"
"Deutsche Bank Filiale","Kurfürstendamm 62","10711","Berlin"
"Deutsche Bank SB-Stelle","Kurfürstendamm 62","10707","Berlin-Charlottenburg"
"Deutsche Bank SB-Stelle","Kaiserdamm 39","14057","Berlin-Westend"
"Deutsche Bank SB-Stelle","Hermannstr. 256-258","12049","Berlin"
"Deutsche Bank SB-Stelle","Kurfürstendamm 28","10719","Berlin-Charlottenburg"
"Deutsche Bank SB-Stelle","Mehringdamm 32-34","10961","Berlin-Kreuzberg"
"Deutsche Bank SB-Stelle","Bismarckstr. 68","10627","Berlin-Charlottenburg"
"Deutsche Bank Filiale","Eisenbahnstr. 8","15517","Fürstenwalde"
"Deutsche Bank Filiale","Otto-Suhr-Allee 6-16","10585","Berlin-Charlottenburg"
"Deutsche Bank SB-Stelle","Leipziger Platz 8","10117","Berlin-Mitte"
"Deutsche Bank SB-Stelle","Breite Str. 25-29","13597","Berlin-Spandau"
"Deutsche Bank SB-Stelle","Friedrichstr. 181","10117","Berlin-Mitte"
"Deutsche Bank Filiale","Potsdamer Str. 1/3","14612","Falkensee"
"Deutsche Bank SB-Stelle","Unter den Linden 13-15","10117","Berlin-Mitte"
"Deutsche Bank SB-Stelle","Gartenfelder Str. 119","13599","Berlin-Haselhorst"
"Deutsche Bank geschlossen","Stadtrandstr. 555","13589","Berlin"
"Deutsche Bank SB-Stelle","Streitstr. 6-19","13587","Berlin-Hakenfelde"
"Deutsche Bank SB-Stelle","Alexanderstr. 5","10178","Berlin-Mitte"
"Deutsche Bank SB-Stelle","Frankfurter Allee 113 (Ringcenter)","10365","Berlin"
"Finanzagentur für die Deutsche Bank - Selbstständige Finanzberater","Marktstr. 20-21","14641","Nauen"
"Deutsche Bank SB-Stelle","Müllerstr. 32","13353","Berlin-Wedding"
"Deutsche Bank Geldautomat","Augustenburger Platz 1","13353","Berlin-Wedding"
"Deutsche Bank Geldautomat","Flughafen-Berlin-Tegel","13405","Berlin-Tegel"
"Deutsche Bank","Brunnenstr. 79","13355","Berlin"
"Deutsche Bank","Landsberger Allee 171","10369","Berlin"
"Deutsche Bank SB-Stelle","Prinzenallee 1","13357","Berlin"
"Deutsche Bank SB-Stelle","Schönhauser Allee 120","10437","Berlin-Prenzlauer Berg"
"Deutsche Bank SB-Stelle","Residenzstr. 115-116","13409","Berlin-Reinickendorf"
"Deutsche Bank Geldautomat","Prenzlauer Promenade 41-42","13089","Berlin-Pankow"
"Deutsche Bank SB-Stelle","Marzahner Promenade 25","12679","Berlin-Marzahn"
"Deutsche Bank SB-Stelle","Janusz-Korczak-Str. 3-5","12627","Berlin-Hellersdorf"
"Deutsche Bank SB-Stelle","Schloßstr. 26","13507","Berlin-Tegel"
"Deutsche Bank Filiale","Alice-Salomon-Platz 2-3","12627","Berlin-Hellersdorf"
"Deutsche Bank SB-Stelle","Wilhelmsruher Damm 130-132","13439","Berlin"
"Deutsche Bank","Heinsestr. 32-36","13467","Berlin"
"Deutsche Bank SB-Stelle","Karl-Marx-Str. 194","15230","Frankfurt (Oder)"
"Deutsche Bank SB-Stelle","Havelpassage 14","16761","Hennigsdorf"
"Deutsche Bank SB-Stelle","Welfenallee 3-7","13465","Berlin-Frohnau"
"Deutsche Bank Filiale","Marktplatz 5","16321","Bernau"
"Deutsche Bank SB-Stelle","Bernauer Str. 18","16515","Oranienburg-Sachsenhausen"
"Deutsche Bank","Breite Str. 1","15306","Seelow"
"Deutsche Bank Filiale","Karl-Marx-Str. 79","16816","Neuruppin"
"Deutsche Bank SB-Stelle","Karl-Marx-Str. 20","16259","Bad Freienwalde"
"Deutsche Bank Filiale","Breite Str. 40","16225","Eberswalde"
"Deutsche Bank Filiale","Bäckerstr. 10","19348","Perleberg"
"Finanzagentur für die Deutsche Bank - Selbstständige Finanzberater","Mittelstr. 4","16928","Pritzwalk"
"Deutsche Bank","Bahnhofstr. 31","17268","Templin"
"Deutsche Bank Filiale","Lindenstr. 29","19288","Ludwigslust-Techentin"
"Deutsche Bank Filiale","Karthausstr. 12","16303","Schwedt-Zentrum"
"Deutsche Bank Filiale","Blutstr. 13","19370","Parchim"
"Finanzagentur für die Deutsche Bank - Selbstständige Finanzberater","Grubenstr. 7","19230","Hagenow"
"Deutsche Bank Filiale","Strelitzer Str. 2-4","17235","Neustrelitz-Zierke"
"Deutsche Bank SB-Stelle","Am Markt 7","19386","Lübz"
"Deutsche Bank SB-Stelle","Marktstr. 26","19395","Plau"
"Finanzagentur für die Deutsche Bank - Selbstständige Finanzberater","Mecklenburger Str. 57","23568","Lübeck"
"Deutsche Bank Filiale","Marktberg 12","17291","Prenzlau"
"Deutsche Bank SB-Stelle","Berliner Platz 1","19063","Schwerin-Neu Zippendorf"
"Deutsche Bank SB-Stelle","Marienplatz 1-2","19053","Schwerin-Altstadt"
"Deutsche Bank SB-Stelle","Friedrich-Engels-Ring 52","17033","Neubrandenburg-Katharinenviertel"
"Deutsche Bank","Juri-Gagarin-Ring 1","17036","Neubrandenburg"
"Deutsche Bank geschlossen","Max-Adrion-Str. 1","17034","Neubrandenburg"
"Deutsche Bank SB-Stelle","Am Markt 3","19205","Gadebusch"
"Deutsche Bank SB-Stelle","Steinstr. 19","17139","Malchin"
"Deutsche Bank SB-Stelle","Platz der Freundschaft","18273","Güstrow"
"Deutsche Bank SB-Stelle","Markt 21","18273","Güstrow"
"Finanzagentur für die Deutsche Bank - Selbstständige Finanzberater","Rostocker Str. 1","17166","Teterow"
"Finanzagentur für die Deutsche Bank - Selbstständige Finanzberater","Bahnhofstr. 1d","17358","Torgelow"
"Deutsche Bank SB-Stelle","Lange Str. 42","18246","Bützow-Wolken"
"Deutsche Bank SB-Stelle","Markt 2","17373","Ueckermünde"
"Deutsche Bank Filiale","Treptower Str. 31","17109","Demmin"
"Deutsche Bank SB-Stelle","Steinstr. 12","17389","Anklam"
"Deutsche Bank SB-Stelle","Nobelstr. 50-51","18059","Rostock"
"Deutsche Bank SB-Stelle","Kröpeliner Str. 84","18055","Rostock-Stadtmitte"
"Finanzagentur für die Deutsche Bank - Selbstständige Finanzberater","Am Markt 13","18209","Bad Doberan"
"Deutsche Bank SB-Stelle","Hannes-Meyer-Platz 26","18146","Rostock"
"Deutsche Bank Filiale","St. Petersburger Str. 18b","18107","Rostock"
"Deutsche Bank SB-Stelle","Friedrichstr. 50","18507","Grimmen"
"Deutsche Bank SB-Stelle","Mühlenstr. 44","18119","Rostock"
"Deutsche Bank SB-Stelle","Ernst-Thälmann-Ring 4c","17491","Greifswald"
"Deutsche Bank Filiale","Markt 2","17489","Greifswald-Innenstadt"
"Finanzagentur für die Deutsche Bank - Selbstständige Finanzberater","Rathausplatz 2","17438","Wolgast"
"Finanzagentur für die Deutsche Bank - Selbstständige Finanzberater","Lange Str. 44","18311","Ribnitz-Damgarten"
"Deutsche Bank Geldautomat","Gustower Weg 3","18439","Stralsund"
"Deutsche Bank SB-Stelle","Tribseer Str. 1","18439","Stralsund-Altstadt"
"Deutsche Bank SB-Stelle","Heinrich-Heine-Ring 120c","18435","Stralsund-Knieper West"
"Deutsche Bank SB-Stelle","Großträgerstr. 5","18356","Barth"
"Finanzagentur für die Deutsche Bank - Selbstständige Finanzberater","Markt 8","18528","Bergen auf Rügen"
"Deutsche Bank Geldautomat","Hauptstr. 1","18609","Binz (Rügen)"
"Deutsche Bank SB-Stelle","Hauptstr. 70","18546","Sassnitz-Buddenhagen"
"Deutsche Bank Filiale","Kanzleistr. 9","29221","Celle"
"Deutsche Bank SB-Stelle","Veestherrnweg 12","29633","Munster"
"Deutsche Bank Filiale","Wilhelmstr. 22","29614","Soltau"
"Deutsche Bank Filiale","Große Str. 52","27283","Verden"
"Deutsche Bank SB-Stelle","Bardowicker Str. 6","21335","Lüneburg-Altstadt"
"Deutsche Bank Filiale","Schwachhauser Heerstr. 199","28211","Bremen-Schwachhausen"
"Deutsche Bank SB-Stelle","Domshof 25","28195","Bremen"
"Deutsche Bank Filiale","Lange Str. 7-9","27749","Delmenhorst-Mitte"
"Deutsche Bank SB-Stelle","Berliner Str. 11","21481","Lauenburg/Elbe"
"Finanzagentur für die Deutsche Bank - Selbstständige Finanzberater","Gröpelinger Heerstr. 199","28239","Bremen"
"Finanzagentur für die Deutsche Bank - Selbstständige Finanzberater","Marktstr. 11","21423","Winsen (Luhe)"
"Deutsche Bank Filiale","Breite Str. 6","21244","Buchholz-Seppensen"
"Deutsche Bank Filiale","Bergedorfer Str. 40","21502","Geesthacht"
"Deutsche Bank Filiale","Gerhard-Rohlfs-Str. 62","28757","Bremen-Vegesack"
"Deutsche Bank SB-Stelle","Harburger Rathausstr. 44","21073","Hamburg-Harburg"
"Deutsche Bank Filiale","Alte Holstenstr. 59","21029","Hamburg-Bergedorf"
"Deutsche Bank SB-Stelle","Staugraben 10","26122","Oldenburg"
"Deutsche Bank SB-Stelle","Neugrabener Bahnhofstr. 14","21149","Hamburg-Neugraben-Fischbek"
"Deutsche Bank Filiale","Lange Str. 47","21614","Buxtehude-Eilendorf"
"Deutsche Bank Filiale","Veringstr. 30","21107","Hamburg-Wilhelmsburg"
"Deutsche Bank Filiale","Schmiedesberg 2a","21465","Reinbek"
"Finanzagentur für die Deutsche Bank - Selbstständige Finanzberater","Marktstr. 6","21698","Harsefeld"
"Deutsche Bank Filiale","Überseeboulevard 4-10","20457","Hamburg-HafenCity"
"Deutsche Bank Filiale","Adolphsplatz 7","20457","Hamburg"
"Deutsche Bank SB-Stelle","Spitalerstr. 16","20095","Hamburg"
"Deutsche Bank SB-Stelle","Paul-Nevermann-Platz 5","22765","Hamburg-Altona-Altstadt"
"Deutsche Bank SB-Stelle","Wandsbeker Marktstr. 1","22041","Hamburg"
"Deutsche Bank Filiale","Hauptstr. 33","23879","Mölln"
"Deutsche Bank SB-Stelle","Mittelweg 130","20148","Hamburg-Rotherbaum"
"Deutsche Bank Filiale","Waitzstr. 8","22607","Hamburg"
"Deutsche Bank SB-Stelle","Osterstr. 135","20255","Hamburg"
"Deutsche Bank SB-Stelle","Klosterstern 1","20149","Hamburg-Harvestehude"
"Deutsche Bank Filiale","Blankeneser Bahnhofstr. 52-54","22587","Hamburg-Blankenese"
"Deutsche Bank SB-Stelle","Rahlstedter Bahnhofstr. 7","22143","Hamburg-Rahlstedt"
"Deutsche Bank SB-Stelle","Eppendorfer Landstr. 70","20249","Hamburg-Eppendorf"
"Deutsche Bank Geldautomat","Winterhuder Marktplatz 6-7a","22299","Hamburg-Winterhude"
"Deutsche Bank SB-Stelle","Winterhuder Marktplatz 13-15","22299","Hamburg-Winterhude"
"Deutsche Bank SB-Stelle","Bramfelder Chaussee 316","22177","Hamburg-Bramfeld"
"Deutsche Bank Filiale","Bahnhofstr. 43","22880","Wedel"
"Deutsche Bank Filiale","Ekenknick 3","22523","Hamburg-Eidelstedt"
"Deutsche Bank Filiale","Tibarg 32","22459","Hamburg-Niendorf"
"Deutsche Bank Filiale","Erdkampsweg 34","22335","Hamburg"
"Deutsche Bank Geldautomat","Flughafenstr. 1-3","22335","Hamburg"
"Deutsche Bank Filiale","Im Alten Dorfe 25-27","22359","Hamburg-Volksdorf"
"Deutsche Bank SB-Stelle","Am Markt 8","23909","Ratzeburg"
"Deutsche Bank Filiale","Heegbarg 4","22391","Hamburg"
"Deutsche Bank Geldautomat","Heegbarg 30","22391","Hamburg"
"Deutsche Bank Filiale","Manhagener Allee 5","22926","Ahrensburg"
"Deutsche Bank Filiale","Breite Str. 1","21682","Stade"
"Deutsche Bank SB-Stelle","Schmuggelstieg 10","22848","Norderstedt-Garstedt"
"Deutsche Bank Filiale","Dingstätte 19-21","25421","Pinneberg"
"Deutsche Bank Filiale","Besttorstr. 3","23843","Bad Oldesloe"
"Deutsche Bank Filiale","Mühlenstr. 84","26789","Leer-Heisfelde"
"Deutsche Bank SB-Stelle","Bürgermeister-Smidt-Str. 9-11","27568","Bremerhaven-Mitte"
"Finanzagentur für die Deutsche Bank - Selbstständige Finanzberater","August-Bebel-Str. 7","23936","Grevesmühlen"
"Deutsche Bank Filiale","Oberbüssauer Weg 4","23560","Lübeck"
"Finanzagentur für die Deutsche Bank - Selbstständige Finanzberater","Paul-von-Schoenaich-Str. 27","23858","Reinfeld"
"Deutsche Bank Filiale","Ratzeburger Allee 47-47a","23562","Lübeck"
"Finanzagentur für die Deutsche Bank - Selbstständige Finanzberater","Hamburger Str. 20","24558","Henstedt-Ulzburg"
"Deutsche Bank Filiale","Holstenplatz 3","25335","Elmshorn"
"Deutsche Bank Geldautomat","Moislinger Allee 53-55","23558","Lübeck"
"Deutsche Bank SB-Stelle","Am Kaufhof 3","23566","Lübeck"
"Deutsche Bank Filiale","Am Markt 16-17","23966","Wismar"
"Deutsche Bank SB-Stelle","Kohlmarkt 7-15","23552","Lübeck"
"Deutsche Bank Filiale","Fackenburger Allee 22-24","23554","Lübeck"
"Deutsche Bank","Forstmeisterweg 83","23568","Lübeck"
"Deutsche Bank Filiale","Segeberger Str. 9","23617","Stockelsdorf"
"Finanzagentur für die Deutsche Bank - Selbstständige Finanzberater","Kücknitzer Hauptstr. 3","23569","Lübeck"
"Deutsche Bank SB-Stelle","Auguststr. 2","23611","Bad Schwartau"
"Deutsche Bank SB-Stelle","Dorfstr. 7","23611","Sereetz"
"Deutsche Bank Filiale","Marktstr. 42","26382","Wilhelmshaven-Innenstadt"
"Deutsche Bank Filiale","Vorderreihe 62","23570","Lübeck"
"Deutsche Bank Filiale","Kurhausstr. 15-17","23795","Bad Segeberg"
"Deutsche Bank SB-Stelle","Eutiner Str. 25a","23689","Pansdorf"
"Deutsche Bank Filiale","Strandallee 93","23669","Timmendorfer Strand"
"Finanzagentur für die Deutsche Bank - Selbstständige Finanzberater","Lübecker Str. 2a","23623","Ahrensbök"
"Finanzagentur für die Deutsche Bank - Selbstständige Finanzberater","Marktplatz 19-20","26603","Aurich-Kirchdorf"
"Deutsche Bank Filiale","Berliner Platz 1","25524","Itzehoe"
"Finanzagentur für die Deutsche Bank - Selbstständige Finanzberater","Am Markt 9","23730","Neustadt in Holstein"
"Deutsche Bank Filiale","Großflecken 21","24534","Neumünster-Innenstadt"
"Deutsche Bank","Neustädter Str. 1","23743","Grömitz"
"Deutsche Bank Filiale","Peterstr. 14","23701","Eutin"
"Deutsche Bank Filiale","Osterstr. 1","26506","Norden"
"Deutsche Bank Filiale","Markt 24-25","23758","Oldenburg in Holstein"
"Deutsche Bank Geldautomat","Mühlendamm 1","24113","Kiel"
"Deutsche Bank SB-Stelle","Markt 15","23774","Heiligenhafen"
"Deutsche Bank SB-Stelle","Schönberger Str. 33","24148","Kiel-Wellingdorf"
"Deutsche Bank SB-Stelle","Rathausplatz 1","24103","Kiel-Vorstadt"
"Deutsche Bank SB-Stelle","Holtenauer Str. 90-92","24105","Kiel"
"Deutsche Bank Filiale","Jungfernstieg 2","24768","Rendsburg"
"Deutsche Bank SB-Stelle","An der Schanze 37","24159","Kiel"
"Finanzagentur für die Deutsche Bank - Selbstständige Finanzberater","Kieler Str. 65","24340","Eckernförde"
"Finanzagentur für die Deutsche Bank - Selbstständige Finanzberater","Markt 28-30","25813","Husum"
"Deutsche Bank SB-Stelle","Rathausstr. 10-12","24937","Flensburg"
"Deutsche Bank Filiale","Kirchenweg 3-5","25980","Westerland"
"Deutsche Bank SB-Stelle","Universitätsplatz 5","36037","Fulda-Neuenberg"
"Deutsche Bank SB-Stelle","Markt 11","36433","Bad Salzungen-Wildprechtroda"
"Finanzagentur für die Deutsche Bank - Selbstständige Finanzberater","Dudenstr. 11","36251","Bad Hersfeld"
"Deutsche Bank geschlossen","Obergasse 6","36304","Alsfeld"
"Deutsche Bank SB-Stelle","Marktplatz 4","35390","Gießen-Kleinlinden"
"Finanzagentur für die Deutsche Bank - Selbstständige Finanzberater","Langgasse 68","35576","Wetzlar"
"Deutsche Bank Filiale","Forstgasse 26","37269","Eschwege"
"Deutsche Bank Filiale","Biegenstr. 2","35037","Marburg"
"Finanzagentur für die Deutsche Bank - Selbstständige Finanzberater","Hauptstr. 105 A","35745","Herborn"
"Deutsche Bank SB-Stelle","Hindenburgstr. 15b","35683","Dillenburg"
"Deutsche Bank SB-Stelle","Lange Str. 75","37339","Worbis"
"Finanzagentur für die Deutsche Bank - Selbstständige Finanzberater","Brunnenstr. 69","34537","Bad Wildungen"
"Deutsche Bank Geldautomat","Hospitalstr. 36-38","35216","Biedenkopf"
"Deutsche Bank geschlossen","Leipziger Str. 164","34123","Kassel"
"Deutsche Bank SB-Stelle","Friedrichsplatz 4","34117","Kassel-Mitte"
"Deutsche Bank SB-Stelle","Marktstr. 43-44","37441","Bad Sachsa"
"Deutsche Bank SB-Stelle","Zindelstr. 3-5","37073","Göttingen"
"Deutsche Bank SB-Stelle","Hauptstr. 124","37431","Bad Lauterberg"
"Deutsche Bank SB-Stelle","Lange Str. 8","38889","Blankenburg-Oesig"
"Deutsche Bank Filiale","Kornmarkt 3","37520","Osterode-Freiheit"
"Deutsche Bank Geldautomat","Lerchenbreite 5e","38889","Blankenburg (Harz)"
"Deutsche Bank Filiale","Breite Str. 16","38855","Wernigerode"
"Deutsche Bank SB-Stelle","Adolph-Roemer-Str. 39","38678","Clausthal-Zellerfeld"
"Deutsche Bank SB-Stelle","Fischmarkt 3-5","38820","Halberstadt-Wehrstedt"
"Finanzagentur für die Deutsche Bank - Selbstständige Finanzberater","Voigtei 25","38820","Halberstadt-Wehrstedt"
"Deutsche Bank Filiale","Neuer Markt 5","37574","Einbeck"
"Deutsche Bank","Markt 26","39261","Zerbst"
"Deutsche Bank SB-Stelle","Rosentorstr. 15","38640","Goslar-Altstadt"
"Finanzagentur für die Deutsche Bank - Selbstständige Finanzberater","Jacobsonstr. 9","38723","Seesen"
"Deutsche Bank Filiale","Salzer Str. 14","39218","Schönebeck"
"Deutsche Bank Filiale","Halberstädter Str. 100","39387","Oschersleben"
"Finanzagentur für die Deutsche Bank - Selbstständige Finanzberater","Weserstr. 10","37671","Höxter"
"Deutsche Bank SB-Stelle","Obere Str. 1","37603","Holzminden"
"Finanzagentur für die Deutsche Bank - Selbstständige Finanzberater","Markt 15","37603","Holzminden"
"Deutsche Bank","Lange Str. 119","33014","Bad Driburg"
"Deutsche Bank SB-Stelle","Halberstädter Str. 55","39112","Magdeburg-Sudenburg"
"Deutsche Bank SB-Stelle","Otto-von-Guericke-Str. 12","39104","Magdeburg-Altstadt"
"Finanzagentur für die Deutsche Bank - Selbstständige Finanzberater","Burgfreiheit 5","31061","Alfeld"
"Deutsche Bank SB-Stelle","Bahnhofstr. 1","33102","Paderborn"
"Deutsche Bank SB-Stelle","Lübecker Str. 120","39124","Magdeburg-Neue Neustadt"
"Deutsche Bank Filiale","Holzmarkt 3-5","38300","Wolfenbüttel"
"Deutsche Bank SB-Stelle","Chemnitzer Str. 24-26","38226","Salzgitter-Lebenstedt"
"Deutsche Bank SB-Stelle","Mittelstr. 101","32805","Horn-Bad Meinberg-Horn"
"Finanzagentur für die Deutsche Bank - Selbstständige Finanzberater","Papenberg 29","38350","Helmstedt"
"Deutsche Bank SB-Stelle","August-Bebel-Str. 1","39326","Wolmirstedt"
"Deutsche Bank Geldautomat","Neue Torstr. 10","32825","Blomberg"
"Deutsche Bank SB-Stelle","Dr.-Harnier-Str. 2","31812","Bad Pyrmont"
"Deutsche Bank Filiale","Schartauer Str. 58b","39288","Burg"
"Deutsche Bank Filiale","Angoulêmeplatz 1","31134","Hildesheim"
"Deutsche Bank SB-Stelle","Magdeburger Str. 23","39340","Haldensleben"
"Finanzagentur für die Deutsche Bank - Selbstständige Finanzberater","Markt 7","39340","Haldensleben"
"Deutsche Bank geschlossen","Illerstr. 59 a","38120","Braunschweig"
"Deutsche Bank SB-Stelle","Bismarckstr. 3","32756","Detmold"
"Deutsche Bank SB-Stelle","Brabandtstr. 10","38100","Braunschweig"
"Deutsche Bank SB-Stelle","Bohlweg 24","38100","Braunschweig"
"Finanzagentur für die Deutsche Bank - Selbstständige Finanzberater","Wilhelmstr. 88","38100","Braunschweig"
"Finanzagentur für die Deutsche Bank - Selbstständige Finanzberater","Hildesheimer Str. 82","38159","Vechelde-Vallstedt"
"Deutsche Bank Filiale","Bevenroder Str. 123","38108","Braunschweig"
"Deutsche Bank Filiale","Am Markt 2-3","31785","Hameln-Wangelist"
"Deutsche Bank SB-Stelle","Hauptstr. 74","38110","Braunschweig-Wenden"
"Finanzagentur für die Deutsche Bank - Selbstständige Finanzberater","Ostertor 1","32657","Lemgo"
"Deutsche Bank SB-Stelle","Rathausstr. 4","33813","Oerlinghausen"
"Deutsche Bank Filiale","Breite Str. 46","31224","Peine"
"Deutsche Bank","Berliner Str. 12b","33378","Rheda-Wiedenbrück"
"Deutsche Bank SB-Stelle","Brandenburger Str. 61","39307","Genthin"
"Deutsche Bank SB-Stelle","Stohlmannplatz 2","33330","Gütersloh"
"Deutsche Bank SB-Stelle","Porschestr. 36","38440","Wolfsburg"
"Finanzagentur für die Deutsche Bank - Selbstständige Finanzberater","Bahnhofstr. 15-16","38442","Wolfsburg-Fallersleben"
"Deutsche Bank Filiale","Hauptstr. 138","33647","Bielefeld-Brackwede"
"Deutsche Bank SB-Stelle","Salzufler Str. 12","33719","Bielefeld-Heepen"
"Deutsche Bank Filiale","Am Herforder Tor 3","32105","Bad Salzuflen"
"Deutsche Bank SB-Stelle","Niederwall 2","33602","Bielefeld"
"Deutsche Bank SB-Stelle","Herforder Str. 23","33602","Bielefeld"
"Deutsche Bank Filiale","Großer Hillen 12-14","30559","Hannover-Kirchrode"
"Deutsche Bank Filiale","Marktstr. 15","30890","Barsinghausen-Kirchdorf"
"Deutsche Bank Geldautomat","Alter Markt 6","33428","Harsewinkel"
"Deutsche Bank","Nicolaistr. 2","39638","Gardelegen"
"Deutsche Bank SB-Stelle","Georgsplatz 20","30159","Hannover-Mitte"
"Deutsche Bank Filiale","Waldstr. 1","30629","Hannover-Misburg-Nord"
"Deutsche Bank Filiale","Berliner Str. 3","32052","Herford"
"Deutsche Bank Filiale","Steinweg 9","38518","Gifhorn"
"Deutsche Bank Filiale","Kopernikusstr. 1","30167","Hannover-Nordstadt"
"Deutsche Bank Filiale","Podbielskistr. 348-350","30659","Hannover"
"Deutsche Bank SB-Stelle","Marktstr. 9","31303","Burgdorf"
"Deutsche Bank SB-Stelle","Bahnhofstr. 1","33790","Halle (Westfalen)"
"Finanzagentur für die Deutsche Bank - Selbstständige Finanzberater","Lange Str. 43","33790","Halle (Westfalen)"
"Deutsche Bank Filiale","Portastr. 1","32545","Bad Oeynhausen"
"Deutsche Bank Filiale","Walsroder Str. 20","30851","Langenhagen"
"Deutsche Bank SB-Stelle","Alte Bünder Str. 2","32584","Löhne"
"Deutsche Bank Filiale","Breite Str. 26","39576","Stendal"
"Deutsche Bank Filiale","Domstr. 2","32423","Minden-Innenstadt"
"Deutsche Bank SB-Stelle","Breslauer Str. 16","32339","Espelkamp"
"Finanzagentur für die Deutsche Bank - Selbstständige Finanzberater","Lange Str. 12-16","31582","Nienburg"
"Deutsche Bank","Bahnhofstr. 16-18","42499","Hückeswagen"
"Finanzagentur für die Deutsche Bank - Selbstständige Finanzberater","Kaiserstr. 61","42477","Radevormwald"
"Deutsche Bank SB-Stelle","Kaiserstr. 58","42477","Radevormwald"
"Deutsche Bank Filiale","Telegrafenstr. 24","42929","Wermelskirchen"
"Deutsche Bank SB-Stelle","Blumenstr. 33","42853","Remscheid"
"Deutsche Bank SB-Stelle","Theodor-Heuss-Platz 7","42853","Remscheid"
"Deutsche Bank","Hammesberger Str. 5","42855","Remscheid"
"Deutsche Bank SB-Stelle","Im Brückerfeld 9","42799","Leichlingen (Rheinland)"
"Deutsche Bank Filiale","Lüttringhauser Str. 29","42369","Wuppertal"
"Deutsche Bank geschlossen","Mühlenplatz 1","42651","Solingen"
"Deutsche Bank SB-Stelle","Konrad-Adenauer-Str. 2","42651","Solingen-Solingen-Mitte"
"Deutsche Bank Filiale","Rathausstr. 14","42349","Wuppertal"
"Deutsche Bank Filiale","Hauptstr. 85a","40764","Langenfeld-Immigrath"
"Deutsche Bank SB-Stelle","Friedrich-Engels-Allee 426","42283","Wuppertal"
"Deutsche Bank Filiale","Forststr. 17","42697","Solingen"
"Deutsche Bank SB-Stelle","Calvinstr. 5","42103","Wuppertal"
"Deutsche Bank Filiale","Rathausplatz 2a","40789","Monheim am Rhein-Baumberg"
"Deutsche Bank SB-Stelle","Friedrich-Ebert-Str. 1-11","42103","Wuppertal"
"Deutsche Bank SB-Stelle","Wickeder Hellweg 126","44319","Dortmund-Brackel"
"Deutsche Bank Filiale","Kaiserstr. 35","42781","Haan"
"Deutsche Bank Filiale","Gräfrather Str. 1","42329","Wuppertal"
"Deutsche Bank Filiale","Kölner Str. 28","41539","Dormagen"
"Deutsche Bank Filiale","Mittelstr. 97","40721","Hilden"
"Deutsche Bank SB-Stelle","Märkische Str. 100","44141","Dortmund"
"Deutsche Bank SB-Stelle","Hohe Str. 102","44139","Dortmund"
"Deutsche Bank SB-Stelle","Betenstr. 11-17","44137","Dortmund"
"Deutsche Bank SB-Stelle","Benrather Schloßallee 129","40597","Düsseldorf-Benrath"
"Deutsche Bank","Elberfelder Str. 21","42553","Velbert"
"Finanzagentur für die Deutsche Bank - Selbstständige Finanzberater","Wilhelmstr. 96","42489","Wülfrath"
"Deutsche Bank Filiale","Schwarzbachstr. 8","40822","Mettmann-Metzkausen"
"Deutsche Bank Filiale","Bahnstr. 50","40699","Erkrath"
"Deutsche Bank Filiale","Ritastr. 2","40589","Düsseldorf-Holthausen"
"Deutsche Bank Filiale","Heggerstr. 54","45525","Hattingen"
"Deutsche Bank SB-Stelle","Gumbertstr. 111","40229","Düsseldorf-Eller"
"Deutsche Bank SB-Stelle","Nedderstr. 15","42551","Velbert"
"Deutsche Bank SB-Stelle","Brenscheder Str. 50","44799","Bochum-Wiemelhausen"
"Deutsche Bank Filiale","Münsterstr. 5","44534","Lünen"
"Deutsche Bank SB-Stelle Düsseldorf-Universität","Universitätsstr. 1","40223","Düsseldorf"
"Deutsche Bank Filiale","Benderstr. 8","40625","Düsseldorf-Gerresheim"
"Deutsche Bank","Universitätsstr. 1","40225","Düsseldorf"
"Deutsche Bank","Südstr. 1","41469","Neuss"
"Deutsche Bank SB-Stelle","Kupferdreher Str. 172","45257","Essen-Kupferdreh"
"Deutsche Bank SB-Stelle","Hauptstr. 178","42579","Heiligenhaus"
"Deutsche Bank SB-Stelle","Aachener Str. 2","40223","Düsseldorf-Flehe"
"Deutsche Bank SB-Stelle","Husemannplatz 5a","44787","Bochum-Innenstadt"
"Deutsche Bank","Herzogstr. 15","40217","Düsseldorf"
"Deutsche Bank SB-Stelle","Berliner Allee 61","40212","Düsseldorf-Stadtmitte"
"Deutsche Bank Filiale","Hebbelstr. 2","40237","Düsseldorf"
"Deutsche Bank Filiale","Heisinger Str. 499","45259","Essen-Heisingen"
"Deutsche Bank SB-Stelle","Königsallee 45-47","40212","Düsseldorf-Stadtmitte"
"Deutsche Bank SB-Stelle","Schadowstr. 11","40212","Düsseldorf"
"Deutsche Bank SB-Stelle","Brehmplatz 4","40239","Düsseldorf"
"Deutsche Bank SB-Stelle","Hunsrückenstr. 40","40213","Düsseldorf-Altstadt"
"Deutsche Bank Filiale","Am Markt 6","44575","Castrop-Rauxel-Castrop"
"Deutsche Bank SB-Stelle","Stockkampstr. 55","40477","Düsseldorf-Pempelfort"
"Deutsche Bank SB-Stelle","Bergheimer Str. 499","41466","Neuss-Reuschenberg"
"Deutsche Bank SB-Stelle baw geschlossen","Westenfelder Str. 203","44867","Bochum"
"Deutsche Bank SB-Stelle","Collenbachstr. 2","40476","Düsseldorf-Pempelfort"
"Deutsche Bank Filiale","Westfalenstr. 12","40472","Düsseldorf-Rath"
"Deutsche Bank SB-Stelle","Schulte-Hinsel-Str. 33","45277","Essen"
"Deutsche Bank Filiale","Heckstr. 2","45239","Essen-Werden"
"Deutsche Bank Filiale","Bahnstr. 2-4","41515","Grevenbroich-Stadtmitte"
"Deutsche Bank SB-Stelle","Luegallee 100","40545","Düsseldorf-Oberkassel"
"Deutsche Bank SB-Stelle","Düsseldorfer Str. 23","40878","Ratingen-Zentrum"
"Deutsche Bank Filiale","Renteilichtung 8-10","45134","Essen-Rellinghausen"
"Deutsche Bank SB-Stelle","Bahnhofstr. 101","40883","Ratingen"
"Deutsche Bank Filiale","Hochstr. 6","44866","Bochum"
"Deutsche Bank SB-Stelle","Hauptstr. 43-61","45219","Essen-Kettwig"
"Deutsche Bank SB-Stelle","Niederstr. 57","41460","Neuss-Innenstadt"
"Deutsche Bank SB-Stelle","Kaiser-Otto-Platz 8","45276","Essen-Steele"
"Deutsche Bank SB-Stelle","An der Kreuzkirche 1-3","44623","Herne-Herne-Mitte"
"Deutsche Bank SB-Stelle","Kalkumer Str. 106","40468","Düsseldorf-Unterrath"
"Deutsche Bank Filiale","Bredeneyer Str. 156-158","45133","Essen-Bredeney"
"Deutsche Bank SB-Stelle","Rüttenscheider Stern 7","45130","Essen"
"Deutsche Bank SB-Stelle","Bismarckplatz 1","45128","Essen"
"Deutsche Bank SB-Stelle","Lindenallee 29","45127","Essen-Stadtkern"
"Deutsche Bank SB-Stelle","Theodor-Hellmich-Str. 8","40667","Meerbusch"
"Deutsche Bank Geldautomat","Markt 1","45127","Essen-Stadtkern"
"Deutsche Bank SB-Stelle","Von-Oven-Str. 12-16","45879","Gelsenkirchen-Altstadt"
"Deutsche Bank Filiale","Neumarkt 5c","45711","Datteln"
"Deutsche Bank Filiale","Maubisstr. 44","41564","Kaarst"
"Finanzagentur für die Deutsche Bank - Selbstständige Finanzberater","Münsterstr. 14","48231","Warendorf"
"Deutsche Bank SB-Stelle","Düsseldorfer Str. 93","45481","Mülheim (Ruhr)-Saarn"
"Deutsche Bank Filiale","Altenessener Str. 388","45329","Essen-Altenessen-Nord"
"Deutsche Bank Filiale","Burgfreiheit 78","41199","Mönchengladbach"
"Deutsche Bank Filiale","Angermunder Str. 13","47269","Duisburg"
"Deutsche Bank SB-Stelle","Wallstr. 6","45468","Mülheim (Ruhr)"
"Deutsche Bank Filiale","Königswall 24","45657","Recklinghausen"
"Deutsche Bank SB-Stelle","Marktstr. 37","45355","Essen-Borbeck-Mitte"
"Deutsche Bank SB-Stelle","Holzmarkt 5-9","45657","Recklinghausen"
"Deutsche Bank Filiale","Sebastianusstr. 8-12","41352","Korschenbroich"
"Deutsche Bank SB-Stelle","Kaarster Str. 8a","40670","Meerbusch"
"Deutsche Bank SB-Stelle","Klosterstr. 4","41189","Mönchengladbach-Wickrath"
"Deutsche Bank Filiale","Mündelheimer Str. 11","47259","Duisburg-Huckingen"
"Deutsche Bank SB-Stelle","Essener Str. 1","45899","Gelsenkirchen"
"Deutsche Bank SB-Stelle","Odenkirchener Str. 43","41236","Mönchengladbach-Geistenbeck"
"Deutsche Bank SB-Stelle","Hochstr. 27","47877","Willich"
"Finanzagentur für die Deutsche Bank - Selbstständige Finanzberater","Markt 18","41812","Erkelenz"
"Deutsche Bank Filiale","Springestr. 6","45894","Gelsenkirchen-Buer"
"Deutsche Bank Filiale","Bahnstr. 21","47877","Willich"
"Deutsche Bank SB-Stelle","Bismarckplatz 1-3","41061","Mönchengladbach-Pesch"
"Deutsche Bank","Falkensteinstr. 2","46047","Oberhausen"
"Deutsche Bank SB-Stelle","Paul-Reusch-Str. 43","46045","Oberhausen"
"Deutsche Bank Filiale","Kölner Str. 566","47807","Krefeld"
"Deutsche Bank Filiale","Osterfelder Str. 17","46236","Bottrop-Stadtmitte"
"Deutsche Bank Filiale","Kurfürstenstr. 51","47829","Krefeld-Uerdingen"
"Deutsche Bank SB-Stelle","Königstr. 7-11","47051","Duisburg-Altstadt"
"Deutsche Bank Filiale","Schillerstr. 7","45964","Gladbeck"
"Deutsche Bank Filiale","Krefelder Str. 19","47226","Duisburg-Hochemmerich"
"Deutsche Bank Filiale","Parkhofstr. 111","41836","Hückelhoven"
"Deutsche Bank SB-Stelle","Ostwall 131","47798","Krefeld"
"Deutsche Bank Filiale","Auf dem Damm 51","47137","Duisburg-Mittelmeiderich"
"Deutsche Bank Filiale","Steinbrinkstr. 222a","46145","Oberhausen-Alsfeld"
"Deutsche Bank Filiale","Bahnhofstr. 44","41844","Wegberg"
"Deutsche Bank SB-Stelle","Mühlenstr. 16","49324","Melle"
"Deutsche Bank Filiale","Hamborner Altmarkt 4","47166","Duisburg"
"Finanzagentur für die Deutsche Bank - Selbstständige Finanzberater","Lippstr. 6","45721","Haltern am See"
"Deutsche Bank SB-Stelle","Ziegelhorststr. 56","47169","Duisburg"
"Deutsche Bank SB-Stelle","Schmachtendorfer Str. 158","46147","Oberhausen-Schmachtendorf"
"Deutsche Bank SB-Stelle","Hauptstr. 46","46244","Bottrop"
"Deutsche Bank SB-Stelle","Remigiusplatz 16","41747","Viersen-Rahser"
"Deutsche Bank SB-Stelle","Stubengasse 21","48143","Münster"
"Deutsche Bank Geldautomat","Albert-Schweitzer-Campus 1","48149","Münster"
"Deutsche Bank Filiale","Neuer Wall 12","47441","Moers"
"Deutsche Bank SB-Stelle","Hülser Markt 10","47839","Krefeld"
"Deutsche Bank Filiale","Recklinghäuser Str. 5","46282","Dorsten-Altstadt"
"Deutsche Bank SB-Stelle","Große Str. 19","49186","Bad Iburg-Glane"
"Deutsche Bank Filiale","Overbergplatz 3","48249","Dülmen"
"Deutsche Bank geschlossen","Sterkrader Str. 248","46539","Dinslaken"
"Deutsche Bank SB-Stelle","Friedrich-Ebert-Str. 70-72","46535","Dinslaken"
"Deutsche Bank Filiale","Engerstr. 42","47906","Kempen"
"Deutsche Bank Filiale","Oeseder Str. 102","49124","Georgsmarienhütte"
"Deutsche Bank","Hindenburgstr. 12","49124","Georgsmarienhütte"
"Deutsche Bank Filiale","Hochstr. 11","41334","Nettetal"
"Finanzagentur für die Deutsche Bank - Selbstständige Finanzberater","Moerser Str. 234","47475","Kamp-Lintfort-Niersenbruch"
"Deutsche Bank Filiale","Gelderstr. 36-42","47495","Rheinberg"
"Deutsche Bank Filiale","Bahnhofstr. 17","49525","Lengerich"
"Deutsche Bank","Schützenstr. 81","49084","Osnabrück"
"Deutsche Bank SB-Stelle","Wittekindstr. 9-10","49074","Osnabrück-Innenstadt"
"Deutsche Bank geschlossen","Lotter Str. 30","49078","Osnabrück"
"Deutsche Bank Filiale","Wilhelmstr. 1","46483","Wesel"
"Deutsche Bank Filiale","Hartstr. 38","47608","Geldern"
"Finanzagentur für die Deutsche Bank - Selbstständige Finanzberater","Mühlenstr. 4","46325","Borken"
"Deutsche Bank","Nordwalder Str. 6","48282","Emsdetten"
"Deutsche Bank SB-Stelle","Kroosgang 8","48565","Steinfurt-Borghorst"
"Deutsche Bank","Oststr. 1","49477","Ibbenbüren"
"Deutsche Bank","Münsterstr. 29","49565","Bramsche"
"Deutsche Bank Filiale","Dufkampstr. 1","48703","Stadtlohn"
"Deutsche Bank Filiale","Europaplatz 12","46399","Bocholt-Stenern"
"Deutsche Bank SB-Stelle","Markt 2","48683","Ahaus"
"Deutsche Bank SB-Stelle","Poststr. 21","48431","Rheine"
"Deutsche Bank SB-Stelle","Wassermühlenstr. 4","48691","Vreden"
"Deutsche Bank Filiale","Bahnhofstr. 10","47574","Goch"
"Deutsche Bank Filiale","Schulstr. 8","48599","Gronau"
"Deutsche Bank SB-Stelle","Markt 14","48465","Schüttorf"
"Deutsche Bank Filiale","Alter Markt 12","46446","Emmerich am Rhein-Borghees"
"Deutsche Bank Filiale","Große Str. 47","49377","Vechta"
"Deutsche Bank Filiale","Herzogstr. 30","47533","Kleve"
"Deutsche Bank Filiale","Am Markt 17","49808","Lingen"
"Finanzagentur für die Deutsche Bank - Selbstständige Finanzberater","Mühlenstr. 19","49661","Cloppenburg"
"Finanzagentur für die Deutsche Bank - Selbstständige Finanzberater","Antoniterstr. 17","55232","Alzey-Heimersheim"
"Deutsche Bank SB-Stelle","Am Rodelberg 10","55131","Mainz-Oberstadt"
"Deutsche Bank SB-Stelle","Ludwigsstr. 8-10","55116","Mainz-Altstadt"
"Deutsche Bank SB-Stelle","Boppstr. 66","55118","Mainz-Neustadt"
"Deutsche Bank Filiale","Bahnhofstr. 16","55218","Ingelheim"
"Deutsche Bank Filiale","Mannheimer Str. 180","55543","Bad Kreuznach-Winzenheim"
"Deutsche Bank Filiale","Mainzer Str. 12","55411","Bingen"
"Deutsche Bank Filiale","Hauptstr. 71","55743","Idar-Oberstein"
"Deutsche Bank","Bahnhofstr. 27","56112","Lahnstein"
"Deutsche Bank Filiale","Cusanusstr. 20","54470","Bernkastel-Kues-Kues"
"Finanzagentur für die Deutsche Bank - Selbstständige Finanzberater","Bahnhofstr. 4","57334","Bad Laasphe"
"Deutsche Bank Geldautomat","Rathausstr. 3","57234","Wilnsdorf"
"Deutsche Bank Filiale","Hermannstr. 13","56564","Neuwied"
"Deutsche Bank Filiale","Bahnhofstr. 28","56626","Andernach"
"Deutsche Bank SB-Stelle","Graf-Casimir-Str. 7a","57319","Bad Berleburg"
"Deutsche Bank SB-Stelle","Koblenzer Str. 7","57072","Siegen"
"Deutsche Bank Filiale","Wilhelmstr. 18","57518","Betzdorf"
"Deutsche Bank Geldautomat","Sonnenallee 1","59964","Medebach"
"Deutsche Bank SB-Stelle","Wilhelmstr. 20","57610","Altenkirchen-Honneroth"
"Deutsche Bank SB-Stelle","Hosenstr. 20","54290","Trier"
"Deutsche Bank SB-Stelle","Schillerstr. 5","54329","Konz"
"Finanzagentur für die Deutsche Bank - Selbstständige Finanzberater","Marburger Str. 31","57223","Kreuztal"
"Deutsche Bank Geldautomat","Weststr. 2","57392","Schmallenberg"
"Deutsche Bank SB-Stelle baw geschlossen","Bahnhofstr. 4","53424","Remagen"
"Deutsche Bank Filiale","Martinstr. 2","57462","Olpe"
"Deutsche Bank Filiale","Bahnhofstr. 16a","53604","Bad Honnef"
"Finanzagentur für die Deutsche Bank - Selbstständige Finanzberater","Ennester Str. 11","57439","Attendorn"
"Finanzagentur für die Deutsche Bank - Selbstständige Finanzberater","Frankfurter Str. 101","53773","Hennef"
"Deutsche Bank SB-Stelle","Moltkeplatz 1","53173","Bonn"
"Finanzagentur für die Deutsche Bank - Selbstständige Finanzberater","Winziger Platz 4","59872","Meschede"
"Deutsche Bank SB-Stelle","Neuer Markt 26","53340","Meckenheim"
"Deutsche Bank SB-Stelle","Hindenburgstr. 21-25","51643","Gummersbach"
"Deutsche Bank SB-Stelle","Markt 21","53721","Siegburg"
"Deutsche Bank Filiale","Umlauf 12","58840","Plettenberg"
"Deutsche Bank SB-Stelle","Kaiserplatz 7-9","53113","Bonn"
"Deutsche Bank Filiale","Vor dem Dreeser Tor 11-13","53359","Rheinbach"
"Deutsche Bank Filiale","Am Schickshof 1-3","53123","Bonn"
"Deutsche Bank SB-Stelle","Edmund-Schiefeling-Platz 9","51766","Engelskirchen"
"Deutsche Bank Filiale","Hauptstr. 124","59846","Sundern"
"Deutsche Bank SB-Stelle","Thingslindestr. 27-29","58566","Kierspe"
"Deutsche Bank SB-Stelle","Clemens-August-Str. 15","59821","Arnsberg"
"Finanzagentur für die Deutsche Bank - Selbstständige Finanzberater","Hauptstr. 76","51503","Rösrath"
"Deutsche Bank SB-Stelle","Freiheitstr. 28","58791","Werdohl"
"Deutsche Bank SB-Stelle","Altenaer Str. 14","58507","Lüdenscheid"
"Deutsche Bank SB-Stelle","Wilhelmstr. 10-12","53879","Euskirchen"
"Deutsche Bank Filiale","Friedrich-Ebert-Platz 1","51143","Köln-Porz"
"Deutsche Bank Filiale","Untere Str. 36","51688","Wipperfürth"
"Deutsche Bank Filiale","Kirchstr. 7","58762","Altena"
"Deutsche Bank Filiale","Hauptstr. 87","50996","Köln-Rodenkirchen"
"Deutsche Bank SB-Stelle","Hauptstr. 6","59755","Arnsberg"
"Deutsche Bank SB-Stelle","Kölnstr. 41","50321","Brühl-Vochem"
"Deutsche Bank SB-Stelle","Hauptstr. 177","51465","Bergisch Gladbach-Hebborn"
"Deutsche Bank SB-Stelle Köln-Höhenberg","Olpener Str. 87-89","51109","Köln"
"Deutsche Bank SB-Stelle","Olpener Str. 87-89","51103","Köln"
"Deutsche Bank Filiale","Kalker Hauptstr. 123-125","51103","Köln-Kalk"
"Deutsche Bank SB-Stelle","Nordengraben 2","58636","Iserlohn"
"Deutsche Bank SB-Stelle","Theophanostr. 19","50969","Köln-Zollstock"
"Deutsche Bank SB-Stelle","Eulenbergstr. 1-3","51065","Köln"
"Deutsche Bank SB-Stelle","Luxemburger Str. 334","50354","Hürth"
"Deutsche Bank Filiale","Markt 14","59494","Soest"
"Deutsche Bank Filiale","Woldemei 17","59555","Lippstadt"
"Deutsche Bank Geldautomat","Barbarossaplatz 7","50674","Köln"
"Deutsche Bank SB-Stelle","Bahnhofsvorplatz 1","50667","Köln-Altstadt-Nord"
"Deutsche Bank SB-Stelle","Richmondstr. 4-8","50667","Köln-Altstadt-Nord"
"Deutsche Bank Filiale","Unnaer Str. 6","58706","Menden"
"Deutsche Bank SB-Stelle","An den Dominikanern 11-27","50668","Köln-Altstadt-Nord"
"Deutsche Bank SB-Stelle","Hohenzollernring 14","50672","Köln"
"Deutsche Bank SB-Stelle","Dürener Str. 230","50931","Köln-Lindenthal"
"Deutsche Bank SB-Stelle","Hagener Str. 59","58642","Iserlohn-Letmathe"
"Deutsche Bank SB-Stelle","Neusser Str. 255","50733","Köln-Nippes"
"Finanzagentur für die Deutsche Bank - Selbstständige Finanzberater","Bürgermeister-Schmidt-Str. 1","51399","Burscheid"
"Deutsche Bank Filiale","Stennertstr. 9","58119","Hagen-Hohenlimburg"
"Deutsche Bank Filiale","Aachener Str. 392-394","50933","Köln-Braunsfeld"
"Deutsche Bank Filiale","Landmannstr. 16-18","50825","Köln-Neuehrenfeld"
"Deutsche Bank Filiale","Kaiser-Wilhelm-Allee 50","51373","Leverkusen-Wiesdorf"
"Deutsche Bank SB-Stelle","Friedrich-Ebert-Platz 4","51373","Leverkusen-Wiesdorf"
"Deutsche Bank SB-Stelle","Hauptstr. 103","50226","Frechen-Bachem"
"Deutsche Bank Filiale","Aachener Str. 1212-1212a","50859","Köln-Weiden"
"Deutsche Bank Filiale","Birkenbergstr. 6-10","51379","Leverkusen-Opladen"
"Deutsche Bank","An der Kirche 11","58256","Ennepetal"
"Deutsche Bank SB-Stelle","Bahnhofstr. 1-3","58095","Hagen-Mittelstadt"
"Deutsche Bank SB-Stelle","Voerder Str. 11-15","58135","Hagen-Haspe"
"Deutsche Bank SB-Stelle","Stiftsplatz 3","50171","Kerpen"
"Deutsche Bank Filiale","Hauptstr. 43-45","58332","Schwelm"
"Deutsche Bank Filiale","Mittelstr. 26","58285","Gevelsberg"
"Deutsche Bank Filiale","Rathausstr. 16","58239","Schwerte-Wandhofen"
"Deutsche Bank SB-Stelle","Schwerter Str. 156","58099","Hagen-Boele"
"Finanzagentur für die Deutsche Bank - Selbstständige Finanzberater","Hauptstr. 36-38","52372","Kreuzau"
"Finanzagentur für die Deutsche Bank - Selbstständige Finanzberater","Alte Kölner Str. 2","50259","Pulheim"
"Finanzagentur für die Deutsche Bank - Selbstständige Finanzberater","Mühlenstr. 7-15","58313","Herdecke"
"Deutsche Bank Filiale","Bahnhofstr. 43","59423","Unna"
"Deutsche Bank SB-Stelle","Schenkelstr. 9","52349","Düren"
"Finanzagentur für die Deutsche Bank - Selbstständige Finanzberater","Bethlehemer Str. 4","50126","Bergheim-Kenten"
"Finanzagentur für die Deutsche Bank - Selbstständige Finanzberater","Nordstr. 48","59269","Beckum"
"Deutsche Bank","Feidikstr. 1","59065","Hamm"
"Deutsche Bank Filiale","Wideystr. 9","58452","Witten"
"Deutsche Bank SB-Stelle","Bahnhofstr. 5-7","59065","Hamm-Lohauserholz"
"Deutsche Bank","Ahlener Str. 103d","59073","Hamm"
"Deutsche Bank SB-Stelle","Hohenhöveler Str. 12","59075","Hamm"
"Deutsche Bank Filiale","Oststr. 12","59227","Ahlen"
"Deutsche Bank Filiale","Steinstr. 35","59368","Werne"
"Deutsche Bank Filiale","Englerthstr. 12","52249","Eschweiler"
"Deutsche Bank Filiale","Trierer Str. 746","52078","Aachen-Brand"
"Deutsche Bank Filiale","Kölnstr. 3","52428","Jülich"
"Deutsche Bank SB-Stelle","Breslauer Str. 35","52068","Aachen"
"Deutsche Bank SB-Stelle","Friedrich-Wilhelm-Platz 15","52062","Aachen"
"Finanzagentur für die Deutsche Bank - Selbstständige Finanzberater","Kaiserstr. 99","52146","Würselen"
"Deutsche Bank Filiale","Albrecht-Dürer-Str. 6","52477","Alsdorf-Kellersberg"
"Deutsche Bank SB-Stelle","Kirchrather Str. 150","52134","Herzogenrath"
"Finanzagentur für die Deutsche Bank - Selbstständige Finanzberater","Apfelstr. 37","52525","Heinsberg"
"Deutsche Bank Filiale","Zähringer Str. 1/1","69168","Wiesloch"
"Deutsche Bank SB-Stelle","Adenauerplatz 1","69115","Heidelberg"
"Deutsche Bank SB-Stelle","Schröderstr. 41","69120","Heidelberg-Neuenheim"
"Finanzagentur für die Deutsche Bank - Selbstständige Finanzberater","Untere Hauptstr. 8","68766","Hockenheim"
"Deutsche Bank Filiale","Carl-Theodor-Str. 20","68723","Schwetzingen"
"Deutsche Bank Filiale","Bahnhofstr. 8","69469","Weinheim"
"Deutsche Bank Filiale","Postplatz 4","67346","Speyer"
"Deutsche Bank Filiale","Schulstr. 8","68519","Viernheim"
"Deutsche Bank Filiale","Friedrichstr. 3-5","68199","Mannheim-Neckarau"
"Deutsche Bank Filiale","Luitpoldstr. 4","63739","Aschaffenburg"
"Deutsche Bank Filiale","Rollbühlstr. 80","68309","Mannheim"
"Deutsche Bank","Friedrichstr. 29","64646","Heppenheim"
"Deutsche Bank SB-Stelle","P 7 10-15","68161","Mannheim"
"Deutsche Bank Filiale","Speyerer Str. 36","67117","Limburgerhof"
"Deutsche Bank SB-Stelle","Ludwigsplatz 1","67059","Ludwigshafen"
"Deutsche Bank Filiale","Promenadenstr. 6","64625","Bensheim"
"Deutsche Bank Filiale","Bahnhofstr. 8","67227","Frankenthal"
"Deutsche Bank Filiale","Friedrichstr. 30","67433","Neustadt an der Weinstraße"
"Deutsche Bank geschlossen","Im Carree","64283","Darmstadt"
"Deutsche Bank SB-Stelle","Luisenplatz 7","64283","Darmstadt"
"Deutsche Bank Filiale","Wilhelm-Leuschner-Str. 17","67547","Worms"
"Deutsche Bank Filiale","Kurgartenstr. 20","67098","Bad Dürkheim"
"Deutsche Bank Filiale","Offenbacher Str. 35a","63128","Dietzenbach"
"Deutsche Bank SB-Stelle","Seligenstädter Str. 43","63179","Obertshausen-Hausen"
"Deutsche Bank Filiale","Frankfurter Str. 114","63150","Heusenstamm"
"Deutsche Bank Filiale","Langstr. 60","63450","Hanau"
"Deutsche Bank Filiale","Bahnstr. 21","63225","Langen"
"Deutsche Bank Filiale","Frankfurter Str. 161","63263","Neu-Isenburg"
"Deutsche Bank SB-Stelle","Kaiserstr. 66-68","63065","Offenbach"
"Deutsche Bank Filiale","Borsigallee 26","60388","Frankfurt am Main"
"Deutsche Bank SB-Stelle","Schweizer Str. 28a/30","60594","Frankfurt am Main-Sachsenhausen"
"Deutsche Bank SB-Stelle","Zeil 57","60313","Frankfurt am Main"
"Deutsche Bank Geldautomat","Wilhelm-Leuschner-Str. 24","60329","Frankfurt am Main-Bahnhofsviertel"
"Deutsche Bank Filiale","Roßmarkt 18","60311","Frankfurt am Main"
"Deutsche Bank Filiale","Am Hauptbahnhof 12","60329","Frankfurt am Main-Bahnhofsviertel"
"Deutsche Bank Geldautomat","Frankfurt Airport-Center (FAC)","60549","Frankfurt am Main"
"Deutsche Bank Filiale","Hugo-Eckener-Ring","60549","Frankfurt am Main"
"Deutsche Bank Filiale","Taunusanlage 12","60325","Frankfurt am Main"
"Deutsche Bank Filiale","Friedrichstr. 2-6","60323","Frankfurt am Main"
"Deutsche Bank SB-Stelle","Theodor-Heuss-Allee 72","60486","Frankfurt am Main"
"Deutsche Bank SB-Stelle","Leipziger Str. 17","60487","Frankfurt am Main-Bockenheim"
"Deutsche Bank Filiale","Eschersheimer Landstr. 299-301","60320","Frankfurt am Main-Dornbusch"
"Deutsche Bank Filiale","Mainzer Str. 2","65428","Rüsselsheim"
"Deutsche Bank Filiale","Königsteiner Str. 16","65929","Frankfurt am Main"
"Deutsche Bank SB-Stelle","Stiftsplatz 13","67655","Kaiserslautern"
"Deutsche Bank Filiale","Hauptstr. 58-60","65719","Hofheim"
"Deutsche Bank Filiale","Schloßstr. 42","66953","Pirmasens-Niedersimten"
"Deutsche Bank Filiale","Kumeliusstr. 6-8","61440","Oberursel"
"Deutsche Bank SB-Stelle","Louisenstr. 52","61348","Bad Homburg"
"Finanzagentur für die Deutsche Bank - Selbstständige Finanzberater","Frankfurter Str. 54a","65779","Kelkheim"
"Deutsche Bank SB-Stelle","Löhrstr. 66d","56068","Koblenz-Altstadt"
"Deutsche Bank Filiale","Frankfurter Str. 13a","61476","Kronberg"
"Deutsche Bank Filiale","Kaiserstr. 107","61169","Friedberg"
"Deutsche Bank Filiale","Hauptstr. 5","61462","Königstein-Falkenstein"
"Deutsche Bank SB-Stelle","Wilhelmstr. 20-22","65185","Wiesbaden"
"Deutsche Bank Filiale","Karl-Lehr-Str. 28-30","65201","Wiesbaden-Schierstein"
"Deutsche Bank SB-Stelle","Kirchgasse 6","65185","Wiesbaden"
"Deutsche Bank Filiale","Dotzheimer Str. 50","65185","Wiesbaden"
"Deutsche Bank geschlossen","Rheingauer Str. 23","65343","Eltville"
"Finanzagentur für die Deutsche Bank - Selbstständige Finanzberater","Poststr. 23","66482","Zweibrücken"
"Finanzagentur für die Deutsche Bank - Selbstständige Finanzberater","Aarstr. 148","65232","Taunusstein-Hahn"
"Deutsche Bank Filiale","Talstr. 39","66424","Homburg"
"Deutsche Bank Filiale","Stummstr. 10-12","66538","Neunkirchen (Saar)"
"Deutsche Bank Filiale","Kaiserstr. 49","66386","St. Ingbert"
"Deutsche Bank Filiale","Hospitalstr. 5","65549","Limburg"
"Deutsche Bank SB-Stelle","Bahnhofstr. 31a","66111","Saarbrücken"
"Deutsche Bank SB-Stelle","Kaiserstr. 29-31","66111","Saarbrücken"
"Deutsche Bank","Lebacher Str. 53","66113","Saarbrücken"
"Deutsche Bank Filiale","Großer Markt 3","66740","Saarlouis"
"Deutsche Bank Filiale","Poststr. 5","66663","Merzig"
"Deutsche Bank SB-Stelle","Schubartstr. 13","73430","Aalen"
"Deutsche Bank Filiale","Ledergasse 8","73525","Schwäbisch Gmünd"
"Deutsche Bank SB-Stelle","Hauptstr. 60","73054","Eislingen"
"Deutsche Bank SB-Stelle","Mörikestr. 9","73033","Göppingen"
"Deutsche Bank SB-Stelle","Lange Str. 30","74564","Crailsheim"
"Finanzagentur für die Deutsche Bank - Selbstständige Finanzberater","Turmstr. 3","73230","Kirchheim unter Teck"
"Finanzagentur für die Deutsche Bank - Selbstständige Finanzberater","Johann-Philipp-Palm-Str. 33","73614","Schorndorf"
"Deutsche Bank SB-Stelle","Widdumstr. 4","73207","Plochingen"
"Finanzagentur für die Deutsche Bank - Selbstständige Finanzberater","Im Haal 13","74523","Schwäbisch Hall"
"Finanzagentur für die Deutsche Bank - Selbstständige Finanzberater","Strohstr. 8","72622","Nürtingen-Oberensingen"
"Deutsche Bank","Badstr. 1","72793","Pfullingen"
"Deutsche Bank SB-Stelle","Kaiserpassage 1","72764","Reutlingen"
"Deutsche Bank SB-Stelle","Am Hafenmarkt","73728","Esslingen"
"Deutsche Bank SB-Stelle","Fronackerstr. 14","71332","Waiblingen"
"Deutsche Bank","Bahnhofstr. 19-21","70734","Fellbach"
"Deutsche Bank SB-Stelle","Bahnhofstr. 1","78462","Konstanz"
"Deutsche Bank SB-Stelle","König-Karl-Str. 51","70372","Stuttgart-Bad Cannstatt"
"Deutsche Bank Filiale","Marktstr. 30","72458","Albstadt-Ebingen"
"Deutsche Bank Filiale","Große Falterstr. 1","70597","Stuttgart-Degerloch"
"Finanzagentur für die Deutsche Bank - Selbstständige Finanzberater","Musberger Str. 3","70771","Leinfelden-Echterdingen"
"Deutsche Bank SB-Stelle","Königstr. 1a","70173","Stuttgart"
"Deutsche Bank SB-Stelle","Königstr. 82","70173","Stuttgart"
"Deutsche Bank SB-Stelle","Theodor-Heuss-Str. 3","70174","Stuttgart"
"Deutsche Bank SB-Stelle","Am Lustnauer Tor 1","72074","Tübingen"
"Deutsche Bank Filiale","Oskar-Schlemmer-Str. 5","70191","Stuttgart"
"Deutsche Bank geschlossen","Güntterstr. 21","71672","Marbach"
"Deutsche Bank Filiale","Stuttgarter Str. 81","70469","Stuttgart-Feuerbach"
"Deutsche Bank SB-Stelle","Hauptstr. 11","70563","Stuttgart-Vaihingen"
"Deutsche Bank SB-Stelle baw geschlossen","Bahnhofstr. 27","70806","Kornwestheim"
"Deutsche Bank SB-Stelle","Myliusstr. 16","71638","Ludwigsburg"
"Deutsche Bank SB-Stelle","Stadtgrabenstr. 19","71032","Böblingen"
"Deutsche Bank","Marktplatz 24","72108","Rottenburg am Neckar"
"Finanzagentur für die Deutsche Bank - Selbstständige Finanzberater","Hauptstr. 3","70839","Gerlingen"
"Deutsche Bank Filiale","Ziegelstr. 20","71063","Sindelfingen"
"Deutsche Bank Filiale","Stuttgarter Str. 56","74321","Bietigheim-Bissingen-Bietigheim"
"Deutsche Bank Filiale","Marktplatz 1","71229","Leonberg"
"Finanzagentur für die Deutsche Bank - Selbstständige Finanzberater","Wilhelmstr. 12","72336","Balingen-Heselwangen"
"Deutsche Bank SB-Stelle","Moltkestr. 6-8","74072","Heilbronn"
"Deutsche Bank Filiale","Bahnhofstr. 44","78532","Tuttlingen"
"Deutsche Bank Filiale","August-Ruf-Str. 8","78224","Singen"
"Finanzagentur für die Deutsche Bank - Selbstständige Finanzberater","Hauptstr. 87","78549","Spaichingen"
"Finanzagentur für die Deutsche Bank - Selbstständige Finanzberater","Marktstr. 5","72202","Nagold"
"Finanzagentur für die Deutsche Bank - Selbstständige Finanzberater","Oberamteigasse 11","78628","Rottweil"
"Deutsche Bank SB-Stelle","Oberndorfer Str. 4","78628","Rottweil"
"Finanzagentur für die Deutsche Bank - Selbstständige Finanzberater","Harzerstr. 1","78054","Villingen-Schwenningen-Schwenningen"
"Deutsche Bank SB-Stelle","Westliche Karl-Friedrich-Str. 76","75172","Pforzheim-Innenstadt"
"Finanzagentur für die Deutsche Bank - Selbstständige Finanzberater","Dürrheimer Str. 17","78166","Donaueschingen"
"Deutsche Bank SB-Stelle","Kaiserring 10","78050","Villingen-Schwenningen-Villingen"
"Deutsche Bank SB-Stelle","Sommerauer Str. 2","78112","St. Georgen"
"Deutsche Bank Filiale","Kaiserstr. 22","76646","Bruchsal"
"Deutsche Bank SB-Stelle","Badener Str. 8","76227","Karlsruhe-Durlach"
"Deutsche Bank Filiale","Pforzheimer Str. 15","76275","Ettlingen"
"Deutsche Bank Filiale","Hauptstr. 55","76571","Gaggenau-Bad Rotenfels"
"Finanzagentur für die Deutsche Bank - Selbstständige Finanzberater","Hauptstr. 69","79761","Waldshut-Tiengen-Tiengen"
"Deutsche Bank SB-Stelle","Kaiserstr. 90","76133","Karlsruhe-Innenstadt-Ost"
"Deutsche Bank Filiale","Lichtentaler Str. 27","76530","Baden-Baden"
"Deutsche Bank Filiale","Sophienstr. 2","76530","Baden-Baden"
"Deutsche Bank Filiale","Im Wallgraben 46","79761","Waldshut-Tiengen-Waldshut"
"Deutsche Bank Filiale","Hauptstr. 42","77815","Bühl"
"Deutsche Bank SB-Stelle","Damenstr. 6","79183","Waldkirch"
"Finanzagentur für die Deutsche Bank - Selbstständige Finanzberater","Lange Str. 62","79183","Waldkirch"
"Deutsche Bank Filiale","Hauptstr. 42","77652","Offenburg"
"Deutsche Bank Filiale","Schillerstr. 2","77933","Lahr"
"Deutsche Bank Filiale","Theodor-Ludwig-Str. 24","79312","Emmendingen"
"Deutsche Bank Geldautomat","Schiffstr. 7","79098","Freiburg"
"Deutsche Bank SB-Stelle","Rotteckring 3","79098","Freiburg-Altstadt"
"Deutsche Bank Filiale","Alte Basler Str. 4","79713","Bad Säckingen"
"Deutsche Bank Filiale","Xylanderstr. 1","76829","Landau"
"Deutsche Bank SB-Stelle","Bahnhofplatz 2","79664","Wehr"
"Deutsche Bank Filiale","Hauptstr. 1","77694","Kehl"
"Deutsche Bank SB-Stelle","Hauptstr. 24","79650","Schopfheim"
"Finanzagentur für die Deutsche Bank - Selbstständige Finanzberater","Schlatter Str. 11","79189","Bad Krozingen"
"Deutsche Bank Filiale","Zähringerstr. 12","79618","Rheinfelden"
"Deutsche Bank SB-Stelle","Werderstr. 14","79379","Müllheim"
"Deutsche Bank SB-Stelle","Senser Platz 2","79539","Lörrach"
"Deutsche Bank SB-Stelle","Hauptstr. 196","79576","Weil am Rhein"
"Deutsche Bank Filiale","Maximilianstr. 26","80539","München"
"Deutsche Bank SB-Stelle","Promenadeplatz 15","80333","München"
"Deutsche Bank SB-Stelle","Marienplatz 21","80331","München"
"Deutsche Bank SB-Stelle","Leopoldstr. 53","80802","München"
"Deutsche Bank SB-Stelle","Schwanthalerstr. 32","80336","München"
"Deutsche Bank SB-Stelle","Weißenburger Platz 8","81667","München"
"Deutsche Bank SB-Stelle","Arabellastr. 11","81925","München"
"Deutsche Bank Filiale","Nymphenburger Str. 160","80634","München"
"Deutsche Bank Filiale","Albert-Roßhaupter-Str. 2","81369","München"
"Deutsche Bank SB-Stelle","Bertholdstr. 22","80809","München"
"Deutsche Bank Filiale","Kreillerstr. 64","81673","München"
"Deutsche Bank Filiale","Agnes-Bernauer-Str. 69b","80687","München"
"Deutsche Bank Filiale","Sauerbruchstr. 10","81377","München"
"Deutsche Bank SB-Stelle","Bäckerstr. 10","81241","München"
"Deutsche Bank Filiale","Herterichstr. 97","81477","München"
"Deutsche Bank Filiale","Naupliaallee 2","85521","Ottobrunn"
"Deutsche Bank Filiale","Emil-Geis-Str. 2","82031","Grünwald"
"Deutsche Bank Filiale","Beethovenstr. 1","82110","Germering-Unterpfaffenhofen"
"Finanzagentur für die Deutsche Bank - Selbstständige Finanzberater","Augsburger Str. 14","85221","Dachau"
"Deutsche Bank Filiale","Wittelsbacherstr. 20","82319","Starnberg"
"Deutsche Bank geschlossen","Ludwigstr. 5","82256","Fürstenfeldbruck"
"Deutsche Bank Geldautomat","Nordallee 25","85356","München"
"Deutsche Bank SB-Stelle München-Flughafen","Airport / Flughafen","85356","München"
"Finanzagentur für die Deutsche Bank - Selbstständige Finanzberater","Münchner Str. 35","83607","Holzkirchen"
"Deutsche Bank Filiale","Untere Hauptstr. 36","85354","Freising"
"Deutsche Bank Filiale","Marktstr. 22","83646","Bad Tölz"
"Finanzagentur für die Deutsche Bank - Selbstständige Finanzberater","Münchener Str. 7","82362","Weilheim"
"Deutsche Bank Filiale","Max-Josefs-Platz 26","83022","Rosenheim-Innenstadt"
"Deutsche Bank SB-Stelle","Schwaighofstr. 87","83684","Tegernsee"
"Deutsche Bank Filiale","Bürgermeister-Wohlfarth-Str. 72","86343","Königsbrunn"
"Deutsche Bank","Königsbrunner Str. 75","86179","Augsburg"
"Deutsche Bank Filiale","Hubert-von-Herkomer-Str. 114","86899","Landsberg"
"Deutsche Bank Filiale","Blücherstr. 1","86165","Augsburg"
"Deutsche Bank SB-Stelle","Fuggerstr. 1","86150","Augsburg-Innenstadt"
"Deutsche Bank Filiale","Altstadt 314","84028","Landshut"
"Deutsche Bank SB-Stelle","Ludwigstr. 24","85049","Ingolstadt"
"Deutsche Bank SB-Stelle","Friedrich-Ebert-Str. 71","85055","Ingolstadt"
"Deutsche Bank","Stadtplatz 78-80","84453","Mühldorf"
"Deutsche Bank SB-Stelle","Gaimersheimer Str. 52","85057","Ingolstadt"
"Finanzagentur für die Deutsche Bank - Selbstständige Finanzberater","Kathreinerstr. 4","86825","Bad Wörishofen-Gartenstadt"
"Deutsche Bank Filiale","Kaiser-Max-Str. 9-11","87600","Kaufbeuren"
"Deutsche Bank Filiale","Bahnhofstr. 41","82467","Garmisch-Partenkirchen"
"Finanzagentur für die Deutsche Bank - Selbstständige Finanzberater","Kapuzinerstr. 36","89407","Dillingen-Donaualtheim"
"Deutsche Bank Filiale","Fischerstr. 21","87435","Kempten"
"Deutsche Bank Filiale","Marktplatz 7","87700","Memmingen-Amendingen"
"Deutsche Bank","Marktstr. 3","89537","Giengen"
"Deutsche Bank SB-Stelle","Völkstr. 7","87527","Sonthofen"
"Deutsche Bank SB-Stelle","Münsterplatz 33","89073","Ulm"
"Deutsche Bank Filiale","Schnaitheimer Str. 13","89520","Heidenheim-Mergelstetten"
"Finanzagentur für die Deutsche Bank - Selbstständige Finanzberater","Holzmarkt 6","88400","Biberach"
"Deutsche Bank","Marktplatz 5","88239","Wangen"
"Deutsche Bank SB-Stelle","Abt-Hyller-Str. 1","88250","Weingarten"
"Deutsche Bank SB-Stelle","Marienplatz 37","88212","Ravensburg"
"Finanzagentur für die Deutsche Bank - Selbstständige Finanzberater","Reichsplatz 5","88131","Lindau-Insel"
"Deutsche Bank Filiale","Karlstr. 13","88045","Friedrichshafen"
"Deutsche Bank Filiale","Owinger Str. 2","88662","Überlingen"
"Deutsche Bank SB-Stelle","Maximilianstr. 9","93047","Regensburg-Stadtamhof"
"Finanzagentur für die Deutsche Bank - Selbstständige Finanzberater","Landshuterstr. 23","94315","Straubing"
"Deutsche Bank SB-Stelle","Hebbelstr. 14","94315","Straubing"
"Deutsche Bank","Bahnhofstr. 5","92318","Neumarkt i. d. OPf."
"Deutsche Bank Filiale","Michael-Fischer-Platz 6","94469","Deggendorf"
"Finanzagentur für die Deutsche Bank - Selbstständige Finanzberater","Bahnhofstr. 33","91126","Schwabach-Vogelherd"
"Deutsche Bank Filiale","Oppelner Str. 196","90473","Nürnberg"
"Deutsche Bank Filiale","Bahnhofstr. 4","92224","Amberg"
"Deutsche Bank Filiale","Ludwigsplatz 5","94032","Passau-Altstadt"
"Deutsche Bank Filiale","Dombühler Str. 2","90449","Nürnberg"
"Deutsche Bank Filiale","Landgrabenstr. 144","90459","Nürnberg-Tafelhof"
"Deutsche Bank Filiale","Ostendstr. 230","90482","Nürnberg"
"Deutsche Bank SB-Stelle","Karolinenstr. 30","90402","Nürnberg-Lorenz"
"Deutsche Bank Geldautomat","Hauptmarkt 7","90403","Nürnberg-Sebald"
"Deutsche Bank Filiale","Bayreuther Str. 18","90489","Nürnberg-Maxfeld"
"Finanzagentur für die Deutsche Bank - Selbstständige Finanzberater","Briver Allee 11","91207","Lauf an der Pegnitz"
"Deutsche Bank Filiale","Schwabacher Str. 32","90762","Fürth-Innenstadt"
"Deutsche Bank SB-Stelle","Nürnberger Str. 37","91052","Erlangen"
"Deutsche Bank Filiale","Bahnhofstr. 1a","95444","Bayreuth"
"Deutsche Bank Filiale","Lange Str. 37","96047","Bamberg"
"Finanzagentur für die Deutsche Bank - Selbstständige Finanzberater","Spitalgasse 9","95326","Kulmbach"
"Deutsche Bank SB-Stelle","Juliuspromenade 66","97070","Würzburg"
"Finanzagentur für die Deutsche Bank - Selbstständige Finanzberater","Albrecht-Dürer-Platz 1-5","97421","Schweinfurt"
"Deutsche Bank Filiale","Spitalgasse 19","96450","Coburg"
"Deutsche Bank SB-Stelle","Friedrich-König-Str. 21","98527","Suhl"
"Deutsche Bank SB-Stelle","Untere Kaplanei Str. 1","98617","Meiningen"
"Deutsche Bank Filiale","Marktstr. 1-3","98693","Ilmenau"
"Deutsche Bank","An der neuen Kirche 8","99310","Arnstadt"
"Deutsche Bank SB-Stelle","Quergasse 5","99880","Waltershausen"
"Deutsche Bank Filiale","Frauentorstr. 3","99423","Weimar-Altstadt"
"Deutsche Bank SB-Stelle","Juri-Gagarin-Ring 101","99084","Erfurt-Altstadt"
"Deutsche Bank Filiale","Ekhofplatz 2a","99867","Gotha"
"Deutsche Bank","Magdeburger Allee 126","99086","Erfurt"
"Finanzagentur für die Deutsche Bank - Selbstständige Finanzberater","Bahnhofstr. 24","99510","Apolda"
"Deutsche Bank Filiale","Karlsplatz 23","99817","Eisenach"
"Deutsche Bank Filiale","Mühlhäuser Str. 34","99947","Bad Langensalza"
"Finanzagentur für die Deutsche Bank - Selbstständige Finanzberater","Stadtring 6","99610","Sömmerda"
"Deutsche Bank Filiale","Untermarkt 27","99974","Mühlhausen-Felchta"
"Finanzagentur für die Deutsche Bank - Selbstständige Finanzberater","Carl Schroeder Str. 8","99706","Sondershausen"
"Deutsche Bank Filiale","Käthe-Kollwitz-Str. 1","99734","Nordhausen"
"Commerzbank Bad Lobenstein","Leonberger Platz 5","07356","Bad Lobenstein"
"Commerzbank","Dr. Friedrichs-Str. 5a","08606","Oelsnitz"
"Commerzbank Plauen","Unterer Steinweg 2","08523","Plauen"
"Commerzbank Auerbach","Nicolaistr. 27","08209","Auerbach"
"Commerzbank Schleiz","Neumarkt 18","07907","Schleiz"
"Commerzbank Saalfeld","Markt 25","07318","Saalfeld"
"Commerzbank Zeulenroda","Markt 7","07937","Zeulenroda"
"Commerzbank Reichenbach","Roßplatz 16","08468","Reichenbach"
"Commerzbank","Bahnhof Str. 15a","08340","Schwarzenberg"
"Commerzbank Greiz","Thomasstr. 22","07973","Greiz"
"Commerzbank Aue","Bahnhofstr. 5 - 7","08280","Aue"
"Commerzbank Kirchberg","Auerbacher Str. 28","08107","Kirchberg"
"Commerzbank Rudolstadt","Markt 4","07407","Rudolstadt"
"Commerzbank Annaberg-Buchholz","Markt 10","09456","Annaberg-Buchholz"
"Commerzbank Zwickau","Zimmermannstr. 3","08060","Zwickau"
"Commerzbank Zwickau","Dr.-Friedrichs-Ring 1","08056","Zwickau"
"Commerzbank Werdau","Leipziger Str. 19","08412","Werdau"
"Commerzbank Stollberg","Hohensteiner Str. 1","09366","Stollberg"
"Commerzbank Marienberg","Markt 5","09496","Marienberg"
"Commerzbank Crimmitschau","Markt 11","08451","Crimmitschau"
"Commerzbank Hermsdorf","Rodaer Str. 72","07629","Hermsdorf"
"Commerzbank Glauchau","Quergasse 2","08371","Glauchau"
"Commerzbank Gera","Johannisplatz 1","07545","Gera"
"Commerzbank Hohenstein-Ernstthal","Dresdner Str. 2","09337","Hohenstein-Ernstthal"
"Commerzbank Meerane","Poststr. 23","08393","Meerane"
"Commerzbank Zschopau","Neumarkt 7","09405","Zschopau"
"Commerzbank Jena","Fischergasse 10","07743","Jena"
"Commerzbank Chemnitz","Stollberger Str. 82","09119","Chemnitz"
"Commerzbank Limbach-Oberfrohna","Johannisplatz 1","09212","Limbach-Oberfrohna"
"Commerzbank Chemnitz","Hartmannstr. 5","09111","Chemnitz"
"Commerzbank Flöha","Augustusburger Str. 36","09557","Flöha"
"Commerzbank Altenburg","Mühlpforte 1","04600","Altenburg"
"Commerzbank","Fisch Str. 7","06712","Zeitz"
"Commerzbank Mittweida","Markt 1","09648","Mittweida"
"Commerzbank Freiberg","Platz der Oktoberopfer 6","09599","Freiberg"
"Commerzbank Freiberg","Schloßplatz 6","09599","Freiberg"
"Commerzbank Rochlitz","Markt 6","09306","Rochlitz"
"Commerzbank Naumburg","Jakobsstr. 1","06618","Naumburg"
"Commerzbank Borna","Wilhelm-Külz-Str. 4 - 16","04552","Borna"
"Commerzbank Weißenfels","Friedrichsstr. 14","06667","Weißenfels"
"Commerzbank Döbeln","Obermarkt 27","04720","Döbeln"
"Commerzbank","Dohnaischer Platz 6a","01796","Pirna"
"Commerzbank","Post Str. 2","01159","Dresden"
"Commerzbank","Pirnaer Land Str. 150","01257","Dresden"
"Commerzbank Dresden","Dr.-Külz-Ring 12","01067","Dresden"
"Commerzbank Merseburg","Gotthardstr. 6","06217","Merseburg"
"Commerzbank Dresden","Altmarkt 7","01067","Dresden"
"Commerzbank Leipzig","Karl-Liebknecht-Str. 19","04107","Leipzig"
"Commerzbank Leipzig","Lindenauer Markt 13 a","04177","Leipzig"
"Commerzbank Leipzig","Johannisallee 20","04317","Leipzig"
"Commerzbank Leipzig","Thomaskirchhof 22","04109","Leipzig"
"Commerzbank Leipzig","Goethestr. 3 - 5","04109","Leipzig"
"Commerzbank Dresden","Naumannstr. 10","01309","Dresden"
"Commerzbank Dresden","Königsbrücker str. 76","01099","Dresden"
"Commerzbank Radebeul","Sidonienstr. 1","01445","Radebeul"
"Commerzbank","Heinrichsplatz 7","01662","Meißen"
"Commerzbank Dresden","Bautzner Landstr. 15","01324","Dresden"
"Commerzbank Leipzig","Georg-Schumann-Str. 324","04159","Leipzig"
"Commerzbank Leipzig","Landsberger Str. 46","04157","Leipzig"
"Commerzbank Oschatz","Promenade 12","04758","Oschatz"
"Commerzbank","Bahnhof Str. 40","06526","Sangerhausen"
"Commerzbank Halle","Neustädter Passage 7","06122","Halle"
"Commerzbank Halle","Am Leipziger Turm 5 - 7","06108","Halle"
"Commerzbank Halle","Marktplatz 10","06108","Halle"
"Commerzbank Neustadt i.Sa.","Markt 10","01844","Neustadt i.Sa."
"Commerzbank","Haupt Str. 7","01589","Riesa"
"Commerzbank Eilenburg","Röberstr. 11","04838","Eilenburg"
"Commerzbank Eisleben","Markt 37","06295","Eisleben"
"Commerzbank Delitzsch","Breite Str. 32","04509","Delitzsch"
"Commerzbank Bischofswerda","Altmarkt 2","01877","Bischofswerda"
"Commerzbank Zittau","Neustadt 13 - 15","02763","Zittau"
"Commerzbank Hettstedt","Untere Bahnhofstr. 26","06333","Hettstedt"
"Commerzbank Torgau","Friedrichplatz 8","04860","Torgau"
"Commerzbank Bautzen","Kornmarkt 6","02625","Bautzen"
"Commerzbank Löbau","August-Bebel-Str. 7","02708","Löbau"
"Commerzbank Bad Liebenwerda","Hainsche Str. 2","04924","Bad Liebenwerda"
"Commerzbank Aschersleben","Markt 23","06449","Aschersleben"
"Commerzbank Köthen","Springstr. 1 a","06366","Köthen"
"Commerzbank Bernburg","Friedensallee 8","06406","Bernburg"
"Commerzbank Quedlinburg","Bahnhofstr. 11","06484","Quedlinburg"
"Commerzbank Herzberg","Rosa-Luxemburg-Str. 3","04916","Herzberg"
"Commerzbank","Friedrichs Str. 42","02977","Hoyerswerda"
"Commerzbank Dessau-Roßlau","Kavalierstr. 39","06844","Dessau-Roßlau"
"Commerzbank Görlitz","Berliner Str. 53","02826","Görlitz"
"Commerzbank","Bahnhof Str. 3","01968","Senftenberg"
"Commerzbank Roßlau","Karl-Liebknecht-Str. 4","06862","Roßlau"
"Commerzbank Lutherstadt Wittenberg","Jüdenstr. 39","06886","Lutherstadt Wittenberg"
"Commerzbank Spremberg","Dresdener Str. 8","03130","Spremberg"
"Commerzbank Cottbus","Karl-Liebknecht-Str. 126","03046","Cottbus"
"Commerzbank Forst","Frankfurter Str. 6","03149","Forst"
"Commerzbank Guben","Berliner Str. 24 b","03172","Guben"
"Commerzbank Luckau","Karl-Marx-Str. 22","15926","Luckau"
"Commerzbank","Wiesenburger Str. 7","14806","Bad Belzig"
"Commerzbank Luckenwalde","Markt 34","14943","Luckenwalde"
"Commerzbank Lübben","Hauptstr. 13","15907","Lübben"
"Commerzbank Ludwigsfelde","Potsdamer Str. 33","14974","Ludwigsfelde"
"Commerzbank Brandenburg","Neustädtischer Markt 10","14776","Brandenburg"
"Commerzbank","Bahnhof Str. 8","15711","Königs Wusterhausen"
"Commerzbank AG Filiale Potsdam","Lindenstr. 45","14467","Potsdam"
"Commerzbank","Linden Str. 45","14467","Potsdam"
"Commerzbank Potsdam","Karl-Liebknecht-Str. 24","14482","Potsdam"
"Commerzbank Berlin","Königstr. 57 A","14109","Berlin"
"Commerzbank Berlin","Bahnhofstr. 12 - 13","12305","Berlin"
"Commerzbank Kleinmachnow","Uhlenhorst 1","14532","Kleinmachnow"
"Commerzbank Berlin","Breisgauer Str. 1 - 3","14129","Berlin"
"Commerzbank Berlin","Teltower Damm 15","14169","Berlin"
"Commerzbank Berlin","Am Schlachtensee 2","14163","Berlin"
"Commerzbank","Sakrower Land Str. 23","14089","Berlin"
"Commerzbank Berlin","Lankwitzer Str. 1","12209","Berlin"
"Commerzbank Berlin","Kiepertstr. 7","12277","Berlin"
"Commerzbank Berlin","Drakestr. 33","12205","Berlin"
"Commerzbank Berlin","Kaiser-Wilhelm-Str. 81","12247","Berlin"
"Commerzbank Berlin","Krokusstr. 95","12357","Berlin"
"Commerzbank Berlin","Johannisthaler Chaussee 295","12351","Berlin"
"Commerzbank Berlin","Mariendorfer Damm 82","12109","Berlin"
"Commerzbank Berlin","Englerallee 40 - 42","14195","Berlin"
"Commerzbank Eisenhüttenstadt","Lindenallee 17","15890","Eisenhüttenstadt"
"Commerzbank Berlin","Schloßstr. 104","12163","Berlin"
"Commerzbank Berlin","Rudower Chaussee 13","12489","Berlin"
"Commerzbank Berlin","Teplitzer Str. 42","14193","Berlin"
"Commerzbank Berlin","Tempelhofer Damm 182","12099","Berlin"
"Commerzbank Berlin","Rheinstr. 2 - 3","12159","Berlin"
"Commerzbank Berlin","Blissestr. 2 - 6","10713","Berlin"
"Commerzbank Berlin","Hauptstr. 23 - 24","10827","Berlin"
"Commerzbank Berlin","Bayerischer Platz 1","10779","Berlin"
"Commerzbank Rathenow","Steinstr. 1","14712","Rathenow"
"Commerzbank Berlin","Kurfürstendamm 102","10711","Berlin"
"Commerzbank Berlin","Bahnhofstr. 1","12555","Berlin"
"Commerzbank Berlin","Kurfürstendamm 59","10707","Berlin"
"Commerzbank Berlin","Karl-Marx-Str. 76","12043","Berlin"
"Commerzbank Berlin","Theodor-Heuss-Platz 4","14052","Berlin"
"Commerzbank Berlin","Mehringdamm 39","10961","Berlin"
"Commerzbank Erkner","Friedrichstr. 67","15537","Erkner"
"Commerzbank Berlin","Kurfürstendamm 237","10719","Berlin"
"Commerzbank Berlin","Kaiserdamm 118","14057","Berlin"
"Commerzbank","Uhland Str. 9","10623","Berlin"
"Commerzbank Berlin","Bismarckstr. 80","10627","Berlin"
"Commerzbank Berlin","Kottbusser Damm 83 - 85","10967","Berlin"
"Commerzbank Berlin","Bölschestr. 74","12587","Berlin"
"Commerzbank Fürstenwalde","Eisenbahnstr. 126","15517","Fürstenwalde"
"Commerzbank Berlin","Kottbusser Str. 1","10999","Berlin"
"Commerzbank Berlin","Otto-Suhr-Allee 90 - 92","10585","Berlin"
"Commerzbank Berlin","Moritzstr. 9","13597","Berlin"
"Commerzbank Falkensee","Bahnhofstraße 82","14612","Falkensee"
"Commerzbank Berlin","Nonnendammallee 89","13629","Berlin"
"Commerzbank Berlin","Turmstr. 32","10551","Berlin"
"Commerzbank Berlin","Erich-Kurz-Str. 9","10319","Berlin"
"Commerzbank Berlin","Friedrichstraße 62","10117","Berlin"
"Commerzbank Berlin","Panoramastr. 1","10178","Berlin"
"Commerzbank Berlin","Frankfurter Allee 13 - 15","10247","Berlin"
"Commerzbank Nauen","Gartenstr. 51","14641","Nauen"
"Commerzbank Berlin","Müllerstr. 180","13353","Berlin"
"Commerzbank Berlin","Müllerstr. 6","13353","Berlin"
"Commerzbank Berlin","Kurt-Schumacher-Damm 1 - 7","13405","Berlin"
"Commerzbank Berlin","Konrad-Wolf-Str. 104","13055","Berlin"
"Commerzbank Berlin","Berliner Allee 96","13088","Berlin"
"Commerzbank Berlin","Residenzstr. 2","13409","Berlin"
"Commerzbank Berlin","Marzahner Promenade 8","12679","Berlin"
"Commerzbank Berlin","Berliner Str. 1","13507","Berlin"
"Commerzbank Berlin","Alice-Salomon-Platz 1","12627","Berlin"
"Commerzbank","Breite Str. 4b","13187","Berlin"
"Commerzbank","Logen Str. 8","15230","Frankfurt"
"Commerzbank Frankfurt (Oder)","Logenstr. 8","15230","Frankfurt (Oder)"
"Commerzbank Berlin","Heinsestr. 46 - 48","13467","Berlin"
"Commerzbank Hennigsdorf","Berliner Str. 25","16761","Hennigsdorf"
"Commerzbank Berlin","Zeltinger Platz 1 - 3","13465","Berlin"
"Commerzbank Strausberg","Große Str. 73","15344","Strausberg"
"Commerzbank","Bürgermeister Str. 24","16321","Bernau"
"Commerzbank Oranienburg","Bernauer Str. 13","16515","Oranienburg"
"Commerzbank Neuruppin","Karl-Marx-Str. 82","16816","Neuruppin"
"Commerzbank Wittenberge","Bahnstr. 53","19322","Wittenberge"
"Commerzbank Eberswalde","Friedrich-Ebert-Str. 14","16225","Eberswalde"
"Commerzbank Zehdenick","Am Markt 1","16792","Zehdenick"
"Commerzbank Angermünde","Brüderstr. 19","16278","Angermünde"
"Commerzbank Schwedt","Vierradener Str. 37","16303","Schwedt"
"Commerzbank Parchim","Schuhmarkt 8","19370","Parchim"
"Commerzbank Neustrelitz","Markt 10 - 11","17235","Neustrelitz"
"Commerzbank","Mühlen Str. 17","17192","Waren"
"Commerzbank Schwerin","Schloßstr. 32 - 34","19053","Schwerin"
"Commerzbank","Friedrich-Engels-Ring 52b","17033","Neubrandenburg"
"Commerzbank","Grün Str. 51","17309","Pasewalk"
"Commerzbank Roggentin","Globus-Ring 1","18184","Roggentin"
"Commerzbank Rostock","Lange Str. 1","18055","Rostock"
"Commerzbank Rostock","Warnowallee 31 a","18107","Rostock"
"Commerzbank Greifswald","Markt 7 - 8","17489","Greifswald"
"Commerzbank Stralsund","Heilgeiststr. 28","18439","Stralsund"
"Commerzbank Bergen","Markt 10","18528","Bergen"
"Commerzbank Celle","Großer Plan 25","29221","Celle"
"Commerzbank Salzwedel","Neuperverstr. 72","29410","Salzwedel"
"Commerzbank Lüchow","Lange Str. 21","29439","Lüchow"
"Commerzbank Uelzen","Veerßer Str. 50","29525","Uelzen"
"Commerzbank Walsrode","Moorstr. 50 - 52","29664","Walsrode"
"Commerzbank Hoya","Bahnhofstr. 1","27318","Hoya"
"Commerzbank Verden","Große Str. 32","27283","Verden"
"Commerzbank Schneverdingen","Verdener Str. 6","29640","Schneverdingen"
"Commerzbank Achim","Obernstr. 55","28832","Achim"
"Commerzbank Weyhe","Bahnhofstr. 43","28844","Weyhe"
"Commerzbank Rotenburg","Am Neuen Markt 8","27356","Rotenburg"
"Commerzbank Wildeshausen","Huntestr. 6","27793","Wildeshausen"
"Commerzbank Lüneburg","Am Sande 5","21335","Lüneburg"
"Commerzbank Bremen","Bei den Drei Pfählen 38","28205","Bremen"
"Commerzbank Bremen","Vor dem Steintor 159 - 161","28203","Bremen"
"Commerzbank Bremen","Langemarckstr. 131 - 133","28199","Bremen"
"Commerzbank Bremen","Schwachhauser Heerstr. 76","28209","Bremen"
"Commerzbank Bremen","Schüsselkorb 5 - 11","28195","Bremen"
"Commerzbank Delmenhorst","Lange Str. 105","27749","Delmenhorst"
"Commerzbank Bremen","Admiralstr. 131 - 137","28215","Bremen"
"Commerzbank Bremen","Woltmershauser Str. 223","28197","Bremen"
"Commerzbank Bremen","Wartburgstr. 1","28217","Bremen"
"Commerzbank Winsen","Von-Somnitz-Ring 1","21423","Winsen"
"Commerzbank","Breite Str. 20b","21244","Buchholz"
"Commerzbank Geesthacht","Bergedorfer Str. 51","21502","Geesthacht"
"Commerzbank Bremen","Reeder-Bischoff-Str. 25 - 27","28757","Bremen"
"Commerzbank Osterholz-Scharmbeck","Marktplatz 10","27711","Osterholz-Scharmbeck"
"Commerzbank Hamburg","Sand 5 - 7","21073","Hamburg"
"Commerzbank","Alte Holsten Str. 63","21029","Hamburg"
"Commerzbank Reinbek","Bahnhofstr. 11 B","21465","Reinbek"
"Commerzbank","Heiligengeist Str. 29","26121","Oldenburg"
"Commerzbank","Neugrabener Bahnhof Str. 27","21149","Hamburg"
"Commerzbank Buxtehude","Bahnhofstr. 26","21614","Buxtehude"
"Commerzbank Glinde","Markt 4 D","21509","Glinde"
"Commerzbank Hamburg","Möllner Landstr. 2","22111","Hamburg"
"Commerzbank Hamburg","Am Sandtorkai 23 - 24","20457","Hamburg"
"Commerzbank","Eiffe Str. 80","20537","Hamburg"
"Commerzbank Hamburg","Lübeckertordamm 5","20099","Hamburg"
"Commerzbank Hamburg","Ida-Ehre-Platz 14","20095","Hamburg"
"Commerzbank Hamburg","Beim Strohhause 19","20097","Hamburg"
"Commerzbank Hamburg","Jungfernstieg 22","20354","Hamburg"
"Commerzbank Hamburg","Lange Reihe 83","20099","Hamburg"
"Commerzbank Hamburg","Bahrenfelder Str. 138","22765","Hamburg"
"Commerzbank Hamburg","Schloßstr. 8","22041","Hamburg"
"Commerzbank Hamburg","Paul-Nevermann-Platz 5","22765","Hamburg-Altona-Altstadt"
"Commerzbank Mölln","Hauptstr. 75","23879","Mölln"
"Commerzbank Hamburg","Mittelweg 149","20148","Hamburg"
"Commerzbank Hamburg","Hamburger Str. 123","22083","Hamburg"
"Commerzbank Hamburg","Waitzstr. 11","22607","Hamburg"
"Commerzbank Hamburg","Hofweg 96","22085","Hamburg"
"Commerzbank Hamburg","Oberstr. 88","20149","Hamburg"
"Commerzbank Hamburg","Osterstr. 111","20259","Hamburg"
"Commerzbank Hamburg","Goldbekplatz 3","22303","Hamburg"
"Commerzbank Hamburg","Blankeneser Bahnhofstr. 33","22587","Hamburg"
"Commerzbank Hamburg","Hoheluftchaussee 76","20253","Hamburg"
"Commerzbank Hamburg","Fuhlsbüttler Str. 147","22305","Hamburg"
"Commerzbank Hamburg","Julius-Brecht-Str. 4","22609","Hamburg"
"Commerzbank Hamburg","Rahlstedter Bahnhofstr. 8","22143","Hamburg"
"Commerzbank Hamburg","Eppendorfer Landstr. 42","20249","Hamburg"
"Commerzbank Hamburg","August-Krogmann-Str. 1 b","22159","Hamburg"
"Commerzbank Brake","Breite Str. 59","26919","Brake"
"Commerzbank Hamburg","Alsterdorfer Str. 3","22299","Hamburg"
"Commerzbank Hamburg","Überseering 7","22297","Hamburg"
"Commerzbank Hamburg","Vogt-Wells-Str. 12","22529","Hamburg"
"Commerzbank Hamburg","Bramfelder Chaussee 264","22177","Hamburg"
"Commerzbank Bremervörde","Alte Str. 88","27432","Bremervörde"
"Commerzbank Wedel","Bahnhofstr. 30","22880","Wedel"
"Commerzbank Hamburg","Holsteiner Chaussee 10 a","22523","Hamburg"
"Commerzbank Hamburg","Hummelsbütteler Landstr. 7","22335","Hamburg"
"Commerzbank Hamburg","Tibarg 41 - 43","22459","Hamburg"
"Commerzbank Hamburg","Im Alten Dorfe 37","22359","Hamburg"
"Commerzbank Hamburg","Saseler Markt 2","22393","Hamburg"
"Commerzbank Hamburg","Heegbarg 10 a","22391","Hamburg"
"Commerzbank Hamburg","Heegbarg 12","22391","Hamburg"
"Commerzbank Hamburg","Pinneberger Str. 2","22457","Hamburg"
"Commerzbank","Hagener Allee 11","22926","Ahrensburg"
"Commerzbank Hamburg","Tangstedter Landstr. 40","22415","Hamburg"
"Commerzbank Ahrensburg","Beimoorkamp 6 (H.d.W.)","22926","Ahrensburg"
"Commerzbank Papenburg","Hauptkanal rechts 38","26871","Papenburg"
"Commerzbank Stade","Pferdemarkt 5","21682","Stade"
"Commerzbank Norderstedt","Europaallee 1","22850","Norderstedt"
"Commerzbank Pinneberg","Dingstätte 8","25421","Pinneberg"
"Commerzbank Uetersen","Großer Sand 31","25436","Uetersen"
"Commerzbank Varel","Neue Str. 13","26316","Varel"
"Commerzbank Quickborn","Bahnhofstr. 46 - 48","25451","Quickborn"
"Commerzbank Nordenham","Friedrich-Ebert-Str. 14","26954","Nordenham"
"Commerzbank Leer","Mühlenstr. 126","26789","Leer"
"Commerzbank Bad Oldesloe","Hindenburgstr. 54","23843","Bad Oldesloe"
"Commerzbank Bremerhaven","Bürgerm-Smidt-Str. 89 - 91","27568","Bremerhaven"
"Commerzbank Lübeck","Mönkhofer Weg 56","23562","Lübeck"
"Commerzbank","Schul Str. 26-28","25335","Elmshorn"
"Commerzbank Wismar","Am Markt 23","23966","Wismar"
"Commerzbank Lübeck","Kreuzweg 7 - 9","23558","Lübeck"
"Commerzbank Lübeck","Breite Str. 52 - 54","23552","Lübeck"
"Commerzbank Lübeck","Fackenburger Allee 25 a","23554","Lübeck"
"Commerzbank Kaltenkirchen","Holstenstr. 25","24568","Kaltenkirchen"
"Commerzbank Bad Schwartau","Markt 8","23611","Bad Schwartau"
"Commerzbank Wilhelmshaven","Montsstr. 6","26382","Wilhelmshaven"
"Commerzbank Lübeck","Vorderreihe 50","23570","Lübeck"
"Commerzbank Wahlstedt","An der Eiche 2","23812","Wahlstedt"
"Commerzbank Bad Bramstedt","Kirchenbleeck 11 - 13","24576","Bad Bramstedt"
"Commerzbank Emden","Am Delft 24","26721","Emden"
"Commerzbank Itzehoe","Breite Str. 6","25524","Itzehoe"
"Commerzbank Brunsbüttel","Koogstr. 24 - 26","25541","Brunsbüttel"
"Commerzbank Neustadt","Am Markt 12","23730","Neustadt In Holstein"
"Commerzbank Cuxhaven","Kaemmererplatz 5","27472","Cuxhaven"
"Commerzbank Neumünster","Kuhberg 38","24534","Neumünster"
"Commerzbank Norden","Osterstr. 10","26506","Norden"
"Commerzbank Kiel","Elisabethstr. 48","24143","Kiel"
"Commerzbank Kiel","Holstenstr. 64","24103","Kiel"
"Commerzbank Heide","Markt 38","25746","Heide"
"Commerzbank Kiel","Arndtplatz 6","24116","Kiel"
"Commerzbank Kiel","Holtenauer Str. 94","24105","Kiel"
"Commerzbank Rendsburg","Jungfernstieg 1","24768","Rendsburg"
"Commerzbank Kiel","An der Schanze 34","24159","Kiel"
"Commerzbank Eckernförde","Kieler Str. 2","24340","Eckernförde"
"Commerzbank","Post Str. 2","24837","Schleswig"
"Commerzbank Husum","Großstr. 13","25813","Husum"
"Commerzbank Flensburg","Rathausplatz 15","24937","Flensburg"
"Commerzbank Flensburg","Große Str. 16","24937","Flensburg"
"Commerzbank Flensburg","Twedter Plack 1","24944","Flensburg"
"Commerzbank Niebüll","Rathausplatz","25899","Niebüll"
"Commerzbank Westerland","Strandstr. 18","25980","Westerland"
"Commerzbank Schlüchtern","Obertorstr. 44 - 46","36381","Schlüchtern"
"Commerzbank Fulda","Universitätsplatz 7","36037","Fulda"
"Commerzbank Lauterbach","Kanalstr. 7","36341","Lauterbach"
"Commerzbank Butzbach","Marktplatz 19 - 20","35510","Butzbach"
"Commerzbank","Breiten Str. 20","36251","Bad Hersfeld"
"Commerzbank Alsfeld","Ludwigsplatz 5","36304","Alsfeld"
"Commerzbank Gießen","Frankfurter Str. 4","35390","Gießen"
"Commerzbank Wetzlar","Karl-Kellner-Ring 35","35576","Wetzlar"
"Commerzbank Stadtallendorf","Am Markt 7","35260","Stadtallendorf"
"Commerzbank","Bahnhof Str. 28a","37269","Eschwege"
"Commerzbank Marburg","Pilgrimstein 36","35037","Marburg"
"Commerzbank Marburg","Bahnhofstr. 2","35037","Marburg"
"Commerzbank","Hindenburg Str. 12","35683","Dillenburg"
"Commerzbank Heilbad Heiligenstadt","Holzweg 3","37308","Heilbad - Heiligenstadt"
"Commerzbank Kassel","Königsplatz 32 - 34","34117","Kassel"
"Commerzbank Kassel","Friedrich-Ebert-Str. 77","34119","Kassel"
"Commerzbank Hann. Münden","Markt 8","34346","Hann. Münden"
"Commerzbank Göttingen","Prinzenstr. 2","37073","Göttingen"
"Commerzbank Göttingen","Düstere Eichen Weg 34","37073","Göttingen"
"Commerzbank Korbach","Bahnhofstr. 5 a","34497","Korbach"
"Commerzbank","Brauhaus Str. 2","37412","Herzberg"
"Commerzbank Osterode","Am Schilde 14","37520","Osterode"
"Commerzbank Warburg","Hauptstr. 67","34414","Warburg"
"Commerzbank","Alte Post Str. 2","37154","Northeim"
"Commerzbank Wernigerode","Breite Str. 18","38855","Wernigerode"
"Commerzbank Marsberg","Hauptstr. 36","34431","Marsberg"
"Commerzbank Halberstadt","Fischmarkt 13","38820","Halberstadt"
"Commerzbank Bad Harzburg","Herzog-Wilhelm-Straße 64 C","38667","Bad Harzburg"
"Commerzbank Zerbst/Anhalt","Breite 27","39261","Zerbst/Anhalt"
"Commerzbank Einbeck","Dr.-Friedrich-Uhde-Str. 10","37574","Einbeck"
"Commerzbank Goslar","Schilderstr. 8 - 9","38640","Goslar"
"Commerzbank","Fürstenberger Str. 2a","37603","Holzminden"
"Commerzbank Bad Driburg","Lange Str. 127","33014","Bad Driburg"
"Commerzbank Magdeburg","Halberstädter Str. 120","39112","Magdeburg"
"Commerzbank Salzgitter","Breslauer Str. 5","38259","Salzgitter"
"Commerzbank Magdeburg","Breiter Weg 200","39104","Magdeburg"
"Commerzbank","Markt Str. 6","31061","Alfeld"
"Commerzbank Paderborn","Rathausplatz 14","33098","Paderborn"
"Commerzbank Schöningen","Markt 23","38364","Schöningen"
"Commerzbank Wolfenbüttel","Breite Herzogstr. 23","38300","Wolfenbüttel"
"Commerzbank Salzgitter","Chemnitzer Str. 21","38226","Salzgitter"
"Commerzbank Helmstedt","Johannesstr. 16","38350","Helmstedt"
"Commerzbank Bad Pyrmont","Brunnenstr. 16","31812","Bad Pyrmont"
"Commerzbank Burg","Magdalenenplatz 1","39288","Burg"
"Commerzbank Hildesheim","Dammstr. 23 - 25","31134","Hildesheim"
"Commerzbank","Alms Str. 29-30","31134","Hildesheim"
"Commerzbank Haldensleben","Markt 16","39340","Haldensleben"
"Commerzbank Detmold","Rosental 19","32756","Detmold"
"Commerzbank Braunschweig","Friedrich-Wilhelm-Platz 1","38100","Braunschweig"
"Commerzbank Braunschweig","Bohlweg 33","38100","Braunschweig"
"Commerzbank Braunschweig","Jasperallee 64","38102","Braunschweig"
"Commerzbank Rietberg","Rathausstr. 10","33397","Rietberg"
"Commerzbank","Oster Str. 26","31785","Hameln"
"Commerzbank Sarstedt","Steinstr. 9","31157","Sarstedt"
"Commerzbank Rheda-Wiedenbrück","Klingelbrink 20","33378","Rheda-Wiedenbrück"
"Commerzbank","Mittel Str. 117","32657","Lemgo"
"Commerzbank Bielefeld","Sennestadtring 1","33689","Bielefeld"
"Commerzbank Peine","Breite Str. 43","31224","Peine"
"Commerzbank Springe","Fünfhausenstr. 1","31832","Springe"
"Commerzbank Rheda-Wiedenbrück","Berliner Str. 42","33378","Rheda-Wiedenbrück"
"Commerzbank Gütersloh","Münsterstr. 11 - 13","33330","Gütersloh"
"Commerzbank","Porsche Str. 27","38440","Wolfsburg"
"Commerzbank Bielefeld","Detmolder Str. 237","33605","Bielefeld"
"Commerzbank Bielefeld","Detmolder Str. 235","33605","Bielefeld"
"Commerzbank Bielefeld","Hauptstr. 100","33647","Bielefeld"
"Commerzbank Laatzen","Hildesheimer Str. 54","30880","Laatzen"
"Commerzbank Bad Salzuflen","Lange Str. 20","32105","Bad Salzuflen"
"Commerzbank Hemmingen","Kirchdamm 3","30966","Hemmingen"
"Commerzbank Bielefeld","Stapenhorststr. 58","33615","Bielefeld"
"Commerzbank","Fiedeler Str. 24","30519","Hannover"
"Commerzbank Lehrte","Burgdorfer Str. 10 b","31275","Lehrte"
"Commerzbank Gehrden","Dammstr. 15","30989","Gehrden"
"Commerzbank Steinhagen","Am Pulverbach 28","33803","Steinhagen"
"Commerzbank Barsinghausen","Marktstr. 4","30890","Barsinghausen"
"Commerzbank Hannover","Hildesheimer Str. 54","30169","Hannover"
"Commerzbank Hannover","Scheidestr. 3","30625","Hannover"
"Commerzbank Hannover","Schwarzer Bär 6","30449","Hannover"
"Commerzbank Hannover","An der Börse 4","30159","Hannover"
"Commerzbank Hannover","Theaterstraße 11 - 12","30159","Hannover"
"Commerzbank Herford","Kurfürstenstr. 10","32052","Herford"
"Commerzbank Gifhorn","Steinweg 50","38518","Gifhorn"
"Commerzbank Hannover","Kurt-Schumacher-Str. 26 - 28","30159","Hannover"
"Commerzbank Hannover","Lister Meile 47","30161","Hannover"
"Commerzbank Hannover","Scheffelstr. 2","30167","Hannover"
"Commerzbank Hannover","Vahrenwalder Str. 65","30165","Hannover"
"Commerzbank Hannover","Podbielskistr. 311","30659","Hannover"
"Commerzbank","Markt Str. 45","31303","Burgdorf"
"Commerzbank Hannover","Vahrenwalder Str. 181","30165","Hannover"
"Commerzbank Bückeburg","Lange Str. 21","31675","Bückeburg"
"Commerzbank Bad Oeynhausen","Herforder Str. 74","32545","Bad Oeynhausen"
"Commerzbank Stadthagen","Marktstr. 2","31655","Stadthagen"
"Commerzbank Langenhagen","Walsroder Str. 149","30853","Langenhagen"
"Commerzbank Stendal","Breite Str. 1","39576","Stendal"
"Commerzbank Versmold","Ravensberger Str. 10","33775","Versmold"
"Commerzbank Garbsen","Rote Reihe 2","30827","Garbsen"
"Commerzbank Minden","Großer Domhof 8","32423","Minden"
"Commerzbank","Auf'm Tie 2","32257","Bünde"
"Commerzbank Burgwedel","Von-Alten-Str. 9","30938","Burgwedel"
"Commerzbank Wunstorf","Südstr. 14 / 16","31515","Wunstorf"
"Commerzbank Neustadt","Windmühlenstr. 3","31535","Neustadt"
"Commerzbank Lübbecke","Osnabrücker Str. 3","32312","Lübbecke"
"Commerzbank Nienburg","Lange Str. 83","31582","Nienburg"
"Commerzbank Radevormwald","Markt 10","42477","Radevormwald"
"Commerzbank","Telegrafen Str. 37","42929","Wermelskirchen"
"Commerzbank Remscheid","Kölner Str. 76","42897","Remscheid"
"Commerzbank Remscheid","Konrad-Adenauer-Str. 1","42853","Remscheid"
"Commerzbank Remscheid","Gneisenaustr. 2","42899","Remscheid"
"Commerzbank Leichlingen","Kirchstr. 8 - 10","42799","Leichlingen"
"Commerzbank Wuppertal","Marktstr. 46 a","42369","Wuppertal"
"Commerzbank","Haupt Str. 78","42651","Solingen"
"Commerzbank Wuppertal","Hauptstr. 31","42349","Wuppertal"
"Commerzbank Langenfeld","Hauptstr. 118","40764","Langenfeld"
"Commerzbank Wuppertal","Fischertal 4","42287","Wuppertal"
"Commerzbank Wuppertal","Teichstr. 2","42277","Wuppertal"
"Commerzbank Solingen","Friedrich-Ebert-Str. 82 - 84","42719","Solingen"
"Commerzbank Solingen","Forststr. 9","42697","Solingen"
"Commerzbank Sprockhövel","Mittelstr. 27","45549","Sprockhövel"
"Commerzbank Wuppertal","Neumarkt 9","42103","Wuppertal"
"Commerzbank Dortmund","Aplerbecker Marktplatz 6","44287","Dortmund"
"Commerzbank Haan","Kaiserstr. 32","42781","Haan"
"Commerzbank Wuppertal","Kaiserstr. 2","42329","Wuppertal"
"Commerzbank Dormagen","Kölner Str. 50","41539","Dormagen"
"Commerzbank Dortmund","Hermannstr. 37","44263","Dortmund"
"Commerzbank Dortmund","Brackeler Hellweg 136","44309","Dortmund"
"Commerzbank","Mittel Str. 52","40721","Hilden"
"Commerzbank Dortmund","Harkortstr. 63","44225","Dortmund"
"Commerzbank Erkrath","Hochdahler Markt 29","40699","Erkrath"
"Commerzbank Dortmund","Hansaplatz 2","44137","Dortmund"
"Commerzbank Düsseldorf","Hauptstr. 1","40597","Düsseldorf"
"Commerzbank Dortmund","Kampstr. 47","44137","Dortmund"
"Commerzbank Dortmund","Münsterstr. 105","44145","Dortmund"
"Commerzbank Mettmann","Breite Str. 4 - 6","40822","Mettmann"
"Commerzbank Velbert-Langenberg","Hauptstr. 55","42555","Velbert-Langenberg"
"Commerzbank Erkrath","Bahnstr. 39","40699","Erkrath"
"Commerzbank Bochum","Kemnader Str. 331 - 333","44797","Bochum"
"Commerzbank Hattingen","Heggerstr. 47","45525","Hattingen"
"Commerzbank Düsseldorf","Kölner Landstr. 441","40589","Düsseldorf"
"Commerzbank Düsseldorf","Gumbertstr. 174","40229","Düsseldorf"
"Commerzbank Velbert","Poststr. 5","42551","Velbert"
"Commerzbank Lünen","Lange Str. 1","44532","Lünen"
"Commerzbank Düsseldorf","Regenbergastr. 1","40625","Düsseldorf"
"Commerzbank Bochum","Hattinger Str. 808","44879","Bochum"
"Commerzbank Essen","Kupferdreher Str. 161","45257","Essen"
"Commerzbank Düsseldorf","Werdener Str. 4","40227","Düsseldorf"
"Commerzbank Heiligenhaus","Hauptstr. 149","42579","Heiligenhaus"
"Commerzbank Düsseldorf","Lichtstr. 80","40235","Düsseldorf"
"Commerzbank Bochum","Husemannplatz 3 - 4","44787","Bochum"
"Commerzbank Düsseldorf","Graf-Adolf-Str. 86 - 88","40210","Düsseldorf"
"Commerzbank Dortmund","Mengeder Markt 1","44359","Dortmund"
"Commerzbank Düsseldorf","Corneliusstr. 15","40215","Düsseldorf"
"Commerzbank Bochum","Bethanienstr. 5","44805","Bochum"
"Commerzbank Düsseldorf","Friedrichstr. 81","40217","Düsseldorf"
"Commerzbank Düsseldorf","Grafenberger Allee 66","40237","Düsseldorf"
"Commerzbank Düsseldorf","Am Wehrhahn 8","40211","Düsseldorf"
"Commerzbank Düsseldorf","Gladbacher Str. 6","40219","Düsseldorf"
"Commerzbank Düsseldorf","Königsallee 37","40212","Düsseldorf"
"Commerzbank Düsseldorf","Rethelstr. 163","40237","Düsseldorf"
"Commerzbank Grevenbroich","Karl-Oberbach-Str. 1","41515","Grevenbroich"
"Commerzbank Düsseldorf","Breite Str. 25","40213","Düsseldorf"
"Commerzbank Castrop-Rauxel","Am Markt 14","44575","Castrop-Rauxel"
"Commerzbank Düsseldorf","Heinrichstr. 155","40239","Düsseldorf"
"Commerzbank Bochum","Dorstener Str. 177","44809","Bochum"
"Commerzbank Düsseldorf","Kaiserswerther Str. 10","40477","Düsseldorf"
"Commerzbank Düsseldorf","Nordstr. 72","40477","Düsseldorf"
"Commerzbank Ratingen","Eggerscheidter Str. 4 - 6","40883","Ratingen"
"Commerzbank Essen","Brückstr. 18","45239","Essen"
"Commerzbank Ratingen","Marktplatz 17 - 18","40878","Ratingen"
"Commerzbank Düsseldorf","Luegallee 110 - 112","40545","Düsseldorf"
"Commerzbank Neuss","Markt 21 - 25","41460","Neuss"
"Commerzbank Essen","Schulstr. 2","45219","Essen"
"Commerzbank Bochum","Oststr. 23 - 25","44866","Bochum"
"Commerzbank Essen","Kaiser-Otto-Platz 9","45276","Essen"
"Commerzbank Herne","Heinrichstr. 8","44623","Herne"
"Commerzbank Herne","Hauptstr. 18","44651","Herne"
"Commerzbank Düsseldorf","Kalkumer Str. 151","40468","Düsseldorf"
"Commerzbank Essen","Bredeneyer Str. 119 - 121","45133","Essen"
"Commerzbank Essen","Rüttenscheider Str. 106","45130","Essen"
"Commerzbank Ratingen","Lintorfer Markt 2","40885","Ratingen"
"Commerzbank Ratingen","Speestr. 20 - 22","40885","Ratingen"
"Commerzbank Herne","Gerichtsstr. 4","44649","Herne"
"Commerzbank Meerbusch","Düsseldorfer Str. 98","40667","Meerbusch"
"Commerzbank Essen","Lindenallee 17 - 23","45127","Essen"
"Commerzbank Meerbusch","Dorfstr. 9","40667","Meerbusch"
"Commerzbank Recklinghausen","Bochumer Str. 123","45661","Recklinghausen"
"Commerzbank Gelsenkirchen","Neumarkt 3","45879","Gelsenkirchen"
"Commerzbank Essen","Frohnhauser Str. 252","45144","Essen"
"Commerzbank Düsseldorf","Friedrich-von-Spee-Str. 2","40489","Düsseldorf"
"Commerzbank Kaarst","Maubisstr. 29","41564","Kaarst"
"Commerzbank Warendorf","Freckenhorster Str. 11","48231","Warendorf"
"Commerzbank Essen","Altenessener Str. 405","45326","Essen"
"Commerzbank Mülheim","Althofstr. 36 - 38","45468","Mülheim"
"Commerzbank Essen","Germaniaplatz 3","45355","Essen"
"Commerzbank Recklinghausen","Markt 2","45657","Recklinghausen"
"Commerzbank Meerbusch","Strümper Str. 8","40670","Meerbusch"
"Commerzbank Mülheim","Duisburger Str. 264","45478","Mülheim"
"Commerzbank Duisburg","Düsseldorfer Landstr. 171-173","47249","Duisburg"
"Commerzbank Gelsenkirchen","Industriestr. 8","45899","Gelsenkirchen"
"Commerzbank","Stresemann Str. 32","41236","Mönchengladbach"
"Commerzbank Erkelenz","Kölner Str. 39","41812","Erkelenz"
"Commerzbank Erkelenz","Kölner Str. 12","41812","Erkelenz"
"Commerzbank Gelsenkirchen","Breddestr. 7","45894","Gelsenkirchen"
"Commerzbank Herten","Bahnhofstr. 63","45701","Herten"
"Commerzbank Mönchengladbach","Bismarckplatz 6","41061","Mönchengladbach"
"Commerzbank","Markt Str. 61-63","46045","Oberhausen"
"Commerzbank Bottrop","Berliner Platz 2","46236","Bottrop"
"Commerzbank Krefeld","Am Marktplatz 26","47829","Krefeld"
"Commerzbank Dissen","Große Str. 41","49201","Dissen"
"Commerzbank","König Str. 15-19","47051","Duisburg"
"Commerzbank","Schiller Str. 3","45964","Gladbeck"
"Commerzbank Duisburg","Krefelder Str. 45","47226","Duisburg"
"Commerzbank Marl","Bergstr. 19","45770","Marl"
"Commerzbank Krefeld","Rheinstr. 46 - 52","47799","Krefeld"
"Commerzbank Krefeld","Bismarckplatz 8","47799","Krefeld"
"Commerzbank Duisburg","Von-der-Mark-Str. 99","47137","Duisburg"
"Commerzbank","Kant Str. 17","46145","Oberhausen"
"Commerzbank Oberhausen","Finanzstr. 10","46145","Oberhausen"
"Commerzbank Melle","Haferstr. 3","49324","Melle"
"Commerzbank Duisburg","Bismarckplatz 2","47198","Duisburg"
"Commerzbank Duisburg","Hamborner Altmarkt 23","47166","Duisburg"
"Commerzbank Haltern am See","Mühlenstr. 1","45721","Haltern am See"
"Commerzbank Viersen","Lindenstr. 3","41747","Viersen"
"Commerzbank Münster","Königsstr. 39","48143","Münster"
"Commerzbank Moers","Homberger Str. 2","47441","Moers"
"Commerzbank Duisburg","Friedrich-Ebert-Str. 223","47179","Duisburg"
"Commerzbank Dorsten","Essener Str. 19","46282","Dorsten"
"Commerzbank Dülmen","Lüdinghauser Str. 15","48249","Dülmen"
"Commerzbank Dinslaken","Friedrich-Ebert-Str. 51","46535","Dinslaken"
"Commerzbank","Enger Str. 48","47906","Kempen"
"Commerzbank Niederkrüchten","Hauptstr. 79","41372","Niederkrüchten"
"Commerzbank Nettetal","Marktstr. 31","41334","Nettetal"
"Commerzbank Kamp-Lintfort","Moerser Str. 299","47475","Kamp-Lintfort"
"Commerzbank Greven","Marktstr. 16","48268","Greven"
"Commerzbank Osnabrück","Möserstr. 12","49074","Osnabrück"
"Commerzbank Nettetal","Kehrstr. 49","41334","Nettetal"
"Commerzbank Osnabrück","Lotter Str. 122","49078","Osnabrück"
"Commerzbank Osnabrück","Piesberger Str. 1","49090","Osnabrück"
"Commerzbank","Neu Str. 1","48653","Coesfeld"
"Commerzbank Wesel","Hohe Str. 17","46483","Wesel"
"Commerzbank Geldern","Issumer Str. 39 - 41","47608","Geldern"
"Commerzbank Borken","Markt 6","46325","Borken"
"Commerzbank Emsdetten","Frauenstr. 3","48282","Emsdetten"
"Commerzbank Ibbenbüren","Marktstr. 3 a","49477","Ibbenbüren"
"Commerzbank Xanten","Marsstr. 3","46509","Xanten"
"Commerzbank Bocholt","Osterstr. 15 - 17","46397","Bocholt"
"Commerzbank Rheine","Münsterstr. 42","48431","Rheine"
"Commerzbank Diepholz","Lange Str. 22","49356","Diepholz"
"Commerzbank Rees","Vor dem Delltor 4","46459","Rees"
"Commerzbank Goch","Markt 5","47574","Goch"
"Commerzbank","Schul Str. 3","48599","Gronau"
"Commerzbank Emmerich","Kaßstr. 8","46446","Emmerich"
"Commerzbank Vechta","Große Str. 49","49377","Vechta"
"Commerzbank Kleve","Große Str. 47 / 49","47533","Kleve"
"Commerzbank Lingen","Am Markt 22","49808","Lingen"
"Commerzbank Nordhorn","Bentheimer Str. 6","48529","Nordhorn"
"Commerzbank Cloppenburg","Lange Str. 39","49661","Cloppenburg"
"Commerzbank Meppen","Markt 24","49716","Meppen"
"Commerzbank Mainz","Höfchen 2","55116","Mainz"
"Commerzbank Mainz","Große Bleiche 35 - 39","55116","Mainz"
"Commerzbank Mainz","Große Bleiche 15","55116","Mainz"
"Commerzbank Ingelheim","Bahnhofstr. 15 - 17","55218","Ingelheim"
"Commerzbank","Salinen Str. 32","55543","Bad Kreuznach"
"Commerzbank Bingen","Mainzer Str. 22 - 24","55411","Bingen"
"Commerzbank Kirn","Steinweg 3","55606","Kirn"
"Commerzbank Idar-Oberstein","Hauptstr. 396 - 398","55743","Idar-Oberstein"
"Commerzbank Idar-Oberstein","Hauptstr. 99","55743","Idar-Oberstein"
"Commerzbank","Römer Str. 84","56130","Bad Ems"
"Commerzbank Koblenz","Clemensstr. 32","56068","Koblenz"
"Commerzbank","Altlöhrtor 13 - 15","56068","Koblenz"
"Commerzbank","Bismarck Str. 9","56470","Bad Marienberg"
"Commerzbank Neuwied","Langendorfer Str. 117 - 119","56564","Neuwied"
"Commerzbank Siegen","Hauptstr. 81","57074","Siegen"
"Commerzbank Siegen","Eiserfelder Str. 467","57080","Siegen"
"Commerzbank","Bahnhof Str. 38","56626","Andernach"
"Commerzbank Betzdorf","Bahnhofstr. 46","57518","Betzdorf"
"Commerzbank Siegen","Bahnhofstr. 2","57072","Siegen"
"Commerzbank","Burg Str. 59","54516","Wittlich"
"Commerzbank","Markt Str. 36-38","56727","Mayen"
"Commerzbank Siegen","Weidenauer Str. 179","57076","Siegen"
"Commerzbank Saarburg","Am Markt 2","54439","Saarburg"
"Commerzbank Trier","Brotstr. 24","54290","Trier"
"Commerzbank Trier","Simeonstr. 58","54290","Trier"
"Commerzbank Wissen","Rathausstr. 71","57537","Wissen"
"Commerzbank Kreuztal","Siegener Str. 1","57223","Kreuztal"
"Commerzbank Lennestadt","Helmut-Kumpf-Str. 27","57368","Lennestadt"
"Commerzbank","Kaiser Str. 17","51545","Waldbröl"
"Commerzbank","Telegrafen Str. 7","53474","Bad Neuenahr-Ahrweiler"
"Commerzbank Olpe","Am Bratzkopf 1","57462","Olpe"
"Commerzbank Bad Honnef","Mülheimer Str. 2","53604","Bad Honnef"
"Commerzbank","Bigger Platz 2b","59939","Olsberg"
"Commerzbank Attendorn","Bahnhofstr. 2","57439","Attendorn"
"Commerzbank Wiehl","Bahnhofstr. 10","51674","Wiehl"
"Commerzbank Hennef","Frankfurter Str. 102","53773","Hennef"
"Commerzbank Bonn","Michaelplatz 6","53177","Bonn"
"Commerzbank Bergneustadt","Kölner Str. 202","51702","Bergneustadt"
"Commerzbank Meschede","Zeughausstr. 1","59872","Meschede"
"Commerzbank Gummersbach","Kaiserstr. 31","51643","Gummersbach"
"Commerzbank Sankt Augustin","Markt 14","53757","Sankt Augustin"
"Commerzbank Siegburg","Kaiserstr. 26","53721","Siegburg"
"Commerzbank Bonn","Friedrich-Breuer-Str. 66-68","53225","Bonn"
"Commerzbank Plettenberg","Grünestr. 7","58840","Plettenberg"
"Commerzbank Bonn","Maximilianstr. 12","53111","Bonn"
"Commerzbank Bonn","Friedensplatz 14","53111","Bonn"
"Commerzbank","Martin Str. 10","53359","Rheinbach"
"Commerzbank Bonn","Rochusstr. 178","53123","Bonn"
"Commerzbank Troisdorf","Wilhelmstr. 5 a","53840","Troisdorf"
"Commerzbank Bonn","Oppelner Str. 128","53119","Bonn"
"Commerzbank Sundern","Hauptstr. 128","59846","Sundern"
"Commerzbank Overath","Hauptstr. 97","51491","Overath"
"Commerzbank Werdohl","Neustadtstr. 1","58791","Werdohl"
"Commerzbank Neuenrade","Am Stadtgarten 7","58809","Neuenrade"
"Commerzbank Lüdenscheid","Rathausplatz 3 - 7","58507","Lüdenscheid"
"Commerzbank Euskirchen","Alleestr. 3","53879","Euskirchen"
"Commerzbank Köln","Bahnhofstr. 16 - 18","51143","Köln"
"Commerzbank Wipperfürth","Marktplatz 3","51688","Wipperfürth"
"Commerzbank Bergisch Gladbach","Schloßstr. 1","51429","Bergisch Gladbach"
"Commerzbank Halver","Frankfurter Str. 20","58553","Halver"
"Commerzbank Bergisch Gladbach","Siebenmorgen 38","51427","Bergisch Gladbach"
"Commerzbank Altena","Lennestr. 84","58762","Altena"
"Commerzbank","Haupt Str. 29","59755","Arnsberg-Neheim-Hüsten"
"Commerzbank Arnsberg","Hauptstr. 29","59755","Arnsberg"
"Commerzbank Köln","Maternusstr. 8 - 10","50996","Köln"
"Commerzbank Brühl","Uhlstr. 21","50321","Brühl"
"Commerzbank Bergisch Gladbach","Hauptstr. 181","51465","Bergisch Gladbach"
"Commerzbank Hemer","Hauptstr. 221","58675","Hemer"
"Commerzbank Köln","Goltsteinstr. 89","50968","Köln"
"Commerzbank Köln","Kalker Hauptstr. 193 - 195","51103","Köln"
"Commerzbank Köln","Karolingerring 11 - 15","50678","Köln"
"Commerzbank Iserlohn","Schillerplatz 1","58636","Iserlohn"
"Commerzbank Köln","Deutzer Freiheit 77-79","50679","Köln-Deutz"
"Commerzbank Köln","Frankfurter Str. 28","51065","Köln"
"Commerzbank Soest","Potsdamer Platz 2","59494","Soest"
"Commerzbank Hürth","Luxemburger Str. 330","50354","Hürth"
"Commerzbank Zülpich","Münsterstr. 1","53909","Zülpich"
"Commerzbank Köln","Sülzburgstr. 5 - 7","50937","Köln"
"Commerzbank","Markt Str. 22","59555","Lippstadt"
"Commerzbank Köln","Neumarkt 39","50667","Köln"
"Commerzbank Menden","Unnaer Str. 19","58706","Menden"
"Commerzbank Köln","Unter Sachsenhausen 5 - 7","50667","Köln"
"Commerzbank Erftstadt","Herriger Str. 1","50374","Erftstadt"
"Commerzbank Köln","Rudolfplatz 9","50674","Köln"
"Commerzbank Köln","Ebertplatz 13","50668","Köln"
"Commerzbank Köln","Hohenzollernring 74 - 80","50672","Köln"
"Commerzbank Köln","Dürener Str. 232a","50931","Köln"
"Commerzbank Köln","Neusser Str. 265","50733","Köln"
"Commerzbank","Bergische Land Str. 17","51375","Leverkusen"
"Commerzbank Hagen","Herrenstr. 5","58119","Hagen"
"Commerzbank Köln","Venloer Str. 288","50823","Köln"
"Commerzbank Köln","Aachener Str. 527","50933","Köln"
"Commerzbank Köln","Neusser Str. 500","50737","Köln"
"Commerzbank Köln","Venloer Str. 668","50827","Köln"
"Commerzbank Leverkusen","Wiesdorfer Platz 60","51373","Leverkusen"
"Commerzbank Frechen","Hauptstr. 11 - 13","50226","Frechen"
"Commerzbank Köln","Meerfeldstr. 1 a","50737","Köln"
"Commerzbank Leverkusen","Kölner Str. 45","51379","Leverkusen"
"Commerzbank Hagen","Elberfelder Str. 47","58095","Hagen"
"Commerzbank Ennepetal","Marktstr. 5","58256","Ennepetal"
"Commerzbank Hagen","Voerder Str. 14","58135","Hagen"
"Commerzbank Kerpen","Hahnenstr. 34","50171","Kerpen"
"Commerzbank Schwelm","Neumarkt 21","58332","Schwelm"
"Commerzbank Schwerte","Rathausstr. 19","58239","Schwerte"
"Commerzbank Gevelsberg","Wittener Str. 7 - 9","58285","Gevelsberg"
"Commerzbank Pulheim","Venloer Str. 114","50259","Pulheim"
"Commerzbank Herdecke","Hauptstr. 25","58313","Herdecke"
"Commerzbank Unna","Bahnhofstr. 33","59423","Unna"
"Commerzbank Wetter","Kaiserstr. 85 - 89","58300","Wetter"
"Commerzbank Simmerath","Rathausplatz 8 - 14","52152","Simmerath"
"Commerzbank Düren","Bismarckstr. 2","52351","Düren"
"Commerzbank Bergheim","Hauptstr. 61","50126","Bergheim"
"Commerzbank Beckum","Nordstr. 51","59269","Beckum"
"Commerzbank","West Str. 7","59174","Kamen"
"Commerzbank","Ruhr Str. 29","58452","Witten"
"Commerzbank Hamm","Südring 8","59065","Hamm"
"Commerzbank Oelde","Am Markt 5","59302","Oelde"
"Commerzbank Ahlen","Weststr. 93 - 95","59227","Ahlen"
"Commerzbank Stolberg","Rathausstr. 57","52222","Stolberg"
"Commerzbank Eschweiler","Grabenstr. 73","52249","Eschweiler"
"Commerzbank Jülich","Wilhelmstr. 1","52428","Jülich"
"Commerzbank Aachen","Elsaßstr. 1 - 5","52068","Aachen"
"Commerzbank Aachen","Theaterstr. 21 - 23","52062","Aachen"
"Commerzbank Würselen","Kaiserstr. 148","52146","Würselen"
"Commerzbank Alsdorf","Denkmalplatz 9 - 11","52477","Alsdorf"
"Commerzbank Herzogenrath-Kohlscheid","Markt 10","52134","Herzogenrath-Kohlscheid"
"Commerzbank Herzogenrath","Kleikstr. 48 - 50","52134","Herzogenrath"
"Commerzbank Geilenkirchen","Haihover Str. 8 - 10","52511","Geilenkirchen"
"Commerzbank Geilenkirchen","Lilienthalallee 100","52511","Geilenkirchen"
"Commerzbank Heinsberg","Hochstr. 94","52525","Heinsberg"
"Commerzbank Wiesloch","Ringstr. 23","69168","Wiesloch"
"Commerzbank Walldorf","Johann-Jakob-Astor-Str. 12","69190","Walldorf"
"Commerzbank Heidelberg","Rohrbacher Str. 5 - 7","69115","Heidelberg"
"Commerzbank Michelstadt","Marktplatz 8","64720","Michelstadt"
"Commerzbank Heidelberg","Brückenstr. 32","69120","Heidelberg"
"Commerzbank","Haupt Str. 67","69214","Eppelheim"
"Commerzbank Hockenheim","Obere Hauptstr. 16","68766","Hockenheim"
"Commerzbank Schwetzingen","Dreikönigstr. 5","68723","Schwetzingen"
"Commerzbank Ladenburg","Neckartorplatz 2","68526","Ladenburg"
"Commerzbank","Haupt Str. 63","69469","Weinheim"
"Commerzbank","Maximilian Str. 47","67346","Speyer"
"Commerzbank Viernheim","Kettelerstr. 1","68519","Viernheim"
"Commerzbank Mannheim","Friedrichstr. 14","68199","Mannheim"
"Commerzbank","Frohsinn Str. 16","63739","Aschaffenburg"
"Commerzbank Mannheim","Meerfeldstr. 96","68163","Mannheim"
"Commerzbank Mannheim","Friedrichsplatz 5","68165","Mannheim"
"Commerzbank Mannheim","Schimperstr. 2","68167","Mannheim"
"Commerzbank Mannheim","P 2, 12","68161","Mannheim"
"Commerzbank Mannheim","Waldhofstr. 37","68169","Mannheim"
"Commerzbank Ludwigshafen","Bismarckstr. 41","67059","Ludwigshafen"
"Commerzbank Ludwigshafen","Hemshofstr. 38","67063","Ludwigshafen"
"Commerzbank Bensheim","Darmstädter Str. 9","64625","Bensheim"
"Commerzbank Mannheim","Sandhofer Str. 321","68307","Mannheim"
"Commerzbank Ludwigshafen","Kirchenstr. 2","67069","Ludwigshafen"
"Commerzbank","Kaiser Str. 36","68623","Lampertheim"
"Commerzbank Frankenthal","Westliche Ringstr. 27","67227","Frankenthal"
"Commerzbank Seligenstadt","Frankfurter Str. 26","63500","Seligenstadt"
"Commerzbank Darmstadt","Heidelberger Landstr. 186","64297","Darmstadt"
"Commerzbank","Ziegler Str. 2","64319","Pfungstadt"
"Commerzbank Neustadt","Konrad-Adenauer-Str. 22","67433","Neustadt"
"Commerzbank Darmstadt","Ludwigsplatz 8 a","64283","Darmstadt"
"Commerzbank Gelnhausen","Am Ziegelturm 7","63571","Gelnhausen"
"Commerzbank Darmstadt","Rheinstr. 14","64283","Darmstadt"
"Commerzbank Worms","Wilhelm-Leuschner-Str. 2","67547","Worms"
"Commerzbank Bad Dürkheim","Kurgartenstr. 2","67098","Bad Dürkheim"
"Commerzbank Darmstadt","Frankfurter Landstr. 154","64291","Darmstadt"
"Commerzbank Dietzenbach","Babenhäuser Str. 22 - 26","63128","Dietzenbach"
"Commerzbank Obertshausen","Beethovenstr. 13","63179","Obertshausen"
"Commerzbank Hanau","Nürnberger Str. 4","63450","Hanau"
"Commerzbank Heusenstamm","Frankfurter Str. 65","63150","Heusenstamm"
"Commerzbank Hanau","Am Markt 10","63450","Hanau"
"Commerzbank Hanau","Herrnstr. 1","63450","Hanau"
"Commerzbank Langen","Bahnstr. 25","63225","Langen"
"Commerzbank Grünstadt","Friedrich-Ebert-Str. 19","67269","Grünstadt"
"Commerzbank Dreieich","Hauptstr. 29 - 33","63303","Dreieich"
"Commerzbank Mühlheim","Bahnhofstr. 14 - 16","63165","Mühlheim"
"Commerzbank Maintal","Kennedystr. 56 - 58","63477","Maintal"
"Commerzbank Neu-Isenburg","Offenbacher Str. 1","63263","Neu-Isenburg"
"Commerzbank","Kaiserstr. 74","63065","Offenbach"
"Commerzbank Groß-Gerau","Mainzer Str. 1","64521","Groß-Gerau"
"Commerzbank Frankfurt am Main","Darmstädter Landstr. 7 - 9","60594","Frankfurt am Main"
"Commerzbank Frankfurt am Main","Schweizer Str. 27","60594","Frankfurt am Main"
"Commerzbank Frankfurt am Main","Berger Str. 188 - 190","60385","Frankfurt am Main"
"Commerzbank Frankfurt am Main","Berger Str. 124 B","60316","Frankfurt am Main"
"Commerzbank Frankfurt am Main","Zeil 53","60313","Frankfurt am Main"
"Commerzbank Frankfurt am Main","Gallusanlage 2","60329","Frankfurt am Main"
"Commerzbank Frankfurt am Main","Kaiserstr. 30","60311","Frankfurt am Main"
"Commerzbank Frankfurt am Main","Roßmarkt 14","60311","Frankfurt am Main"
"Commerzbank Frankfurt am Main","Kaiserstr. 16","60311","Frankfurt am Main"
"Commerzbank Frankfurt am Main","Lyoner Str. 11","60528","Frankfurt am Main"
"Commerzbank Frankfurt am Main","Kaiserstr. 73","60329","Frankfurt am Main"
"Commerzbank Frankfurt am Main","Schillerstr. 15 - 17","60313","Frankfurt am Main"
"Commerzbank Frankfurt am Main","Opernplatz 6","60313","Frankfurt am Main"
"Commerzbank Frankfurt am Main","Hugo-Eckener-Ring","60549","Frankfurt am Main"
"Commerzbank Frankfurt am Main","Mainzer Landstr. 151","60327","Frankfurt am Main"
"Commerzbank Frankfurt am Main","Oeder Weg 116","60318","Frankfurt am Main"
"Commerzbank Frankfurt am Main","Eschersheimer Landstr. 55","60322","Frankfurt am Main"
"Commerzbank Frankfurt am Main","Bockenheimer Landstr. 51 - 53","60325","Frankfurt am Main"
"Commerzbank Frankfurt am Main","Gräfstr. 85","60487","Frankfurt am Main"
"Commerzbank Bad Vilbel","Frankfurter Str. 29 - 33","61118","Bad Vilbel"
"Commerzbank Frankfurt am Main","Eschersheimer Landstr. 248","60320","Frankfurt"
"Commerzbank Frankfurt am Main","Lorscher Str. 8","60489","Frankfurt am Main"
"Commerzbank","Markt Str. 1","65428","Rüsselsheim"
"Commerzbank Frankfurt am Main","Hostatostr. 2","65929","Frankfurt am Main"
"Commerzbank","Hostato Str. 2","65929","Frankfurt"
"Commerzbank Hattersheim","Frankfurter Str. 6 a","65795","Hattersheim"
"Commerzbank Eschborn","Hauptstr. 32","65760","Eschborn"
"Commerzbank Hofheim","Kirschgartenstr. 10 - 12","65719","Hofheim"
"Commerzbank","Eisenbahn Str. 5","67655","Kaiserslautern"
"Commerzbank","Schloß Str. 26","66953","Pirmasens"
"Commerzbank Schwalbach","Marktplatz 17","65824","Schwalbach"
"Commerzbank Bad Soden","Königsteiner Str. 82","65812","Bad Soden"
"Commerzbank Oberursel","Holzweg 8","61440","Oberursel"
"Commerzbank Bad Homburg","Louisenstr. 66","61348","Bad Homburg"
"Commerzbank Mainz-Kastel","Zehnthofstr. 2","55252","Mainz-Kastel"
"Commerzbank Kelkheim","Frankfurter Str. 40 - 42","65779","Kelkheim"
"Commerzbank Friedrichsdorf","Hugenottenstr. 88","61381","Friedrichsdorf"
"Commerzbank Friedberg","Bismarckstr. 10","61169","Friedberg"
"Commerzbank Königstein","Hauptstr. 15","61462","Königstein"
"Commerzbank","Ludwig Str. 1","61231","Bad Nauheim"
"Commerzbank Wiesbaden","Rathausstr. 31 - 35","65203","Wiesbaden"
"Commerzbank Wiesbaden","Wilhelmstr. 7","65185","Wiesbaden"
"Commerzbank Wiesbaden","Wilhelmstr. 44 - 46","65183","Wiesbaden"
"Commerzbank Wiesbaden","Kirchgasse 56","65183","Wiesbaden"
"Commerzbank Wiesbaden","Dotzheimer Str. 147 - 149","65197","Wiesbaden"
"Commerzbank Eltville","Gutenbergstr. 11","65343","Eltville"
"Commerzbank Idstein","Wiesbadener Str. 18","65510","Idstein"
"Commerzbank Taunusstein","Aarstr. 85","65232","Taunusstein"
"Commerzbank","Eisenbahn Str. 10","66424","Homburg"
"Commerzbank","Rickert Str. 5-7","66386","St. Ingbert"
"Commerzbank St Wendel","Am Schloßplatz 2","66606","St Wendel"
"Commerzbank Limburg","Kornmarkt 9","65549","Limburg"
"Commerzbank Saarbrücken","Kaiserstr. 25","66111","Saarbrücken"
"Commerzbank Saarbrücken","Faktoreistr. 4","66111","Saarbrücken"
"Commerzbank Diez","Rosenstr. 20","65582","Diez"
"Commerzbank Saarlouis","Deutsche Str. 13","66740","Saarlouis"
"Commerzbank","Bahnhof Str. 20","73430","Aalen"
"Commerzbank Schwäbisch Gmünd","Bocksgasse 9","73525","Schwäbisch Gmünd"
"Commerzbank Göppingen","Gerberstr. 13","73033","Göppingen"
"Commerzbank Kirchheim","Marktstr. 40","73230","Kirchheim"
"Commerzbank Schorndorf","Oberer Marktplatz 6","73614","Schorndorf"
"Commerzbank Plochingen","Esslinger Str. 64","73207","Plochingen"
"Commerzbank Schwäbisch Hall","Neue Str. 9","74523","Schwäbisch Hall"
"Commerzbank Nürtingen","Neckarsteige 2","72622","Nürtingen"
"Commerzbank Sigmaringen","Antonstr. 14","72488","Sigmaringen"
"Commerzbank Reutlingen","Unter den Linden 1","72762","Reutlingen"
"Commerzbank","Ritter Str. 7","73728","Esslingen Am Neckar"
"Commerzbank Esslingen","Bahnhofstr. 28","73728","Esslingen"
"Commerzbank","Graben Str. 5","71522","Backnang"
"Commerzbank","Bahnhof Str. 3","71332","Waiblingen"
"Commerzbank Filderstadt","Nuertinger Str. 12","70794","Filderstadt"
"Commerzbank Fellbach","Bahnhofstr. 97","70736","Fellbach"
"Commerzbank","Kirchheimer Str. 55a","70619","Stuttgart"
"Commerzbank","Rosgarten Str. 1","78462","Konstanz"
"Commerzbank Leinfelden-Echterdingen","Hauptstr. 91","70771","Leinfelden-Echterdingen"
"Commerzbank Stuttgart","Haussmannstr. 181","70188","Stuttgart"
"Commerzbank Stuttgart","König-Karl-Str. 61","70372","Stuttgart"
"Commerzbank Albstadt","Sonnenstr. 15","72458","Albstadt"
"Commerzbank Stuttgart","Olgastr. 32","70182","Stuttgart"
"Commerzbank Stuttgart","Epplestr. 10","70597","Stuttgart"
"Commerzbank Stuttgart","Friedrichstraße","70174","Stuttgart"
"Commerzbank Stuttgart","Filderbahnstr. 43","70567","Stuttgart"
"Commerzbank","Karl Straße 4","72072","Tübingen"
"Commerzbank Stuttgart","Rotebühlstr. 44","70178","Stuttgart"
"Commerzbank Stuttgart","Rosenbergplatz 1","70193","Stuttgart"
"Commerzbank Stuttgart","Stuttgarter Str. 82","70469","Stuttgart"
"Commerzbank Stuttgart","Unterländer Str. 34","70435","Stuttgart"
"Commerzbank Stuttgart","Hauptstr. 8","70563","Stuttgart"
"Commerzbank","Solitude Str. 20","71638","Ludwigsburg"
"Commerzbank Stuttgart","Loewen-Markt 9","70499","Stuttgart"
"Commerzbank Böblingen","Bahnhofstr. 18","71034","Böblingen"
"Commerzbank Sindelfingen","Marktplatz 5","71063","Sindelfingen"
"Commerzbank","Haupt Str. 11","74321","Bietigheim-Bissingen"
"Commerzbank Leonberg","Eltinger Str. 55","71229","Leonberg"
"Commerzbank AG","Friedrich Str. 35","72336","Balingen"
"Commerzbank","Kaiser Str. 37","74072","Heilbronn"
"Commerzbank","Bahnhof Str. 35","78532","Tuttlingen"
"Commerzbank Herrenberg","Seestr. 9","71083","Herrenberg"
"Commerzbank","Markt Str. 34","74172","Neckarsulm"
"Commerzbank Singen","August-Ruf-Str. 6","78224","Singen"
"Commerzbank Trossingen","Hauptstr. 63","78647","Trossingen"
"Commerzbank Rottweil","Hochbrücktorstr. 26","78628","Rottweil"
"Commerzbank","Bahnhof Str. 90","75417","Mühlacker"
"Commerzbank Mosbach","Keßlergasse 12","74821","Mosbach"
"Commerzbank Villingen-Schwenningen","Uhlandstr. 2","78054","Villingen-Schwenningen"
"Commerzbank Pforzheim","Westl Karl-Friedrich-S 70","75172","Pforzheim"
"Commerzbank","Karl Str. 47","78166","Donaueschingen"
"Commerzbank Villingen-Schwenn","Am Niederen Tor 1","78050","Villingen-Schwenn"
"Commerzbank Sinsheim","Hauptstr. 95 - 97","74889","Sinsheim"
"Commerzbank Freudenstadt","Marktplatz 63","72250","Freudenstadt"
"Commerzbank","Haupt Str. 23","78713","Schramberg"
"Commerzbank","Bahnhof Str. 2","76646","Bruchsal"
"Commerzbank","Kronen Str. 22","76275","Ettlingen"
"Commerzbank Karlsruhe","Karl-Friedrich-Str. 7","76133","Karlsruhe"
"Commerzbank Karlsruhe","Lammstr. 9","76133","Karlsruhe"
"Commerzbank Karlsruhe","Amalienstr. 93","76133","Karlsruhe"
"Commerzbank Baden-Baden","Lichtentaler Str. 27","76530","Baden-Baden"
"Commerzbank Baden-Baden","Augustaplatz 4","76530","Baden-Baden"
"Commerzbank Karlsruhe","Rheinstr. 30","76185","Karlsruhe"
"Commerzbank","Bahnhof Str. 15","76437","Rastatt"
"Commerzbank","Friedrich Str. 7","77815","Bühl"
"Commerzbank Offenburg","Hauptstr. 34 b","77652","Offenburg"
"Commerzbank","Schiller Str. 18","77933","Lahr"
"Commerzbank","Lamm Str. 31","79312","Emmendingen"
"Commerzbank Freiburg im Breisgau","Münsterstr. 2","79098","Freiburg im Breisgau"
"Commerzbank Bad Säckingen","Steinbrückstr. 1","79713","Bad Säckingen"
"Commerzbank Landau in der Pfalz","Marktstr. 35","76829","Landau in der Pfalz"
"Commerzbank","Markt Str. 35","76829","Landau In Der Pfalz"
"Commerzbank Kehl","Hauptstr. 2","77694","Kehl"
"Commerzbank Bad Krozingen","Lammplatz 12","79189","Bad Krozingen"
"Commerzbank Rheinfelden","Oberrheinplatz 5","79618","Rheinfelden"
"Commerzbank Lörrach","Basler Str. 163","79539","Lörrach"
"Commerzbank Weil am Rhein","Hauptstr. 293 / 1","79576","Weil am Rhein"
"Commerzbank München","Promenadeplatz 7","80333","München"
"Commerzbank München","Maximiliansplatz 19","80333","München"
"Commerzbank München","Gabelsberger Str. 63","80333","München"
"Commerzbank München","Leopoldstraße 37","80802","München"
"Commerzbank München","Friedrichstr. 29","80801","München"
"Commerzbank München","Bob-van-Benthem-Platz 1","80469","München"
"Commerzbank München","Bahnhofplatz 1","80335","München"
"Commerzbank München","Max-Weber-Platz 10","81675","München"
"Commerzbank München","Sonnenstr. 31","80331","München"
"Commerzbank München","Prinzregentenplatz 7","81675","München"
"Commerzbank","Baader Str. 80","80469","München"
"Commerzbank München","Weißenburger Str. 1","81667","München"
"Commerzbank München","Bülowstr. 7","81679","München"
"Commerzbank München","Bonner Str. 2","80804","München"
"Commerzbank München","Wörthstr. 51","81667","München"
"Commerzbank München","Clemensstr. 129","80796","München"
"Commerzbank München","Bayerstr. 38","80335","München"
"Commerzbank München","Tegernseer Platz 1","81541","München"
"Commerzbank München","Leopoldstr. 230","80807","München"
"Commerzbank","Cosima Str. 4","81927","München"
"Commerzbank München","Rotkreuzplatz 8","80634","München"
"Commerzbank","Kreiller Str. 3","81673","München"
"Commerzbank München","Plinganserstr. 42","81369","München"
"Commerzbank München","Bertholdstr. 31","80809","München"
"Commerzbank München","Schmalkaldener Str. 59","80807","München"
"Commerzbank München","Notburgastr. 23","80639","München"
"Commerzbank München","Fürstenrieder Str. 29","80687","München"
"Commerzbank München","Grünwalder Str. 257","81545","München"
"Commerzbank München","Dachauer Str. 266","80992","München"
"Commerzbank München","Boschetsrieder Str. 81 - 83","81379","München"
"Commerzbank München","Thomas-Dehler-Str. 12","81737","Muenchen"
"Commerzbank München","Fürstenrieder Str. 255","81377","München"
"Commerzbank München","Wolfratshauser Str. 216","81479","München"
"Commerzbank","Gleichmann Str. 4","81241","München"
"Commerzbank","Wasserburger Land Str. 211","81827","München"
"Commerzbank Unterhaching","Hauptstr. 49","82008","Unterhaching"
"Commerzbank München","Steinkirchner Str. 30","81475","München"
"Commerzbank Pullach","Franziskus-Festing-Str. 1","82049","Pullach"
"Commerzbank","Rosenheimer Land Str. 87","85521","Ottobrunn"
"Commerzbank Gräfelfing","Bahnhofstr. 93","82166","Gräfelfing"
"Commerzbank Oberschleißheim","Am Stutenanger 6","85764","Oberschleißheim"
"Commerzbank Grünwald","Marktplatz 7","82031","Grünwald"
"Commerzbank Dachau","Münchner Str. 46","85221","Dachau"
"Commerzbank Germering","Untere Bahnhofstr. 58","82110","Germering"
"Commerzbank Starnberg","Bahnhofplatz 10","82319","Starnberg"
"Commerzbank Fürstenfeldbruck","Augsburger Str. 2","82256","Fürstenfeldbruck"
"Commerzbank Erding","Lange Zeile 18","85435","Erding"
"Commerzbank","Obere Haupt Str. 10","85354","Freising"
"Commerzbank","Egerland Str. 44","82538","Geretsried"
"Commerzbank","Markt Str. 30","83646","Bad Tölz"
"Commerzbank Miesbach","Stadtplatz 5","83714","Miesbach"
"Commerzbank Rosenheim","Bahnhofstr. 15","83022","Rosenheim"
"Commerzbank Rosenheim","Max-Josefs-Platz 34","83022","Rosenheim"
"Commerzbank Rottach-Egern","Nördliche Hauptstr. 4","83700","Rottach-Egern"
"Commerzbank Augsburg","Landsberger Str. 59","86179","Augsburg"
"Commerzbank Landsberg","Hauptplatz 150","86899","Landsberg"
"Commerzbank Augsburg","Neuburger Str. 39","86167","Augsburg"
"Commerzbank Augsburg","Holbeinstr. 2","86150","Augsburg"
"Commerzbank Augsburg","Bgm.-Aurnhammer-Str. 35","86199","Augsburg"
"Commerzbank Landshut","Altstadt 75","84028","Landshut"
"Commerzbank Gersthofen","Augsburger Str. 7","86368","Gersthofen"
"Commerzbank Waldkraiburg","Berliner Str. 5","84478","Waldkraiburg"
"Commerzbank Ingolstadt","Münchener Str. 23","85051","Ingolstadt"
"Commerzbank Ingolstadt","Rathausplatz 3","85049","Ingolstadt"
"Commerzbank Mühldorf","Stadtplatz 10 - 14","84453","Mühldorf"
"Commerzbank Kaufbeuren","Schmiedgasse 23","87600","Kaufbeuren"
"Commerzbank Garmisch-Partenkirchen","Marienplatz 13 - 15","82467","Garmisch-Partenkirchen"
"Commerzbank","Marien Str. 1a","84503","Altötting"
"Commerzbank","Bahnhof Str. 7","83278","Traunstein"
"Commerzbank","Pfleg Str. 1","86609","Donauwörth"
"Commerzbank Füssen","Luitpoldstr. 5","87629","Füssen"
"Commerzbank Eggenfelden","Stadtplatz 16","84307","Eggenfelden"
"Commerzbank Günzburg","Augsburger Str. 2","89312","Günzburg"
"Commerzbank Kempten","Residenzplatz 33","87435","Kempten"
"Commerzbank Memmingen","Weinmarkt 10 - 12","87700","Memmingen"
"Commerzbank Bad Reichenhall","Salzburger Str. 3","83435","Bad Reichenhall"
"Commerzbank","Haupt Str. 15","83395","Freilassing"
"Commerzbank Nördlingen","Rübenmarkt 5","86720","Nördlingen"
"Commerzbank Ulm","Neue Str. 80","89073","Ulm"
"Commerzbank","Brenz Str. 19","89518","Heidenheim"
"Commerzbank Ulm","Neue Str. 44","89073","Ulm"
"Commerzbank Isny im Allgäu","Wassertorstr. 6","88316","Isny"
"Commerzbank Biberach","Marktplatz 30","88400","Biberach"
"Commerzbank Ravensburg","Marienplatz 4","88212","Ravensburg"
"Commerzbank Bad Saulgau","Hauptstr. 75","88348","Bad Saulgau"
"Commerzbank Lindau (Bodensee)","Langenweg 35","88131","Lindau (Bodensee)"
"Commerzbank Friedrichshafen","Friedrichstr. 97","88045","Friedrichshafen"
"Commerzbank Überlingen","Hofstatt 8","88662","Überlingen"
"Commerzbank Landau an der Isar","Marienplatz 3","94405","Landau an der Isar"
"Commerzbank Regensburg","Prüfeninger Str. 7","93049","Regensburg"
"Commerzbank Regensburg","Bismarckplatz 8","93047","Regensburg"
"Commerzbank Regensburg","Neupfarrplatz 14","93047","Regensburg"
"Commerzbank","Bahnhof Str. 1","94315","Straubing"
"Commerzbank Burglengenfeld","Marktplatz 7","93133","Burglengenfeld"
"Commerzbank","Bahnhof Str. 13","92318","Neumarkt I.d.opf."
"Commerzbank Neumarkt","Bahnhofstr. 13","92318","Neumarkt"
"Commerzbank Deggendorf","Oberer Stadtplatz 9","94469","Deggendorf"
"Commerzbank Nittenau","Marktplatz 10","93149","Nittenau"
"Commerzbank Roth","Hauptstr. 9","91154","Roth"
"Commerzbank Roding","Schulstr. 3","93426","Roding"
"Commerzbank Schwandorf","Friedrich-Ebert-Str. 57","92421","Schwandorf"
"Commerzbank Schwabach","Südliche Ringstr. 24","91126","Schwabach"
"Commerzbank","Ring Str. 2-4","94234","Viechtach"
"Commerzbank Cham","Hafnerstr. 1","93413","Cham"
"Commerzbank Cham","Fuhrmannstr. 1 - 3","93413","Cham"
"Commerzbank Nürnberg","Glogauer str. 30 - 38","90473","Nürnberg"
"Commerzbank Amberg","Obere Nabburger Str. 31","92224","Amberg"
"Commerzbank Neunburg","Vorstadt 2","92431","Neunburg"
"Commerzbank Passau","Bahnhofstr. 22","94032","Passau"
"Commerzbank Nürnberg","Dianaplatz 5","90443","Nürnberg"
"Commerzbank Bad Kötzting","Herrenstr. 15","93444","Bad Kötzting"
"Commerzbank Nürnberg","Waldluststr. 125 a","90480","Nürnberg"
"Commerzbank Ansbach","Nürnberger Str. 14","91522","Ansbach"
"Commerzbank Nürnberg","Landgrabenstr. 98","90443","Nürnberg"
"Commerzbank Nürnberg","Allersberger Str. 45","90461","Nürnberg"
"Commerzbank Nürnberg","Nelkenstr. 1","90439","Nürnberg"
"Commerzbank Nürnberg","Spitalgasse 5","90403","Nürnberg"
"Commerzbank Rötz","Böhmerstr. 1","92444","Rötz"
"Commerzbank Nürnberg","Stresemannplatz 11","90489","Nürnberg"
"Commerzbank Nürnberg","Rückertstr. 4","90419","Nürnberg"
"Commerzbank Zirndorf","Fürther Str. 3","90513","Zirndorf"
"Commerzbank Nürnberg","Schnieglinger Str. 16","90419","Nürnberg"
"Commerzbank Nabburg","Regensburger Str. 29","92507","Nabburg"
"Commerzbank Nürnberg","Fürther Str. 212","90429","Nürnberg"
"Commerzbank Sulzbach-Rosenberg","Luitpoldplatz 1","92237","Sulzbach-Rosenberg"
"Commerzbank Nürnberg","Karl-Jatho-Weg 14","90411","Nürnberg"
"Commerzbank Lauf","Marktplatz 12","91207","Lauf"
"Commerzbank Fürth","Gustav-Schickedanz-Str. 17","90762","Fürth"
"Commerzbank Fürth","Rudolf-Breitscheid-Str. 7","90762","Fürth"
"Commerzbank Oberviechtach","Zum Bahnhof 4","92526","Oberviechtach"
"Commerzbank Furth im Wald","Stadtplatz 11","93437","Furth im Wald"
"Commerzbank Lam","Arberstr. 14","93462","Lam"
"Commerzbank Waldmünchen","Marktplatz 17","93449","Waldmünchen"
"Commerzbank","Haupt Str. 16","91054","Erlangen"
"Commerzbank Rothenburg ob der Tauber","Galgengasse 25","91541","Rothenburg ob der Tauber"
"Commerzbank Auerbach","Pfarrstr. 9","91275","Auerbach"
"Commerzbank Weiden","Weigelstr. 1","92637","Weiden"
"Commerzbank Grafenwöhr","Alte Amberger Straße 11","92655","Grafenwöhr"
"Commerzbank","Kolpingplatz 4","91301","Forchheim"
"Commerzbank Pegnitz","Hauptstr. 36","91257","Pegnitz"
"Commerzbank Bayreuth","Bamberger Str. 29","95445","Bayreuth"
"Commerzbank Weidenberg","Bahnhofstr. 6","95466","Weidenberg"
"Commerzbank Bayreuth","Maximilianstr. 38","95444","Bayreuth"
"Commerzbank Tirschenreuth","Maximilianplatz 26","95643","Tirschenreuth"
"Commerzbank","Kaiser Str. 3","97318","Kitzingen"
"Commerzbank Mitterteich","Bachstr. 1","95666","Mitterteich"
"Commerzbank Marktredwitz","Bahnhofstr. 4","95615","Marktredwitz"
"Commerzbank Bad Berneck","Maintalstr. 97","95460","Bad Berneck"
"Commerzbank Wunsiedel","Maximilianstr. 15","95632","Wunsiedel"
"Commerzbank Waldsassen","Prinz-Ludwig-Str. 20","95652","Waldsassen"
"Commerzbank Arzberg","Marktplatz 8","95659","Arzberg"
"Commerzbank Kulmbach","Fritz-Hornschuch-Str. 2","95326","Kulmbach"
"Commerzbank Würzburg","Beim Grafeneckart 11","97070","Würzburg"
"Commerzbank Münchberg","Ottostr. 1","95213","Münchberg"
"Commerzbank Selb","Schillerstr. 17","95100","Selb"
"Commerzbank Schwarzenbach a d Saale","August-Bebel-Str. 8","95126","Schwarzenbach a d Saale"
"Commerzbank Helmbrechts","Luitpoldstr. 17","95233","Helmbrechts"
"Commerzbank","Spital Str. 34","97421","Schweinfurt"
"Commerzbank","Mühlen Str. 10","97877","Wertheim"
"Commerzbank Rehau","Bahnhofstr. 22","95111","Rehau"
"Commerzbank","Hindenburg Str. 2","96450","Coburg"
"Commerzbank Hof","Wunsiedler Str. 5","95032","Hof"
"Commerzbank Selbitz","Marktplatz 5","95152","Selbitz"
"Commerzbank Hof","Altstadt 29","95028","Hof"
"Commerzbank Hof","Ernst-Reuter-Str. 119","95030","Hof"
"Commerzbank Naila","Bahnhofstr. 7","95119","Naila"
"Commerzbank Bad Steben","Poststr. 2","95138","Bad Steben"
"Commerzbank","Bahnhof Str. 43","96515","Sonneberg"
"Commerzbank Bad Kissingen","Marktplatz 1","97688","Bad Kissingen"
"Commerzbank Hildburghausen","Untere Marktstr. 4","98646","Hildburghausen"
"Commerzbank Suhl","Steinweg 32","98527","Suhl"
"Commerzbank Meiningen","Bernhardstr. 2","98617","Meiningen"
"Commerzbank Ilmenau","Schwanitzstr. 2 b","98693","Ilmenau"
"Commerzbank","Krappgarten Str. 41","99310","Arnstadt"
"Commerzbank","Schiller Str. 16","99423","Weimar"
"Commerzbank Erfurt","Juri-Gagarin-Ring 86","99084","Erfurt"
"Commerzbank Erfurt","Bahnhofstr. 38","99084","Erfurt"
"Commerzbank Gotha","Hauptmarkt 41","99867","Gotha"
"Commerzbank Apolda","Brauhof 4","99510","Apolda"
"Commerzbank Erfurt","Erfurter Str. 72","99195","Mittelhausen"
"Commerzbank Eisenach","Johannisplatz 18 - 20","99817","Eisenach"
"Commerzbank Sömmerda","Weißenseer Str. 26","99610","Sömmerda"
"Commerzbank Mühlhausen","Untermarkt 33","99974","Mühlhausen"
"Commerzbank","Bahnhof Str. 21","99734","Nordhausen"
