X,Y,FID,Name,Kurzname,Strasse,Hn,PLZ,Ort,Telefon,Telefax,E_Mail,Homepage,Typ,RS,Gemeinde,Verwaltung,Kreis,Regierungs,Bundesland
13.692350000339536,51.072789998846204,1,Berufsfeuerwehr Dresden - Brand- und Katastrophenschutzamt - Leitstelle Dresden,Brand- und Katastrophenschutzamt - LS Dresden,Scharfenberger Straße,47,01139,Dresden,0351/8155-0,0351/8155-253,feuerwehr@dresden.de,www.dresden.de/feuerwehr,Verwaltung und Leitstelle,146120000000,Dresden,Dresden,Dresden, ,Sachsen
13.756350000345778,51.081329998996274,2,Berufsfeuerwehr Dresden - Feuer- und Rettungswache 1 - Albertstadt,FRW 1 - Albertstadt,Magazinstraße,1,01099,Dresden,0351/8155-120,0351/8155-140,feuerwehr@dresden.de,www.dresden.de/feuerwehr,Feuer- und Rettungswache,146120000000,Dresden,Dresden,Dresden, ,Sachsen
13.690199999684328,51.072179999478898,3,Berufsfeuerwehr Dresden - Feuer- und Rettungswache 2 - Übigau,FRW 2 - Übigau,Washingtonstraße,59,01139,Dresden,0351/8155-220,0351/8155-240,feuerwehr@dresden.de,www.dresden.de/feuerwehr,Feuer- und Rettungswache,146120000000,Dresden,Dresden,Dresden, ,Sachsen
13.793910000760448,51.041439999574713,4,Berufsfeuerwehr Dresden - Feuer- und Rettungswache 3 - Striesen,FRW 3 - Striesen,Schlüterstraße,39,01277,Dresden,0351/8155-320,0351/8155-340,feuerwehr@dresden.de,www.dresden.de/feuerwehr,Feuer- und Rettungswache,146120000000,Dresden,Dresden,Dresden, ,Sachsen
13.696130000230507,51.038319999661375,5,Berufsfeuerwehr Dresden - Feuer- und Rettungswache 4 - Löbtau,FRW 4 - Löbtau,Clara-Zetkin-Straße,24,01159,Dresden,0351/8155-420,0351/8155-440,feuerwehr@dresden.de,www.dresden.de/feuerwehr,Feuer- und Rettungswache,146120000000,Dresden,Dresden,Dresden, ,Sachsen
13.745580000860771,51.034799998937387,6,Berufsfeuerwehr Dresden - Feuer- und Rettungswache 5 - Altstadt,FRW 5 - Altstadt,Strehlener Straße,24,01069,Dresden,0351/8155-520,0351/8155-540,feuerwehr@dresden.de,www.dresden.de/feuerwehr,Feuer- und Rettungswache,146120000000,Dresden,Dresden,Dresden, ,Sachsen
14.438929999797123,51.187069999901354,7,Berufsfeuerwehr Bautzen,FW Bautzen,Gesundbrunnenring,23,02625,Bautzen,03591/6798-0,03591/6798-66,feuerwehr@bautzen.de,www.feuerwehr-bautzen.de,Feuerwache,146250020020,Bautzen,Bautzen,Bautzen, ,Sachsen
14.976730001006855,51.150020000340781,8,Berufsfeuerwehr Görlitz,FW Görlitz,Krölstraße,26,02826,Görlitz,03581/486-411,03581/486-410,feuerwehr@goerlitz.de,www.feuerwehr.goerlitz.de,Feuerwache,146260110110,Görlitz,Görlitz,Görlitz, ,Sachsen
14.273940000104606,51.449989999233672,9,Berufsfeuerwehr Hoyerswerda - Hauptfeuerwache,HFW Hoyerswerda,Liselotte-Herrmann-Straße,89a,02977,Hoyerswerda,03571/4573-60,03571/458955,feuerwehr@hoyerswerda-stadt.de,www.hoyerswerda.de,Feuerwache,146250240240,Hoyerswerda,Hoyerswerda,Bautzen, ,Sachsen
14.272930000651181,51.449159999182825,10,Berufsfeuerwehr Hoyerswerda - Integrierte Regionalleitstelle Ostsachsen,IRLS Ostsachsen,Merzdorfer Straße,1,02977,Hoyerswerda,03571/4765-0,03571/4765-111,verwaltung@irls-hoyerswerda.de,www.kreis-goerlitz.de,Leitstelle,146250240240,Hoyerswerda,Hoyerswerda,Bautzen, ,Sachsen
14.337790000349225,51.733349999235081,11,Berufsfeuerwehr Cottbus - Feuer- und Rettungswache 1 und Regionalleitstelle Lausitz,FRW 1 - RLS Lausitz,Dresdener Straße,46,03050,Cottbus,0355/632-0,0355/632-138,info@feuerwehr.cottbus.de,www.cottbus.de,Feuer- und Rettungswache mit Leitstelle,120520000000,Cottbus,Cottbus,Cottbus, ,Brandenburg
14.335300000269303,51.765829999988384,12,Berufsfeuerwehr Cottbus - Feuer- und Rettungswache 2,FRW 2 - Cottbus,Ewald-Haase-Straße,3,03044,Cottbus,0355/632-0,0355/632-138,info@feuerwehr.cottbus.de,www.cottbus.de,Feuer- und Rettungswache,120520000000,Cottbus,Cottbus,Cottbus, ,Brandenburg
12.368659999573309,51.342909998793907,13,Berufsfeuerwehr Leipzig - Branddirektion - Hauptfeuerwache,BD - HFW,Goerdelerring,7,04109,Leipzig,0341/123-0, ,feuerwehr@leipzig.de,www.leipzig.de,Feuerwache,147130000000,Leipzig,Leipzig,Leipzig, ,Sachsen
12.395909999681985,51.31272999939825,14,Berufsfeuerwehr Leipzig - Feuerwache Süd - Leipzig-Marienbrunn,FW Süd,Zwickauer Straße,59,04277,Leipzig,0341/123-0, ,feuerwehr@leipzig.de,www.leipzig.de,Feuerwache,147130000000,Leipzig,Leipzig,Leipzig, ,Sachsen
12.366709999669062,51.369629999408573,15,Berufsfeuerwehr Leipzig - Feuerwache Nord - Leipzig-Gohlis,FW Nord,Matthissonstraße,4,04157,Leipzig,0341/123-0, ,feuerwehr@leipzig.de,www.leipzig.de,Feuerwache,147130000000,Leipzig,Leipzig,Leipzig, ,Sachsen
12.308529999453905,51.30102999911432,16,Berufsfeuerwehr Leipzig - Feuerwache Südwest - Leipzig-Großzschocher und Integrierte Regionalleitstelle,FW Südwest - ILS,Gerhard-Ellrodt-Straße,29d,04249,Leipzig,0341/123-0, ,feuerwehr@leipzig.de,www.leipzig.de,Feuerwache mit Leitstelle,147130000000,Leipzig,Leipzig,Leipzig, ,Sachsen
12.333040000301187,51.329299998814925,17,Berufsfeuerwehr Leipzig - Feuerwache West - Leipzig-Plagwitz,FW West,Lauchstädter Straße,37,04229,Leipzig,0341/123-0, ,feuerwehr@leipzig.de,www.leipzig.de,Feuerwache,147130000000,Leipzig,Leipzig,Leipzig, ,Sachsen
12.4577300006606,51.36569999895795,18,Berufsfeuerwehr Leipzig - Feuerwache Nordost - Leipzig-Heiterblick,FW Nordost,Torgauer Straße,310,04347,Leipzig,0341/123-0, ,feuerwehr@leipzig.de,www.leipzig.de,Feuerwache,147130000000,Leipzig,Leipzig,Leipzig, ,Sachsen
12.454979999844436,51.00205999931373,19,Berufsfeuerwehr Altenburg,FW Altenburg,Remsaer Straße,4,04600,Altenburg,03447/594-350,03447/594-359,feuerwehr@stadt-altenburg.de,www.feuerwehr-altenburg.eu,Feuerwache,160770001001,Altenburg,Altenburg,Altenburger Land, ,Thüringen
11.935950000283245,51.478559999231749,20,Berufsfeuerwehr Halle - Hauptwache,HW Halle,An der Feuerwache,5,06124,Halle (Saale),0345/221-5230,0345/221-5250,feuerwehr@halle.de,www.feuerwehr-halle.de,Feuerwache,150020000000,Halle (Saale),Halle (Saale),Halle (Saale), ,Sachsen-Anhalt
11.978320000280052,51.465189998759193,21,Berufsfeuerwehr Halle - Feuerwache Süd,FW Süd,Liebenauer Straße,123,06110,Halle (Saale),0345/221-3411, ,feuerwehr@halle.de,www.feuerwehr-halle.de,Feuerwache,150020000000,Halle (Saale),Halle (Saale),Halle (Saale), ,Sachsen-Anhalt
12.238989999551942,51.808889999546864,22,Berufsfeuerwehr Dessau-Roßlau,FW Dessau-Roßlau,Innsbrucker Straße,8,06849,Dessau-Roßlau,0340/204-2037,0340/204-2937,brandschutz@dessau-rosslau.de,www.dessau-rosslau.de,Feuerwache,150010000000,Dessau-Roßlau,Dessau-Roßlau,Dessau-Roßlau, ,Sachsen-Anhalt
12.078819999666043,50.894429999496374,23,Berufsfeuerwehr Gera - Feuerwache 1,FW 1,Berliner Straße,153,07546,Gera,0365/488-20,0365/488-22222,feuerwehr@gera.de,www.feuerwehr-gera.de,Feuer- und Rettungswache,160520000000,Gera,Gera,Gera, ,Thüringen
12.079069999809404,50.8489599991372,24,Berufsfeuerwehr Gera - Feuerwache 2,FW 2,Zoitzbergstraße,5,07551,Gera, , ,feuerwehr@gera.de,www.feuerwehr-gera.de,Feuerwache,160520000000,Gera,Gera,Gera, ,Thüringen
11.591700000081039,50.932059998891106,25,Berufsfeuerwehr Jena - Feuerwache Nord und Gefahrenabwehrzentrum,FW Nord - GAZ,Am Anger,28,07743,Jena,03641/49-9111,03641/442811,feuerwehr@jena.de,feuerwehr.jena.de,Feuerwache mit Leitstelle,160530000000,Jena,Jena,Jena, ,Thüringen
11.592460000504964,50.881349999379161,26,Berufsfeuerwehr Jena - Feuerwache Süd,FW Süd,Parkstraße,10,07745,Jena,03641/4040,03641/442811,feuerwehr@jena.de,feuerwehr.jena.de,Feuerwache,160530000000,Jena,Jena,Jena, ,Thüringen
12.485540000409779,50.724509999182686,27,Berufsfeuerwehr Zwickau - Feuerwehramt und Integrierte Regionalleitstelle,Feuerwehramt - IRLS,Crimmitschauer Straße,35,08056,Zwickau,0375/8337-00,0375/8337-37,feuerwehr@zwickau.de,www.feuerwehr.zwickau.de,Feuerwache mit Leitstelle,145240330330,Zwickau,Zwickau,Zwickau, ,Sachsen
12.161200000665637,50.506519998644826,28,Berufsfeuerwehr Plauen - Feuerwache,FW Plauen,Poeppigstraße,8,08529,Plauen,03741/291-1901,03741/291-1909,berufsfeuerwehr@plauen.de,www.plauen.de,Feuerwache,145230320320,Plauen,Plauen,Vogtlandkreis, ,Sachsen
12.916860000558426,50.827869999269282,29,Berufsfeuerwehr Chemnitz - Feuerwache I,FW I,Schadestraße,11,09112,Chemnitz,0371/488-3701,0371/488-3799,info@feuerwehr-chemnitz.de,www.chemnitz.de,Feuerwache,145110000000,Chemnitz,Chemnitz,Chemnitz, ,Sachsen
12.949069999901308,50.852109999139451,30,Berufsfeuerwehr Chemnitz - Feuerwache II,FW II,Wilhelm-Weber-Straße,15,09131,Chemnitz, , ,info@feuerwehr-chemnitz.de,www.chemnitz.de,Feuerwache,145110000000,Chemnitz,Chemnitz,Chemnitz, ,Sachsen
12.846239999897483,50.802549998745988,31,Berufsfeuerwehr Chemnitz - Feuerwache III,FW III,Jagdschänkenstraße,53,09117,Chemnitz, , ,info@feuerwehr-chemnitz.de,www.chemnitz.de,Feuerwache,145110000000,Chemnitz,Chemnitz,Chemnitz, ,Sachsen
12.917560000050303,50.827289999266455,32,Berufsfeuerwehr Chemnitz - Rettungszweckverband Chemnitz-Erzgebirge,RZV Chemnitz-Erzgebirge,Schadestraße,17,09112,Chemnitz, , ,info@feuerwehr-chemnitz.de,www.chemnitz.de,Rettungswache,145110000000,Chemnitz,Chemnitz,Chemnitz, ,Sachsen
13.414660000641398,52.516909998784179,33,Berufsfeuerwehr Berlin - Berliner Feuerwehr,Berliner Feuerwehr,Voltairestraße,2,10179,Berlin,030/387-111,030/387-10939,pressestelle@berliner-feuerwehr.de,www.berliner-feuerwehr.de,Feuerwache,110000000000,Berlin,Berlin,Berlin, ,Berlin
13.468319999403437,52.434189998819825,34,Berufsfeuerwehr Berlin - Feuerwache Buckow,FW Buckow,Johannisthaler Chaussee,222,12351,Berlin,030/387-5200105, ,pressestelle@berliner-feuerwehr.de,www.berliner-feuerwehr.de,Feuerwache,110000000000,Berlin,Berlin,Berlin, ,Berlin
13.282390000020413,52.532249999160278,35,Berufsfeuerwehr Berlin - Feuerwache Charlottenburg-Nord,FW Charlottenburg-Nord,Nikolaus-Groß-Weg,2,13627,Berlin,030/387-3600105, ,pressestelle@berliner-feuerwehr.de,www.berliner-feuerwehr.de,Feuerwache,110000000000,Berlin,Berlin,Berlin, ,Berlin
13.444140000025753,52.511719999453391,36,Berufsfeuerwehr Berlin - Feuerwache Friedrichshain,FW Friedrichshain,Rüdersdorfer Straße,56,10243,Berlin,030/387-1200105, ,pressestelle@berliner-feuerwehr.de,www.berliner-feuerwehr.de,Feuerwache,110000000000,Berlin,Berlin,Berlin, ,Berlin
13.582420000472945,52.52558999953736,37,Berufsfeuerwehr Berlin - Feuerwache Hellersdorf,FW Hellersdorf,Kummerower Ring,80,12619,Berlin,030/387-6200105, ,pressestelle@berliner-feuerwehr.de,www.berliner-feuerwehr.de,Feuerwache,110000000000,Berlin,Berlin,Berlin, ,Berlin
13.308770000607371,52.615379999399892,38,Berufsfeuerwehr Berlin - Feuerwache Hermsdorf,FW Hermsdorf,Heinsestraße,24,13467,Berlin,030/387-2300105, ,pressestelle@berliner-feuerwehr.de,www.berliner-feuerwehr.de,Feuerwache,110000000000,Berlin,Berlin,Berlin, ,Berlin
13.520719999632773,52.484009999558197,39,Berufsfeuerwehr Berlin - Feuerwache Karlshorst,FW Karlshorst,Dönhoffstraße,31,10318,Berlin,030/387-6500105, ,pressestelle@berliner-feuerwehr.de,www.berliner-feuerwehr.de,Feuerwache,110000000000,Berlin,Berlin,Berlin, ,Berlin
13.56912999963186,52.435339999001179,40,Berufsfeuerwehr Berlin - Feuerwache Köpenick,FW Köpenick,Grünauer Straße,140,12557,Berlin,030/387-5400105, ,pressestelle@berliner-feuerwehr.de,www.berliner-feuerwehr.de,Feuerwache,110000000000,Berlin,Berlin,Berlin, ,Berlin
13.429179999864324,52.498629998809569,41,Berufsfeuerwehr Berlin - Feuerwache Kreuzberg,FW Kreuzberg,Wiener Straße,64,10999,Berlin,030/387-1600105, ,pressestelle@berliner-feuerwehr.de,www.berliner-feuerwehr.de,Feuerwache,110000000000,Berlin,Berlin,Berlin, ,Berlin
13.492850000560669,52.523179999443883,42,Berufsfeuerwehr Berlin - Feuerwache Lichtenberg,FW Lichtenberg,Josef-Orlopp-Straße,69,10365,Berlin,030/387-6400105, ,pressestelle@berliner-feuerwehr.de,www.berliner-feuerwehr.de,Feuerwache,110000000000,Berlin,Berlin,Berlin, ,Berlin
13.315499999470752,52.429559999425862,43,Berufsfeuerwehr Berlin - Feuerwache Lichterfelde,FW Lichterfelde,Goethestraße,7,12207,Berlin,030/387-4600105, ,pressestelle@berliner-feuerwehr.de,www.berliner-feuerwehr.de,Feuerwache,110000000000,Berlin,Berlin,Berlin, ,Berlin
13.380489999444043,52.42957999881164,44,Berufsfeuerwehr Berlin - Feuerwache Marienfelde,FW Marienfelde,Wilhelm-von-Siemens-Straße,15,12277,Berlin,030/387-4700105, ,pressestelle@berliner-feuerwehr.de,www.berliner-feuerwehr.de,Feuerwache,110000000000,Berlin,Berlin,Berlin, ,Berlin
13.536690000648868,52.534989999358345,45,Berufsfeuerwehr Berlin - Feuerwache Marzahn,FW Marzahn,Märkische Allee,181,12681,Berlin,030/387-6100105, ,pressestelle@berliner-feuerwehr.de,www.berliner-feuerwehr.de,Feuerwache,110000000000,Berlin,Berlin,Berlin, ,Berlin
13.333689999736151,52.522669998964616,46,Berufsfeuerwehr Berlin - Feuerwache Moabit,FW Moabit,Jagowstraße,31-34,10555,Berlin,030/387-1400105, ,pressestelle@berliner-feuerwehr.de,www.berliner-feuerwehr.de,Feuerwache,110000000000,Berlin,Berlin,Berlin, ,Berlin
13.438429999638648,52.468989999580046,47,Berufsfeuerwehr Berlin - Feuerwache Neukölln,FW Neukölln,Kirchhofstraße,20,12051,Berlin,030/387-5100105, ,pressestelle@berliner-feuerwehr.de,www.berliner-feuerwehr.de,Feuerwache,110000000000,Berlin,Berlin,Berlin, ,Berlin
13.428980000173908,52.582169999169807,48,Berufsfeuerwehr Berlin - Feuerwache Pankow,FW Pankow,Pasewalker Straße,120,13127,Berlin,030/387-2600105, ,pressestelle@berliner-feuerwehr.de,www.berliner-feuerwehr.de,Feuerwache,110000000000,Berlin,Berlin,Berlin, ,Berlin
13.406670000364125,52.539909999267678,49,Berufsfeuerwehr Berlin - Feuerwache Prenzlauer Berg,FW Prenzlauer Berg,Oderberger Straße,24,10435,Berlin,030/387-1300105, ,pressestelle@berliner-feuerwehr.de,www.berliner-feuerwehr.de,Feuerwache,110000000000,Berlin,Berlin,Berlin, ,Berlin
13.332629999955813,52.501749998857058,50,Berufsfeuerwehr Berlin - Feuerwache Ranke,FW Ranke,Rankestraße,10,10789,Berlin,030/387-3500105, ,pressestelle@berliner-feuerwehr.de,www.berliner-feuerwehr.de,Feuerwache,110000000000,Berlin,Berlin,Berlin, ,Berlin
13.35195999951611,52.553719998781311,51,Berufsfeuerwehr Berlin - Feuerwache Schillerpark,FW Schillerpark,Edinburger Straße,7,13349,Berlin,030/387-2100105, ,pressestelle@berliner-feuerwehr.de,www.berliner-feuerwehr.de,Feuerwache,110000000000,Berlin,Berlin,Berlin, ,Berlin
13.356750000015237,52.484609998888168,52,Berufsfeuerwehr Berlin - Feuerwache Schöneberg,FW Schöneberg,Feurigstraße,58,10827,Berlin,030/387-4400105, ,pressestelle@berliner-feuerwehr.de,www.berliner-feuerwehr.de,Feuerwache,110000000000,Berlin,Berlin,Berlin, ,Berlin
13.210390000108225,52.544799999537041,53,Berufsfeuerwehr Berlin - Feuerwache Spandau-Nord,FW Spandau-Nord,Triftstraße,8-9,13585,Berlin,030/387-3100105, ,pressestelle@berliner-feuerwehr.de,www.berliner-feuerwehr.de,Feuerwache,110000000000,Berlin,Berlin,Berlin, ,Berlin
13.20455999986844,52.520959999182558,54,Berufsfeuerwehr Berlin - Feuerwache Spandau-Süd,FW Spandau-Süd,Betckestraße,13,13595,Berlin,030/387-3200105, ,pressestelle@berliner-feuerwehr.de,www.berliner-feuerwehr.de,Feuerwache,110000000000,Berlin,Berlin,Berlin, ,Berlin
13.330360000115672,52.455969998898532,55,Berufsfeuerwehr Berlin - Feuerwache Steglitz,FW Steglitz,Südendstraße,18a,12169,Berlin,030/387-4200105, ,pressestelle@berliner-feuerwehr.de,www.berliner-feuerwehr.de,Feuerwache,110000000000,Berlin,Berlin,Berlin, ,Berlin
13.296060000647291,52.509059999384064,56,Berufsfeuerwehr Berlin - Feuerwache Suarez,FW Suarez,Suarezstraße,9,14057,Berlin,030/387-3300105, ,pressestelle@berliner-feuerwehr.de,www.berliner-feuerwehr.de,Feuerwache,110000000000,Berlin,Berlin,Berlin, ,Berlin
13.286169999788019,52.58658999929829,57,Berufsfeuerwehr Berlin - Feuerwache Tegel,FW Tegel,Berliner Straße,16,13507,Berlin,030/387-2400105, ,pressestelle@berliner-feuerwehr.de,www.berliner-feuerwehr.de,Feuerwache,110000000000,Berlin,Berlin,Berlin, ,Berlin
13.383850000042266,52.46696999962947,58,Berufsfeuerwehr Berlin - Feuerwache Tempelhof,FW Tempelhof,Borussiastraße,16-17,12103,Berlin,030/387-4300105, ,pressestelle@berliner-feuerwehr.de,www.berliner-feuerwehr.de,Feuerwache,110000000000,Berlin,Berlin,Berlin, ,Berlin
13.366209999503315,52.52184999948124,59,Berufsfeuerwehr Berlin - Feuerwache Tiergarten,FW Tiergarten,Elisabeth-Abegg-Straße,2,10557,Berlin,030/387-1700105, ,pressestelle@berliner-feuerwehr.de,www.berliner-feuerwehr.de,Feuerwache,110000000000,Berlin,Berlin,Berlin, ,Berlin
13.510130000502912,52.450259999275026,60,Berufsfeuerwehr Berlin - Feuerwache Treptow,FW Treptow,Groß-Berliner Damm,18,12487,Berlin,030/387-5300105, ,pressestelle@berliner-feuerwehr.de,www.berliner-feuerwehr.de,Feuerwache,110000000000,Berlin,Berlin,Berlin, ,Berlin
13.403129999963602,52.495509999282184,61,Berufsfeuerwehr Berlin - Feuerwache Urban,FW Urban,Wilmsstraße,19,10961,Berlin,030/387-1500105, ,pressestelle@berliner-feuerwehr.de,www.berliner-feuerwehr.de,Feuerwache,110000000000,Berlin,Berlin,Berlin, ,Berlin
13.184650000566783,52.429299999266107,62,Berufsfeuerwehr Berlin - Feuerwache Wannsee,FW Wannsee,Kronprinzessinnenweg,20,14109,Berlin,030/387-4500105, ,pressestelle@berliner-feuerwehr.de,www.berliner-feuerwehr.de,Feuerwache,110000000000,Berlin,Berlin,Berlin, ,Berlin
13.37000000035018,52.543279999049801,63,Berufsfeuerwehr Berlin - Feuerwache Wedding,FW Wedding,Reinickendorfer Straße,15a,13347,Berlin,030/387-2500105, ,pressestelle@berliner-feuerwehr.de,www.berliner-feuerwehr.de,Feuerwache,110000000000,Berlin,Berlin,Berlin, ,Berlin
13.459750000777232,52.556439999614611,64,Berufsfeuerwehr Berlin - Feuerwache Weißensee,FW Weißensee,Parkstraße,38-39,13086,Berlin,030/387-6300105, ,pressestelle@berliner-feuerwehr.de,www.berliner-feuerwehr.de,Feuerwache,110000000000,Berlin,Berlin,Berlin, ,Berlin
13.320450000819715,52.487509999299895,65,Berufsfeuerwehr Berlin - Feuerwache Wilmersdorf,FW Wilmersdorf,Gasteiner Straße,19-20,10717,Berlin,030/387-3400105, ,pressestelle@berliner-feuerwehr.de,www.berliner-feuerwehr.de,Feuerwache,110000000000,Berlin,Berlin,Berlin, ,Berlin
13.340850000484682,52.587339999400776,66,Berufsfeuerwehr Berlin - Feuerwache Wittenau,FW Wittenau,Roedernallee,55,13437,Berlin,030/387-2200105, ,pressestelle@berliner-feuerwehr.de,www.berliner-feuerwehr.de,Feuerwache,110000000000,Berlin,Berlin,Berlin, ,Berlin
13.265340000659464,52.437169998901275,67,Berufsfeuerwehr Berlin - Feuerwache Zehlendorf,FW Zehlendorf,Charlottenburger Straße,10-12,14169,Berlin,030/387-4100105, ,pressestelle@berliner-feuerwehr.de,www.berliner-feuerwehr.de,Feuerwache,110000000000,Berlin,Berlin,Berlin, ,Berlin
13.07049000017907,52.400749999350587,68,Berufsfeuerwehr Potsdam - Regionalleitstelle Nordwest,RLS Nordwest,Holzmarktstraße,6,14467,Potsdam,0331/3701-0,0331/294195,feuerwehr@rathaus.potsdam.de,www.feuerwehr-potsdam.de,Leitstelle,120540000000,Potsdam,Potsdam,Potsdam, ,Brandenburg
13.07049000017907,52.400749999350587,69,Berufsfeuerwehr Potsdam - Feuer- und Rettungswache Potsdam,FRW Potsdam,Holzmarktstraße,6,14467,Potsdam,0331/3701-0,0331/294195,feuerwehr@rathaus.potsdam.de,www.feuerwehr-potsdam.de,Feuer- und Rettungswache,120540000000,Potsdam,Potsdam,Potsdam, ,Brandenburg
13.041119999788718,52.445219998745635,70,Berufsfeuerwehr Potsdam - Rettungswache Neu Fahrland,RW Neu Fahrland,Am Kirchberg,51,14476,Potsdam,0331/3701-0, ,feuerwehr@rathaus.potsdam.de,www.feuerwehr-potsdam.de,Rettungswache,120540000000,Potsdam,Potsdam,Potsdam, ,Brandenburg
13.110260000231174,52.377009999510427,71,Berufsfeuerwehr Potsdam - Feuer- und Rettungswache Babelsberg,FRW Babelsberg,Fritz-Zubeil-Straße,94,14482,Potsdam,0331/3701-0,0331/292 355,feuerwehr@rathaus.potsdam.de,www.feuerwehr-potsdam.de,Feuer- und Rettungswache,120540000000,Potsdam,Potsdam,Potsdam, ,Brandenburg
12.532550000592895,52.417869998707594,72,Berufsfeuerwehr Brandenburg,FW Brandenburg,Fontanestraße,1,14770,Brandenburg an der Havel,03381/623-101,03381/623-114,feuerwehr@stadt-brandenburg.de,www.feuerwehr-brandenburg.de,Feuer- und Rettungswache mit Leitstelle,120510000000,Brandenburg an der Havel,Brandenburg an der Havel,Brandenburg an der Havel, ,Brandenburg
14.534880000072153,52.331360000065942,73,Berufsfeuerwehr Frankfurt (Oder),FW Frankfurt (Oder),Heinrich-Hildebrand-Straße,21,15232,Frankfurt (Oder),0335/565-3701,0335/565-3701,feuerwehr@frankfurt-oder.de,www.frankfurt-oder.de,Feuer- und Rettungswache,120530000000,Frankfurt (Oder),Frankfurt (Oder),Frankfurt (Oder), ,Brandenburg
13.75036999962315,52.838229999148723,74,Berufsfeuerwehr Eberswalde,FW Eberswalde,Eberswalder Straße,41a,16227,Eberswalde,03334/8191-811,03334/8191-822,feuerwehr-eberswalde@t-online.de,www.agbf.de,Feuerwache,120600052052,Eberswalde,Eberswalde,Barnim, ,Brandenburg
13.277760000515237,53.555549999392824,75,Berufsfeuerwehr Neubrandenburg - Integrierte Regionalleitstelle,IRLS Neubrandenburg,Ziegelbergstraße,50,17033,Neubrandenburg,0395/555-1522,0395/555-291522,feuerwehr@neubrandenburg.de,www.neubrandenburg.de,Leitstelle,130710107107,Neubrandenburg,Neubrandenburg,Mecklenburgische Seenplatte, ,Mecklenburg-Vorpommern
13.41839999981628,54.09188999882376,76,Berufsfeuerwehr Greifswald,FW Greifswald,Wolgaster Straße,63 b,17489,Greifswald,03834/85362601,03834/85362622,feuerwehr@greifswald.de,www.greifswald.de,Feuerwache,130750039039,Greifswald,Greifswald,Vorpommern-Greifswald, ,Mecklenburg-Vorpommern
12.117150000323472,54.077799999035271,77,Berufsfeuerwehr Rostock - Feuerwache 1 - Südstadt - Feuer- und Rettungswache,FRW 1 - Südstadt,Erich-Schlesinger-Straße,24,18059,Rostock,0381/381-3700,0381/3813733,feuerwehr@rostock.de,www.feuerwehr-hro.de,Feuer- und Rettungswache,130030000000,Rostock,Rostock,Rostock, ,Mecklenburg-Vorpommern
12.043009999491767,54.138549999072957,78,Berufsfeuerwehr Rostock - Feuerwache 2 - Lütten Klein - Feuer- und Rettungswache,FRW 2 - Lütten Klein,Ostseeallee,43,18107,Rostock,0381/128740811, ,feuerwehr@rostock.de,www.feuerwehr-hro.de,Feuer- und Rettungswache,130030000000,Rostock,Rostock,Rostock, ,Mecklenburg-Vorpommern
12.113469999375168,54.14498999925825,79,Berufsfeuerwehr Rostock - Feuerwache 3 - Überseehafen,FW 3 - Überseehafen,An der Feuerwache,1,18147,Rostock, , ,feuerwehr@rostock.de,www.feuerwehr-hro.de,Feuerwache,130030000000,Rostock,Rostock,Rostock, ,Mecklenburg-Vorpommern
12.092300000571067,54.154399998844568,80,Berufsfeuerwehr Rostock - Feuerwache See,FW See,Warnowenn,1,18109,Rostock,0381/1270335, ,feuerwehr@rostock.de,www.feuerwehr-hro.de,Feuerwache,130030000000,Rostock,Rostock,Rostock, ,Mecklenburg-Vorpommern
13.091139999481536,54.318109998895942,81,Berufsfeuerwehr Stralsund - Feuerwache,FW Stralsund,Fährwall,18,18439,Stralsund,03831/253-813,03831/253-812,feuerwehr@stralsund.de,www.stralsund.de,Feuerwache,130730088088,Stralsund,Stralsund,Vorpommern-Rügen, ,Mecklenburg-Vorpommern
11.431299999358117,53.59124999918312,82,Berufsfeuerwehr Schwerin - Feuer- und Rettungswache und Integrierte Leitstelle Westmecklenburg,FRW - ILS Westmecklenburg,Graf-Yorck-Straße,21,19061,Schwerin,0385/5000-110,0385/5000-117,berufsfeuerwehr@schwerin.de,www.agbf.de,Feuer- und Rettungswache mit Leitstelle,130040000000,Schwerin,Schwerin,Schwerin, ,Mecklenburg-Vorpommern
11.431299999358117,53.59124999918312,83,Berufsfeuerwehr Schwerin - Fachdienst Feuerwehr und Rettungsdienst,Fachdienst Feuerwehr und Rettungsdienst,Graf-Yorck-Straße,21,19061,Schwerin,0385/5000-100,0385/5000-117,berufsfeuerwehr@schwerin.de,www.agbf.de,Verwaltung,130040000000,Schwerin,Schwerin,Schwerin, ,Mecklenburg-Vorpommern
10.024720000334897,53.5544499992764,84,Berufsfeuerwehr Hamburg - Feuerwehr Hamburg,Feuerwehr Hamburg,Westphalensweg,1,20099,Hamburg,040/42851-0,040/42851-4119,poststelle@feuerwehr.hamburg.de,www.hamburg.de/feuerwehr,Verwaltung,020000000000,Hamburg,Hamburg,Hamburg, ,Hamburg
9.982650000387357,53.546079999470962,85,Berufsfeuerwehr Hamburg - Feuer- und Rettungswache Innenstadt (F11),FRW Innenstadt (F11),Admiralitätstraße,54,20459,Hamburg,040/42851-1100,040/42851-1109,wf11@feuerwehr.hamburg.de,www.hamburg.de/feuerwehr,Feuer- und Rettungswache,020000000000,Hamburg,Hamburg,Hamburg, ,Hamburg
9.944489999985999,53.549589999237767,86,Berufsfeuerwehr Hamburg - Feuer- und Rettungswache Altona (F12),FRW Altona (F12),Mörkenstraße,36,22767,Hamburg,040/42851-1200,040/42851-1209,wf12@feuerwehr.hamburg.de,www.hamburg.de/feuerwehr,Feuer- und Rettungswache,020000000000,Hamburg,Hamburg,Hamburg, ,Hamburg
9.975530000269595,53.568679999143065,87,Berufsfeuerwehr Hamburg - Feuer- und Rettungswache Rotherbaum (F13),FRW Rotherbaum (F13),Sedanstraße,30,20146,Hamburg,040/42851-1300,040/42851-1309,furwrotherbaum@feuerwehr.hamburg.de,www.hamburg.de/feuerwehr,Feuer- und Rettungswache,020000000000,Hamburg,Hamburg,Hamburg, ,Hamburg
9.854110000584457,53.573009999457796,88,Berufsfeuerwehr Hamburg - Feuer- und Rettungswache Osdorf (F14),FRW Osdorf (F14),Harderweg,10,22549,Hamburg,040/42851-1400,040/42851-1409,wf14@feuerwehr.hamburg.de,www.hamburg.de/feuerwehr,Feuer- und Rettungswache,020000000000,Hamburg,Hamburg,Hamburg, ,Hamburg
9.934310000177488,53.591779999114237,89,Berufsfeuerwehr Hamburg - Feuer- und Rettungswache Stellingen (F15),FRW Stellingen (F15),Basselweg,71,22527,Hamburg,040/42851-1500,040/42851-1509,wf15@feuerwehr.hamburg.de,www.hamburg.de/feuerwehr,Feuer- und Rettungswache,020000000000,Hamburg,Hamburg,Hamburg, ,Hamburg
10.001309999314257,53.613859999094657,90,Berufsfeuerwehr Hamburg - Feuer- und Rettungswache Alsterdorf (F16),FRW Alsterdorf (F16),Alsterkrugchaussee,288,22297,Hamburg,040/42851-1600,040/42851-1609,wf16@feuerwehr.hamburg.de,www.hamburg.de/feuerwehr,Feuer- und Rettungswache,020000000000,Hamburg,Hamburg,Hamburg, ,Hamburg
10.117900000319933,53.584539998825136,91,Berufsfeuerwehr Hamburg - Feuer- und Rettungswache Wandsbek (F21),FRW Wandsbek (F21),Stein-Hardenberg-Straße,2,22045,Hamburg,040/42851-2100,040/42851-2109,wf21@feuerwehr.hamburg.de,www.hamburg.de/feuerwehr,Feuer- und Rettungswache,020000000000,Hamburg,Hamburg,Hamburg, ,Hamburg
10.024720000334897,53.5544499992764,92,Berufsfeuerwehr Hamburg - Feuer- und Rettungswache Berliner Tor (F22),FRW Berliner Tor (F22),Westphalensweg,1,20099,Hamburg,040/42851-2200,040/42851-2209,wf22@feuerwehr.hamburg.de,www.hamburg.de/feuerwehr,Feuer- und Rettungswache,020000000000,Hamburg,Hamburg,Hamburg, ,Hamburg
10.044060000475321,53.583079998729382,93,Berufsfeuerwehr Hamburg - Feuer- und Rettungswache Barmbek (F23),FRW Barmbek (F23),Maurienstraße,7-9,22305,Hamburg,040/42851-2300,040/42851-2309,wf23@feuerwehr.hamburg.de,www.hamburg.de/feuerwehr,Feuer- und Rettungswache,020000000000,Hamburg,Hamburg,Hamburg, ,Hamburg
10.118220000619976,53.649899999238208,94,Berufsfeuerwehr Hamburg - Feuer- und Rettungswache Sasel (F24),FRW Sasel (F24),Saseler Kamp,2,22393,Hamburg,040/42851-2400,040/42851-2409,wf24@feuerwehr.hamburg.de,www.hamburg.de/feuerwehr,Feuer- und Rettungswache,020000000000,Hamburg,Hamburg,Hamburg, ,Hamburg
10.081210000356142,53.533159998823926,95,Berufsfeuerwehr Hamburg - Feuer- und Rettungswache Billstedt (F25),FRW Billstedt (F25),Wöhlerstraße,28,22113,Hamburg,040/42851-2500,040/42851-2509,wf25@feuerwehr.hamburg.de,www.hamburg.de/feuerwehr,Feuer- und Rettungswache,020000000000,Hamburg,Hamburg,Hamburg, ,Hamburg
10.203630000399942,53.491219998982601,96,Berufsfeuerwehr Hamburg - Feuer- und Rettungswache Bergedorf (F26),FRW Bergedorf (F26),Sander Damm,2,21031,Hamburg,040/42851-2600,040/42851-2609,wf26@feuerwehr.hamburg.de,www.hamburg.de/feuerwehr,Feuer- und Rettungswache,020000000000,Hamburg,Hamburg,Hamburg, ,Hamburg
10.010099999289633,53.459969999525356,97,Berufsfeuerwehr Hamburg - Feuer- und Rettungswache Harburg (F31),FRW Harburg (F31),Großmoorbogen,8,21079,Hamburg,040/42851-3100,040/42851-3109,wf31@feuerwehr.hamburg.de,www.hamburg.de/feuerwehr,Feuer- und Rettungswache,020000000000,Hamburg,Hamburg,Hamburg, ,Hamburg
9.967150000151642,53.512059999221293,98,Berufsfeuerwehr Hamburg - Technik- und Umweltschutzwache (F32),Technik- und Umweltschutzwache (F32),Neuhöfer Brückenstraße,2,21107,Hamburg,040/42851-3200,040/42851-3209,wf32@feuerwehr.hamburg.de,www.hamburg.de/feuerwehr,Technik- und Umweltschutzwache,020000000000,Hamburg,Hamburg,Hamburg, ,Hamburg
10.019519999594532,53.523039998743485,99,Berufsfeuerwehr Hamburg - Feuer- und Rettungswache Veddel (F33),FRW Veddel (F33),Am Zollhafen,11-13,20539,Hamburg,040/42851-3300,040/42851-3309,furwveddel@feuerwehr.hamburg.de,www.hamburg.de/feuerwehr,Feuer- und Rettungswache,020000000000,Hamburg,Hamburg,Hamburg, ,Hamburg
9.988520000277649,53.505829998993292,100,Berufsfeuerwehr Hamburg - Feuer- und Rettungswache Wilhelmsburg (F34),FRW Wilhelmsburg (F34),Rothenhäuserstraße,73,21107,Hamburg,040/42851-3400,040/42851-3409,wf34@feuerwehr.hamburg.de,www.hamburg.de/feuerwehr,Feuer- und Rettungswache,020000000000,Hamburg,Hamburg,Hamburg, ,Hamburg
9.87941000069538,53.534719999317559,101,Berufsfeuerwehr Hamburg - Feuer- und Rettungswache Finkenwerder (F35),FRW Finkenwerder (F35),Benittstraße,15,21129,Hamburg,040/42851-3500,040/42851-3509,furwfinkenwerder@feuerwehr.hamburg.de,www.hamburg.de/feuerwehr,Feuer- und Rettungswache,020000000000,Hamburg,Hamburg,Hamburg, ,Hamburg
9.898639999373192,53.476409998739804,102,Berufsfeuerwehr Hamburg - Feuer- und Rettungswache Süderelbe (F36),FRW Süderelbe (F36),Waltershofer Straße,1,21147,Hamburg,040/42851-3600,040/42851-3609,geschaeftszimmerf36@feuerwehr.hamburg.de,www.hamburg.de/feuerwehr,Feuer- und Rettungswache,020000000000,Hamburg,Hamburg,Hamburg, ,Hamburg
10.660279999352632,53.882579998772208,103,Berufsfeuerwehr Lübeck - Feuerwache 1 - Hauptwache,HFW 1,Bornhövedstraße,10,23554,Lübeck,0451/122-3800,0451/122-3789,feuerwehr@luebeck.de,fb03.luebeck.de/feuerwehr,Feuerwache,010030000000,Lübeck,Lübeck,Lübeck, ,Schleswig-Holstein
10.677340000349005,53.85147999916304,104,Berufsfeuerwehr Lübeck - Feuer- und Lehrrettungswache 2 - Citywache,FLRW 2 - Citywache,Welsbachstraße,2,23560,Lübeck, , ,feuerwehr@luebeck.de,fb03.luebeck.de/feuerwehr,Feuer- und Rettungswache,010030000000,Lübeck,Lübeck,Lübeck, ,Schleswig-Holstein
10.82126000067948,53.924849998781646,105,Berufsfeuerwehr Lübeck - Feuer- und Rettungswache 3 - Gefahrengutwache,FRW 3 - Gefahrengutwache,Elbingstraße,15,23569,Lübeck, , ,feuerwehr@luebeck.de,fb03.luebeck.de/feuerwehr,Feuer- und Rettungswache,010030000000,Lübeck,Lübeck,Lübeck, ,Schleswig-Holstein
10.800879999462554,53.893649998924488,106,Berufsfeuerwehr Lübeck - Feuerwache 4,FW 4,Am Fischereihafen,1a,23568,Lübeck, , ,feuerwehr@luebeck.de,fb03.luebeck.de/feuerwehr,Feuerwache,010030000000,Lübeck,Lübeck,Lübeck, ,Schleswig-Holstein
11.463000000034592,53.89467999872452,107,Berufsfeuerwehr Wismar - Abteilung Brandschutz,FW Wismar,Frische Grube,13,23966,Wismar,03841/251-3341,03841/251-3342,feuerwehr@wismar.de,berufsfeuerwehr.wismar.de,Feuerwache,130740087087,Wismar,Wismar,Nordwestmecklenburg, ,Mecklenburg-Vorpommern
10.120960000388308,54.331819998846825,108,Berufsfeuerwehr Kiel - Hauptfeuer- und Rettungswache - Integrierte Regionalleitstelle Mitte,HFRW und IRLS Mitte,Westring,325a,24116,Kiel,0431/5905-0,0431/5905-147,info@irls-mitte.de,www.kiel.de,Feuer- und Rettungswache mit Leitstelle,010020000000,Kiel,Kiel,Kiel, ,Schleswig-Holstein
10.152200000684271,54.307909999023032,109,Berufsfeuerwehr Kiel - Feuer- und Rettungswache Ost,FRW Ost,Röntgenstraße,9-11,24143,Kiel, , ,berufsfeuerwehr@kiel.de,www.kiel.de,Feuer- und Rettungswache,010020000000,Kiel,Kiel,Kiel, ,Schleswig-Holstein
10.143769999335623,54.383159999340293,110,Berufsfeuerwehr Kiel - Feuerwache Nord,FW Nord,Boelkestraße,100,24159,Kiel, , ,info@irls-mitte.de,www.kiel.de,Feuerwache,010020000000,Kiel,Kiel,Kiel, ,Schleswig-Holstein
9.963380000127314,54.081599999546313,111,Berufsfeuerwehr Neumünster - Feuer- und Rettungswache,FRW Neumünster,Färberstraße,105-107,24534,Neumünster,04321/3322-105,04321/3322-191,berufsfeuerwehr@neumuenster.de,www.neumuenster.de/feuerwehr,Feuer- und Rettungswache,010040000000,Neumünster,Neumünster,Neumünster, ,Schleswig-Holstein
9.992259999777763,54.065949999534062,112,Berufsfeuerwehr Neumünster - Rettungswache Friedrich-Ebert-Krankenhaus,RW Friedrich-Ebert-Krankenhaus,Friesenstraße,11,24534,Neumünster, , ,berufsfeuerwehr@neumuenster.de,www.neumuenster.de/feuerwehr,Rettungswache,010040000000,Neumünster,Neumünster,Neumünster, ,Schleswig-Holstein
9.438659999912334,54.7779899990256,113,Berufsfeuerwehr Flensburg - Hauptfeuer- und Rettungswache,HFRW Flensburg,Munketoft,16,24937,Flensburg,0461/85-1111,0461/85-2959,berufsfeuerwehr@flensburg.de,www.berufsfeuerwehr.flensburg.de,Feuerwache,010010000000,Flensburg,Flensburg,Flensburg, ,Schleswig-Holstein
9.410969999597043,54.77551999886348,114,Berufsfeuerwehr Flensburg - Rettungswache West,RW West,Quakenweg,10,24941,Flensburg, , ,berufsfeuerwehr@flensburg.de,www.berufsfeuerwehr.flensburg.de,Rettungswache,010010000000,Flensburg,Flensburg,Flensburg, ,Schleswig-Holstein
8.207579999710591,53.163799999215549,115,Berufsfeuerwehr Oldenburg - Feuer- und Rettungswache 1,FRW 1,Ibo-Koch-Straße,6,26127,Oldenburg,0441/235-4444,0441/235-4374,feuerwehr@stadt-oldenburg.de,www.berufsfeuerwehr-oldenburg.de,Feuer- und Rettungswache,034030000000,Oldenburg (Oldb),Oldenburg (Oldb),Oldenburg (Oldb), ,Niedersachsen
8.225270000362045,53.128819999262923,116,Berufsfeuerwehr Oldenburg - Feuer- und Rettungswache 2,FRW 2,Schützenhofstraße,14-16,26135,Oldenburg,0441/235-4444, ,feuerwehr@stadt-oldenburg.de,www.berufsfeuerwehr-oldenburg.de,Feuer- und Rettungswache,034030000000,Oldenburg (Oldb),Oldenburg (Oldb),Oldenburg (Oldb), ,Niedersachsen
8.214430000440839,53.112639998862079,117,Berufsfeuerwehr Oldenburg - Rettungswache 3,RW 3,An den Voßbergen,86,26133,Oldenburg,0441/235-4444, ,feuerwehr@stadt-oldenburg.de,www.berufsfeuerwehr-oldenburg.de,Rettungswache,034030000000,Oldenburg (Oldb),Oldenburg (Oldb),Oldenburg (Oldb), ,Niedersachsen
8.11461000008544,53.521079998763902,118,Berufsfeuerwehr Wilhelmshaven - Hauptfeuer- und Rettungswache 1 - Innenstadt - Gemeinsame Leitstelle FRI - WHV,HFRW 1 - Innenstadt - GLS FRI - WHV,Mozartstraße,11-13,26382,Wilhelmshaven,04421/16-3753,04421/9818156,vb-feuerwehr@wilhelmshaven.de,www.wilhelmshaven.de,Feuer-und Rettungswache mit Leitstelle,034050000000,Wilhelmshaven,Wilhelmshaven,Wilhelmshaven, ,Niedersachsen
8.094760000046113,53.58097999940027,119,Berufsfeuerwehr Wilhelmshaven - Feuer- und Rettungswache 2 - Fedderwardergroden - Wache Nord,FRW 2 - Fedderwardergroden - Wache Nord,Albrechstraße,115,26388,Wilhelmshaven, , ,vb-feuerwehr@wilhelmshaven.de,www.wilhelmshaven.de,Feuer-und Rettungswache mit Leitstelle,034050000000,Wilhelmshaven,Wilhelmshaven,Wilhelmshaven, ,Niedersachsen
8.072619999671382,53.51979999944728,120,Berufsfeuerwehr Wilhelmshaven - Feuerwehr- und Katastrophenschutzzentrum - Bant,Feuerwehr- und Katastrophenschutzzentrum - Bant,Güterstraße,60,26382,Wilhelmshaven, , ,info.feuerwehr@wilhelmshaven.de,www.feuerwehr-whv.de,Feuerwehr- und Katastrophenschutzzentrum,034050000000,Wilhelmshaven,Wilhelmshaven,Wilhelmshaven, ,Niedersachsen
8.082850000336629,53.545259999351543,121,Berufsfeuerwehr Wilhelmshaven - Rettungswache (NEF-Standort) Reinhard-Nieter-Krankenhaus,RW (NEF-Standort) Reinhard-Nieter-Krankenhaus,Friedrich-Paffrath-Straße,100,26389,Wilhelmshaven, , ,vb-feuerwehr@wilhelmshaven.de,www.wilhelmshaven.de,Rettungswache,034050000000,Wilhelmshaven,Wilhelmshaven,Wilhelmshaven, ,Niedersachsen
8.694100000231185,53.861569999430408,122,Berufsfeuerwehr Cuxhaven,FW Cuxhaven,Schulstraße,3,27474,Cuxhaven,04721/700-70700,04721/700-70704,berufsfeuerwehr@cuxhaven.de,www.cuxhaven.de,Feuerwache,033520011011,Cuxhaven,Cuxhaven,Cuxhaven, ,Niedersachsen
8.604930000259623,53.551069998787085,123,Berufsfeuerwehr Bremerhaven,FW Bremerhaven,Zur Hexenbrücke,12,27570,Bremerhaven,0471/590-0,0471/590-1269,feuerwehr@magistrat.bremerhaven.de,www.feuerwehr-bremerhaven.de,Feuerwache,040120000000,Bremerhaven,Bremerhaven,Bremerhaven, ,Bremen
8.619779999528291,53.048659998918239,124,Berufsfeuerwehr Delmenhorst,FRW Delmenhorst,Rudolf-Königer-Straße,35,27753,Delmenhorst,04221/99-2408,04221/99-1233,feuerwehr@delmenhorst.de,www.delmenhorst.de,Feuer- und Rettungswache,034010000000,Delmenhorst,Delmenhorst,Delmenhorst, ,Niedersachsen
8.800849999630096,53.083219998702376,125,Berufsfeuerwehr Bremen - Hauptfeuer- und Rettungswache 1 - Mitte,HFRW 1 - Mitte,Am Wandrahm,24,28195,Bremen,0421/3030-0,0421/3030-11560,office@feuerwehr.bremen.de,www.feuerwehr-bremen.org,Feuer- und Rettungswache mit Leitstelle,040110000000,Bremen,Bremen,Bremen, ,Bremen
8.857529999924735,53.073169998783101,126,Berufsfeuerwehr Bremen - Feuer- und Rettungswache 2 - Ost,FRW 2 - Ost,Bennigsenstraße,16,28207,Bremen, , ,office@feuerwehr.bremen.de,www.feuerwehr-bremen.org,Feuer- und Rettungswache,040110000000,Bremen,Bremen,Bremen, ,Bremen
8.928659999786444,53.058919998823285,127,Berufsfeuerwehr Bremen - Feuer- und Rettungswache 3 - Ost,FRW 3 - Ost,Osterholzer Heerstraße,75,28307,Bremen, , ,office@feuerwehr.bremen.de,www.feuerwehr-bremen.org,Feuer- und Rettungswache,040110000000,Bremen,Bremen,Bremen, ,Bremen
8.787570000688699,53.0731699992564,128,Berufsfeuerwehr Bremen - Feuer- und Rettungswache 4 - Süd,FRW 4 - Süd,Woltmershauser Allee,1,28199,Bremen, , ,office@feuerwehr.bremen.de,www.feuerwehr-bremen.org,Feuer- und Rettungswache,040110000000,Bremen,Bremen,Bremen, ,Bremen
8.705759999480271,53.141069998691407,129,Berufsfeuerwehr Bremen - Feuer- und Rettungswache 5 - West,FRW 5 - West,Gottlieb-Daimler-Straße,8,28237,Bremen, , ,office@feuerwehr.bremen.de,www.feuerwehr-bremen.org,Feuer- und Rettungswache,040110000000,Bremen,Bremen,Bremen, ,Bremen
8.625759999461174,53.180819998693778,130,Berufsfeuerwehr Bremen - Feuer- und Rettungswache 6 - Nord,FRW 6 - Nord,Aumunder Feldstraße,41,28757,Bremen, , ,office@feuerwehr.bremen.de,www.feuerwehr-bremen.org,Feuer- und Rettungswache,040110000000,Bremen,Bremen,Bremen, ,Bremen
9.725039999878787,52.371869999231308,131,Berufsfeuerwehr Hannover - Lage- und Führungszentrum der LHH und Regionalleitstelle,Lage- und Führungszentrum der LHH - RLS,Feuerwehrstraße,1,30169,Hannover,0511/912-0,0511/912-1500,feuerwehr@hannover-stadt.de,www.hannover.de,Leitstelle,032410001001,Hannover,Hannover,Region Hannover, ,Niedersachsen
9.72567999947184,52.389399999280201,132,Berufsfeuerwehr Hannover - Feuer- und Rettungswache 1 - Nordstadt,FRW 1 - Nordstadt,Weidendamm,50,30167,Hannover,0511/912-0,0511/912-1571,feuerwehr@hannover-stadt.de,www.hannover.de,Feuer- und Rettungswache,032410001001,Hannover,Hannover,Region Hannover, ,Niedersachsen
9.650169999832492,52.413109998858531,133,Berufsfeuerwehr Hannover - Feuer- und Rettungswache 2 - Stöcken,FRW 2 - Stöcken,Auf der Klappenburg,3,30419,Hannover,0511/912-0, ,feuerwehr@hannover-stadt.de,www.hannover.de,Feuer- und Rettungswache,032410001001,Hannover,Hannover,Region Hannover, ,Niedersachsen
9.767420000620131,52.358479998711836,134,Berufsfeuerwehr Hannover - Feuer- und Rettungswache 3 - Südstadt,FRW 3 - Südstadt,Jordanstraße,34a,30173,Hannover,0511/912-0, ,feuerwehr@hannover-stadt.de,www.hannover.de,Feuer- und Rettungswache,032410001001,Hannover,Hannover,Region Hannover, ,Niedersachsen
9.699260000542221,52.349169999332382,135,Berufsfeuerwehr Hannover - Feuer- und Rettungswache 4 - Bornum,FRW 4 - Bornum,Nenndorfer Chaussee,5,30453,Hannover,0511/912-0, ,feuerwehr@hannover-stadt.de,www.hannover.de,Feuer- und Rettungswache,032410001001,Hannover,Hannover,Region Hannover, ,Niedersachsen
9.798090000610623,52.393539999024554,136,Berufsfeuerwehr Hannover - Feuer- und Rettungswache 5 - Roderbruch,FRW 5 - Roderbruch,Karl-Wiechert-Allee,60a,30625,Hannover,0511/912-0, ,feuerwehr@hannover-stadt.de,www.hannover.de,Feuer- und Rettungswache,032410001001,Hannover,Hannover,Region Hannover, ,Niedersachsen
9.725039999878787,52.371869999231308,137,Berufsfeuerwehr Hannover - Feuer- und Rettungswache 10 - Calenberger Neustadt,FRW 10 - Calenberger Neustadt,Feuerwehrstraße,1,30169,Hannover,0511/912-0,0511/912-1500,feuerwehr@hannover-stadt.de,www.hannover.de,Feuer- und Rettungswache,032410001001,Hannover,Hannover,Region Hannover, ,Niedersachsen
9.959729999705431,52.158769999449262,138,Berufsfeuerwehr Hildesheim,FW Hildesheim,An der Feuerwache,4-7,31135,Hildesheim,05121/301-2222,05121/301-2269,feuerwehr@stadt-hildesheim.de,www.feuerwehr-hildesheim.de,Feuerwache,032540021021,Hildesheim,Hildesheim,Hildesheim, ,Niedersachsen
8.913340000321819,52.301079999213982,139,Berufsfeuerwehr Minden - Feuer- und Rettungswache Minden,FRW Minden,Marienstraße,75,32425,Minden,0571/8387-0,0571/8387-100,bf@minden.112.de,www.minden112.de,Feuer- und Rettungswache,057700024024,Minden,Minden,Minden-Lübbecke,Detmold,Nordrhein-Westfalen
8.380159999293927,51.910249999363337,140,Berufsfeuerwehr Gütersloh - Feuerwehr & Rettungswache Gütersloh,FRW Gütersloh,Friedrich-Ebert-Straße,40-42,33330,Gütersloh,05241/822003,05241/822067,info@feuerwehr-guetersloh.de,www.kreisfeuerwehr-gt.de,Feuer- und Rettungswache,057540008008,Gütersloh,Gütersloh,Gütersloh,Detmold,Nordrhein-Westfalen
8.553689999421271,52.02583999927441,141,Berufsfeuerwehr Bielefeld - Hauptfeuerwache,HFW Bielefeld,Am Stadtholz,18,33609,Bielefeld,0521/51-2301,0521/51-2241,feuerwehr@bielefeld.de,www.feuerwehr-bielefeld.de,Feuer- und Rettungswache mit Leitstelle,057110000000,Bielefeld,Bielefeld,Bielefeld,Detmold,Nordrhein-Westfalen
8.592229999847998,52.053289998996398,142,Berufsfeuerwehr Bielefeld - Feuer- und Rettungswache Nord,FRW Nord,Herforder Straße,457,33609,Bielefeld, , ,feuerwehr@bielefeld.de,www.feuerwehr-bielefeld.de,Feuer- und Rettungswache,057110000000,Bielefeld,Bielefeld,Bielefeld,Detmold,Nordrhein-Westfalen
8.518959999931889,52.057619998851379,143,Berufsfeuerwehr Bielefeld - Feuer- und Rettungswache West,FRW West,Jöllenbecker Straße,331,33613,Bielefeld, , ,feuerwehr@bielefeld.de,www.feuerwehr-bielefeld.de,Feuer- und Rettungswache,057110000000,Bielefeld,Bielefeld,Bielefeld,Detmold,Nordrhein-Westfalen
8.525260000601961,51.953319999135623,144,Berufsfeuerwehr Bielefeld - Feuer- und Rettungswache Süd,FRW Süd,Krackser Straße,7-9,33659,Bielefeld, , ,feuerwehr@bielefeld.de,www.feuerwehr-bielefeld.de,Feuer- und Rettungswache,057110000000,Bielefeld,Bielefeld,Bielefeld,Detmold,Nordrhein-Westfalen
9.498739999356159,51.321559999440055,145,Berufsfeuerwehr Kassel - Feuer- und Rettungswache 1,FRW 1,Wolfhager Straße,25,34117,Kassel,0561/7884-0,0561/7884-114,feuerwehr@kassel.de,www.kassel.de,Feuer- und Rettungswache mit Leitstelle,066110000000,Kassel,Kassel,Kassel,Kassel,Hessen
9.428740000173789,51.299439998683305,146,Berufsfeuerwehr Kassel - Feuer- und Rettungswache 2,FRW 2,Heinrich-Schütz-Allee,60,34134,Kassel,0561/7884-0, ,feuerwehr@kassel.de,www.kassel.de,Feuer- und Rettungswache mit Leitstelle,066110000000,Kassel,Kassel,Kassel,Kassel,Hessen
8.670359999486601,50.588419999369016,147,Berufsfeuerwehr Gießen,FW Gießen,Steinstraße,1,35390,Gießen,0641/306-3700,0641/306-3709,brandschutzamt@giessen.de,www.giessen.de,Feuerwache,065310005005,Gießen,Gießen,Gießen,Gießen,Hessen
9.940670000192718,51.552759999327058,148,Berufsfeuerwehr Göttingen - Feuerwache Klinikum - Rettungswachenbereich Göttingen Nord,FW Klinikum - RW Göttingen Nord,Zimmermannstraße,2,37075,Göttingen,0551/7075-600, ,feuerwehr@göttingen.de,www.feuerwehr.goettingen.de,Feuer- und Rettungswache,031590016016,Göttingen,Göttingen,Göttingen, ,Niedersachsen
9.951730000423327,51.522639998966163,149,Berufsfeuerwehr Göttingen - Hauptfeuer- und Rettungswache mit Einsatzleitstelle,HFRW - ELS,Breslauer Straße,10,37085,Göttingen,0551/7075-0,0551/7075-126,feuerwehr@göttingen.de,www.feuerwehr.goettingen.de,Feuer- und Rettungswache mit Leitstelle,031590016016,Göttingen,Göttingen,Göttingen, ,Niedersachsen
10.513819999304149,52.276019999492341,150,Berufsfeuerwehr Braunschweig - Hauptwache,HW Braunschweig,Feuerwehrstraße,1,38114,Braunschweig,0531/2345-0,0531/2345-219,feuerwehr@braunschweig.de,www.braunschweig.de,Feuerwache,031010000000,Braunschweig,Braunschweig,Braunschweig, ,Niedersachsen
10.538289999856794,52.235529999472085,151,Berufsfeuerwehr Braunschweig - Feuerwache Süd,FW Süd,Dessaustraße,8,38124,Braunschweig,0531/2345-0,0531/2345-219,feuerwehr@braunschweig.de,www.braunschweig.de,Feuerwache,031010000000,Braunschweig,Braunschweig,Braunschweig, ,Niedersachsen
10.34624999971599,52.152079999334624,152,Berufsfeuerwehr Salzgitter - Hauptfeuer- und Rettungswache 1 - Lebenstedt,HFRW 1 - Lebenstedt,An der Feuerwache,3,38226,Salzgitter,05341/837-0,05341/837-2719,feuerwehr@stadt.salzgitter.de,www.berufsfeuerwehr-salzgitter.de,Feuer- und Rettungswache mit Leitstelle,031020000000,Salzgitter,Salzgitter,Salzgitter, ,Niedersachsen
10.378100000475643,52.064209999213304,153,Berufsfeuerwehr Salzgitter - Feuer- und Rettungswache 2,FRW 2 - Salzgitter,Nord-Süd-Straße,87-89,38259,Salzgitter, , ,feuerwehr@stadt.salzgitter.de,www.berufsfeuerwehr-salzgitter.de,Feuer- und Rettungswache,031020000000,Salzgitter,Salzgitter,Salzgitter, ,Niedersachsen
10.319560000125794,52.153819998925854,154,Berufsfeuerwehr Salzgitter - Rettungswache Am Klinikum,RW Am Klinikum,Kattowitzer Straße,191,38226,Salzgitter, , ,feuerwehr@stadt.salzgitter.de,www.berufsfeuerwehr-salzgitter.de,Rettungswache,031020000000,Salzgitter,Salzgitter,Salzgitter, ,Niedersachsen
10.803439999283588,52.426829998708996,155,Berufsfeuerwehr Wolfsburg,FW Wolfsburg,Dieselstraße,24,38446,Wolfsburg,05361/844-0,05361/284216,berufsfeuerwehr@stadt.wolfsburg.de,www.wolfsburg.de,Feuer- und Rettungswache mit Leitstelle,031030000000,Wolfsburg,Wolfsburg,Wolfsburg, ,Niedersachsen
11.6292600004136,52.131789999127683,156,Berufsfeuerwehr Magdeburg - Integrierte Leitstelle,ILS Magdeburg,Ernst-Reueter-Allee,42,39104,Magdeburg,0391/540-1129, ,feuerwehr@magdeburg.de,www.magdeburg.de,Leitstelle,150030000000,Magdeburg,Magdeburg,Magdeburg, ,Sachsen-Anhalt
11.65411000026149,52.144089998902324,157,Berufsfeuerwehr Magdeburg - Feuerwache Nord,FW Nord,Peter-Paul-Straße,12,39106,Magdeburg,0391/540-10,0391/540-1181,feuerwehr@magdeburg.de,www.magdeburg.de,Feuer- und Rettungswache,150030000000,Magdeburg,Magdeburg,Magdeburg, ,Sachsen-Anhalt
11.628310000663797,52.077799999053283,158,Berufsfeuerwehr Magdeburg - Feuerwache Süd,FW Süd,Otto-Lilienthal-Straße,1,39120,Magdeburg, , ,feuerwehr@magdeburg.de,www.magdeburg.de,Feuer- und Rettungswache,150030000000,Magdeburg,Magdeburg,Magdeburg, ,Sachsen-Anhalt
6.785990000140689,51.215469999499767,159,Berufsfeuerwehr Düsseldorf - Branddirektion - Feuer- und Rettungswache 1 - Friedrichstadt,FRW 1 - Friedrichstadt,Hüttenstraße,68,40215,Düsseldorf,0211/89-20590,0211/89-20138,feuerwehr@duesseldorf.de,www.duesseldorf.de,Feuer- und Rettungswache mit Leitstelle,051110000000,Düsseldorf,Düsseldorf,Düsseldorf,Düsseldorf,Nordrhein-Westfalen
6.750079999685741,51.219339998980068,160,Berufsfeuerwehr Düsseldorf - Feuerlöschbootstation,Feuerlöschbootstation,Bremer Straße,68,40221,Düsseldorf,0211/89-20999, ,feuerwehr@duesseldorf.de,www.duesseldorf.de,Feuerlöschbootstation,051110000000,Düsseldorf,Düsseldorf,Düsseldorf,Düsseldorf,Nordrhein-Westfalen
6.750559999667503,51.234089998709663,161,Berufsfeuerwehr Düsseldorf - Feuer- und Rettungswache 2 - Oberkassel,FRW 2 - Oberkassel,Quirinstraße,49,40545,Düsseldorf,0211/89-20999, ,feuerwehr@duesseldorf.de,www.duesseldorf.de,Feuer- und Rettungswache,051110000000,Düsseldorf,Düsseldorf,Düsseldorf,Düsseldorf,Nordrhein-Westfalen
6.782959999870147,51.241229998993845,162,Berufsfeuerwehr Düsseldorf - Feuer- und Rettungswache 3 - Derendorf,FRW 3 - Derendorf,Münsterstraße,15,40477,Düsseldorf,0211/89-20999, ,feuerwehr@duesseldorf.de,www.duesseldorf.de,Feuer- und Rettungswache,051110000000,Düsseldorf,Düsseldorf,Düsseldorf,Düsseldorf,Nordrhein-Westfalen
6.813569999856803,51.225619999482866,163,Berufsfeuerwehr Düsseldorf - Feuer- und Rettungswache 4 - Flingern,FRW 4 - Flingern,Behrenstraße,74,40233,Düsseldorf,0211/89-20999, ,feuerwehr@duesseldorf.de,www.duesseldorf.de,Feuer- und Rettungswache,051110000000,Düsseldorf,Düsseldorf,Düsseldorf,Düsseldorf,Nordrhein-Westfalen
6.754540000182433,51.273039999439149,164,Berufsfeuerwehr Düsseldorf - Feuer- und Rettungswache 5 - Lohausen,FRW 5 - Lohausen,Flughafenstraße,65,40474,Düsseldorf,0211/89-20999, ,feuerwehr@duesseldorf.de,www.duesseldorf.de,Feuer- und Rettungswache,051110000000,Düsseldorf,Düsseldorf,Düsseldorf,Düsseldorf,Nordrhein-Westfalen
6.900649999266061,51.142959999482329,165,Berufsfeuerwehr Düsseldorf - Feuer- und Rettungswache 6 - Garath,FRW 6 - Garath,Frankfurter Straße,245,40595,Düsseldorf,0211/89-20999, ,feuerwehr@duesseldorf.de,www.duesseldorf.de,Feuer- und Rettungswache,051110000000,Düsseldorf,Düsseldorf,Düsseldorf,Düsseldorf,Nordrhein-Westfalen
6.823439999899412,51.184809998906772,166,Berufsfeuerwehr Düsseldorf - Feuer- und Rettungswache 7 - Wersten,FRW 7 - Wersten,Werstener Feld,30,40591,Düsseldorf,0211/89-20999, ,feuerwehr@duesseldorf.de,www.duesseldorf.de,Feuer- und Rettungswache,051110000000,Düsseldorf,Düsseldorf,Düsseldorf,Düsseldorf,Nordrhein-Westfalen
6.861880000337148,51.23876999869821,167,Berufsfeuerwehr Düsseldorf - Feuer- und Rettungswache 8 - Gerresheim,FRW 8 - Gerresheim,Gräulinger Straße,27,40625,Düsseldorf,0211/89-20999, ,feuerwehr@duesseldorf.de,www.duesseldorf.de,Feuer- und Rettungswache,051110000000,Düsseldorf,Düsseldorf,Düsseldorf,Düsseldorf,Nordrhein-Westfalen
6.83904999970301,51.215949999353143,168,Berufsfeuerwehr Düsseldorf - Feuerwache Umweltschutz und Technische Dienste Lierenfeld - Feuerwache 10,FW 10 - Lierenfeld,Posener Straße,171-183,40231,Düsseldorf,0211/92529959, ,feuerwehr@duesseldorf.de,www.duesseldorf.de,Feuerwache,051110000000,Düsseldorf,Düsseldorf,Düsseldorf,Düsseldorf,Nordrhein-Westfalen
6.862460000681946,51.289749998947627,169,Berufsfeuerwehr Ratingen - Amt 37 - Feuerwehr,Amt 37 - Feuerwehr,Voisweg,1-5,40878,Ratingen,02102/55037777,02102/55037902,amt37@ratingen.de,www.feuerwehr-ratingen.de,Verwaltung,051580028028,Ratingen,Ratingen,Mettmann,Düsseldorf,Nordrhein-Westfalen
6.862460000681946,51.289749998947627,170,Berufsfeuerwehr Ratingen - Hauptwache - Feuer- und Rettungswache - Ratingen Mitte,HFRW Ratingen Mitte,Voisweg,1-5,40878,Ratingen,02102/55037777,02102/55037902,amt37@ratingen.de,www.feuerwehr-ratingen.de,Feuer- und Rettungswache,051580028028,Ratingen,Ratingen,Mettmann,Düsseldorf,Nordrhein-Westfalen
6.459360000377745,51.162009999173478,171,Berufsfeuerwehr Mönchengladbach - Führungs- und Lagezentrum,Führungs- und Lagezentrum,Stockholtweg,132,41238,Mönchengladbach,02166/9989-0,02166/9989-2114,feuerwehr@moenchengladbach.de,www.feuerwehr-mg.de,Verwaltung,051160000000,Mönchengladbach,Mönchengladbach,Mönchengladbach,Düsseldorf,Nordrhein-Westfalen
6.448549999970349,51.219679999135295,172,Berufsfeuerwehr Mönchengladbach - Feuer-und Rettungswache I - Bettrath,FRW I - Bettrath,Von-Groote-Straße,66,41066,Mönchengladbach,02166/9989-2160, ,feuerwehr@moenchengladbach.de,www.feuerwehr-mg.de,Feuer- und Rettungswache,051160000000,Mönchengladbach,Mönchengladbach,Mönchengladbach,Düsseldorf,Nordrhein-Westfalen
6.395110000190852,51.172589999142666,173,Berufsfeuerwehr Mönchengladbach - Feuer-und Rettungswache II - Holt - Technik- und Logistikzentrum,FRW II - Holt - Technik- und Logistikzentrum,Pfingstgraben,2,41069,Mönchengladbach, , ,feuerwehr@moenchengladbach.de,www.feuerwehr-mg.de,Feuer- und Rettungswache,051160000000,Mönchengladbach,Mönchengladbach,Mönchengladbach,Düsseldorf,Nordrhein-Westfalen
6.459410000373134,51.162489999010582,174,Berufsfeuerwehr Mönchengladbach - Feuer-und Rettungswache III - Rheydt,FRW III - Rheydt,Stockholtweg,130,41239,Mönchengladbach,02166/9989-2399, ,feuerwehr@moenchengladbach.de,www.feuerwehr-mg.de,Feuer- und Rettungswache mit Leitstelle,051160000000,Mönchengladbach,Mönchengladbach,Mönchengladbach,Düsseldorf,Nordrhein-Westfalen
6.408470000485304,51.123619998837732,175,Berufsfeuerwehr Mönchengladbach - Rettungswache IV - Wickrath,RW IV - Wickrath,Beckrather Straße,95,41189,Mönchengladbach, , ,feuerwehr@moenchengladbach.de,www.feuerwehr-mg.de,Rettungswache,051160000000,Mönchengladbach,Mönchengladbach,Mönchengladbach,Düsseldorf,Nordrhein-Westfalen
6.815129999646553,51.09276999900262,176,Berufsfeuerwehr Dormagen - Hauptwache,HW Dormagen,Kieler Straße,10,41540,Dormagen,02133/257-100,02133/257-160,feuerwehr.einsatzzentrale@stadt-dormagen.de,www.feuerwehr.dormagen.de,Feuerwache,051620004004,Dormagen,Dormagen,Rhein-Kreis Neuss,Düsseldorf,Nordrhein-Westfalen
6.808809999353429,51.074229999277293,177,Berufsfeuerwehr Dormagen - Rettungswache Hackenbroich,RW Hackenbroich,Dr.-Geldmacher-Straße,16,41540,Dormagen, , , ,www.feuerwehr.dormagen.de,Rettungswache,051620004004,Dormagen,Dormagen,Rhein-Kreis Neuss,Düsseldorf,Nordrhein-Westfalen
6.770880000089066,51.114569998888342,178,Berufsfeuerwehr Dormagen - Rettungswache Nievenheim,RW Nievenheim,Saint-André-Straße,6,41542,Dormagen, , , ,www.feuerwehr.dormagen.de,Rettungswache,051620004004,Dormagen,Dormagen,Rhein-Kreis Neuss,Düsseldorf,Nordrhein-Westfalen
7.138070000619382,51.267449998776648,179,Berufsfeuerwehr Wuppertal - Hauptfeuer- und Rettungswache 1 - Elberfeld,HFRW 1 - Elberfeld,August-Bebel-Straße,55,42109,Wuppertal,0202/563-1111,0202/56311309,berufsfeuerwehr@stadt.wuppertal.de,www.wuppertal.de,Feuer- und Rettungswache mit Leitstelle,051240000000,Wuppertal,Wuppertal,Wuppertal,Düsseldorf,Nordrhein-Westfalen
7.223910000405246,51.272129999501047,180,Berufsfeuerwehr Wuppertal - Feuer- und Rettungswache 2 - Barmen,FRW 2 - Barmen,Waldeckstraße,14,42289,Wuppertal,0202/5631340, ,berufsfeuerwehr@stadt.wuppertal.de,www.wuppertal.de,Feuer- und Rettungswache,051240000000,Wuppertal,Wuppertal,Wuppertal,Düsseldorf,Nordrhein-Westfalen
7.114030000126538,51.249399999183986,181,Berufsfeuerwehr Wuppertal - Feuer- und Rettungswache 3 - Bayer/Chemiepark,FRW 3 - Bayer/Chemiepark,Friedrich-Ebert-Straße,253,42117,Wuppertal,0202/56311111, ,berufsfeuerwehr@stadt.wuppertal.de,www.wuppertal.de,Feuer- und Rettungswache,051240000000,Wuppertal,Wuppertal,Wuppertal,Düsseldorf,Nordrhein-Westfalen
7.089679999476213,51.235429998997581,182,Berufsfeuerwehr Wuppertal - Rettungswache West - Vohwinkel,RW West Vohwinkel,Buchenhofener Straße,3,42329,Wuppertal, , ,berufsfeuerwehr@stadt.wuppertal.de,www.wuppertal.de,Rettungswache,051240000000,Wuppertal,Wuppertal,Wuppertal,Düsseldorf,Nordrhein-Westfalen
7.144310000220103,51.22913999869872,183,Berufsfeuerwehr Wuppertal - Rettungswache Süd und NEF-Station - Korzert,RW Süd - NEF-Station Korzert,Theishahner Straße,35,42349,Wuppertal, , ,berufsfeuerwehr@stadt.wuppertal.de,www.wuppertal.de,Rettungswache,051240000000,Wuppertal,Wuppertal,Wuppertal,Düsseldorf,Nordrhein-Westfalen
7.134569999883956,51.250719999380792,184,Berufsfeuerwehr Wuppertal - NEF-Station Helios-Klinik Elberfeld,NEF-Station Helios-Klinik Elberfeld,Arrenberger Straße,20,42117,Wuppertal, , ,berufsfeuerwehr@stadt.wuppertal.de,www.wuppertal.de,Notarzt,051240000000,Wuppertal,Wuppertal,Wuppertal,Düsseldorf,Nordrhein-Westfalen
7.174340000554525,51.273869999462278,185,Berufsfeuerwehr Wuppertal - NEF-Station Helios-Klinik Barmen,NEF-Station Helios-Klinik Barmen,Heusnerstraße,40,42283,Wuppertal, , ,berufsfeuerwehr@stadt.wuppertal.de,www.wuppertal.de,Notarzt,051240000000,Wuppertal,Wuppertal,Wuppertal,Düsseldorf,Nordrhein-Westfalen
7.077730000578055,51.166369999396778,186,Berufsfeuerwehr Solingen - Amt 37 - Feuerwehr,Amt 37 - Feuerwehr,Katternberger Straße,44-46,42655,Solingen,0212/2202-100,0212/2202-159,feuerwehr@solingen.de,www.solingen.de,Verwaltung,051220000000,Solingen,Solingen,Solingen,Düsseldorf,Nordrhein-Westfalen
7.077730000578055,51.166369999396778,187,Berufsfeuerwehr Solingen - Feuer- und Rettungswache I - Solingen-Mitte,FRW I - Solingen-Mitte,Katternberger Straße,44-46,42655,Solingen,0212/2202-0,0212/2202-159,feuerwehr@solingen.de,www.solingen.de,Feuer- und Rettungswache,051220000000,Solingen,Solingen,Solingen,Düsseldorf,Nordrhein-Westfalen
7.01782000052302,51.161609998940968,188,Berufsfeuerwehr Solingen - Feuer- und Rettungswache II - Ohligs,FRW II - Ohligs,Brunnenstraße,11,42699,Solingen,0212/2202-0, ,feuerwehr@solingen.de,www.solingen.de,Feuer- und Rettungswache,051220000000,Solingen,Solingen,Solingen,Düsseldorf,Nordrhein-Westfalen
7.052680000325036,51.185269999138647,189,Berufsfeuerwehr Solingen - Feuer- und Rettungswache III - Wald,FRW III - Wald,Frankfurter Damm,10,42719,Solingen,0212/2202-0, ,feuerwehr@solingen.de,www.solingen.de,Feuer- und Rettungswache,051220000000,Solingen,Solingen,Solingen,Düsseldorf,Nordrhein-Westfalen
7.069419999409119,51.185499999419839,190,Berufsfeuerwehr Solingen - Rettungswache IV - Klinikum,RW IV - Klinikum,Gotenstraße,1,42653,Solingen,0212/2202-0, ,feuerwehr@solingen.de,www.solingen.de,Rettungswache,051220000000,Solingen,Solingen,Solingen,Düsseldorf,Nordrhein-Westfalen
7.230410000077009,51.18385999937415,191,Berufsfeuerwehr Remscheid - Hauptfeuer- und Rettungswache,HFRW Remscheid,Auf dem Knapp,23,42855,Remscheid,02191/162400,02191/386921,feuerwehr@remscheid.de,www.remscheid.de,Feuer- und Rettungswache,051200000000,Remscheid,Remscheid,Remscheid,Düsseldorf,Nordrhein-Westfalen
7.461599999890876,51.520029999450216,192,Berufsfeuerwehr Dortmund - Feuer- und Rettungswache 1 - Stadtmitte,FRW 1 - Stadtmitte,Steinstraße,25,44147,Dortmund,0231/845-0,0231/845-6180,feuerwehr@dortmund.de,www.dortmund.de,Feuer- und Rettungswache mit Leitstelle,059130000000,Dortmund,Dortmund,Dortmund,Arnsberg,Nordrhein-Westfalen
7.45378000044805,51.545439998671952,193,Berufsfeuerwehr Dortmund - Feuer- und Rettungswache 2 - Eving,FRW 2 - Eving,Lütge-Heidestraße,70,44147,Dortmund,0231/845-2201,0231/845-2280,feuerwehr@dortmund.de,www.dortmund.de,Feuer- und Rettungswache,059130000000,Dortmund,Dortmund,Dortmund,Arnsberg,Nordrhein-Westfalen
7.563619999904,51.511269999057447,194,Berufsfeuerwehr Dortmund - Feuer- und Rettungswache 3 - Neuasseln,FRW 3 - Neuasseln,Aplerbecker Straße,280,44309,Dortmund,0231/845-2301,0231/845-2380,feuerwehr@dortmund.de,www.dortmund.de,Feuer- und Rettungswache,059130000000,Dortmund,Dortmund,Dortmund,Arnsberg,Nordrhein-Westfalen
7.490900000088311,51.475559999056721,195,Berufsfeuerwehr Dortmund - Feuer- und Rettungswache 4 - Hörde,FRW 4 - Hörde,Zillestraße,1,44265,Dortmund,0231/845-2401,0231/845-2480,feuerwehr@dortmund.de,www.dortmund.de,Feuer- und Rettungswache,059130000000,Dortmund,Dortmund,Dortmund,Arnsberg,Nordrhein-Westfalen
7.538970000419893,51.55228999863948,196,Berufsfeuerwehr Dortmund - Feuer- und Rettungswache 6 - Scharnhorst,FRW 6 - Scharnhorst,Flughafenstraße,471,44328,Dortmund,0231/845-2601,0231/845-2680,feuerwehr@dortmund.de,www.dortmund.de,Feuer- und Rettungswache,059130000000,Dortmund,Dortmund,Dortmund,Arnsberg,Nordrhein-Westfalen
7.60595000048861,51.512279998707875,197,Berufsfeuerwehr Dortmund - Feuer- und Rettungswache 7 - Flughafen,FRW 7 - Flughafen,Flugplatz,7-9,44319,Dortmund,0231/845-2720,0231/845-2780,feuerwehr@dortmund.de,www.dortmund.de,Feuer- und Rettungswache,059780016016,Holzwickede,Holzwickede,Unna,Arnsberg,Nordrhein-Westfalen
7.395800000259049,51.482079999520835,198,Berufsfeuerwehr Dortmund - Feuer- und Umweltwache 8 - Eichlinghofen,FUW 8 - Eichlinghofen,Steinsweg,105-107,44227,Dortmund,0231/845-2801,0231/845-2880,feuerwehr@dortmund.de,www.dortmund.de,Feuer- und Umweltwache,059130000000,Dortmund,Dortmund,Dortmund,Arnsberg,Nordrhein-Westfalen
7.378440000189325,51.561109998911888,199,Berufsfeuerwehr Dortmund - Feuer- und Rettungswache 9 - Mengede,FRW 9 - Mengede,Haberlandstraße,13-15,44359,Dortmund,0231/845-2901,0231/845-2980,feuerwehr@dortmund.de,www.dortmund.de,Feuer- und Rettungswache,059130000000,Dortmund,Dortmund,Dortmund,Arnsberg,Nordrhein-Westfalen
7.433690000320163,51.534149999471012,200,Berufsfeuerwehr Dortmund - Feuerlöschbootstation - Hafenstützpunkt,Feuerlöschbootstation,Deusener Straße,5,44369,Dortmund, , ,feuerwehr@dortmund.de,www.dortmund.de,Feuerlöschbootstation,059130000000,Dortmund,Dortmund,Dortmund,Arnsberg,Nordrhein-Westfalen
7.377399999386259,51.512759998902126,201,Berufsfeuerwehr Dortmund - Feuer- und Rettungswache 5 - Marten,FRW 5 - Marten,Bärenbruch,31-33,44379,Dortmund,0231/845-2501,0231/845-2580,feuerwehr@dortmund.de,www.dortmund.de,Feuer- und Rettungswache,059130000000,Dortmund,Dortmund,Dortmund,Arnsberg,Nordrhein-Westfalen
7.513179999978528,51.607169999368864,202,Berufsfeuerwehr Lünen - Feuer- und Rettungswache Lünen,FRW Lünen,Kupferstraße,60,44532,Lünen,02306/7670,02306/767333,verwaltung@feuerwehr-luenen.de,www.luenen.de,Feuer- und Rettungswache,059780024024,Lünen,Lünen,Unna,Arnsberg,Nordrhein-Westfalen
7.23133000026741,51.537029998744366,203,Berufsfeuerwehr Herne - Feuerwache 1,FW 1 - Herne,Sodinger Straße,9,44623,Herne,02323/16-5211,02323/162970,berufsfeuerwehr@herne.de,www.berufsfeuerwehr.herne.de,Feuerwache,059160000000,Herne,Herne,Herne,Arnsberg,Nordrhein-Westfalen
7.156019999767172,51.531969998961578,204,Berufsfeuerwehr Herne - Feuerwache 2,FW 2 - Herne,Stöckstraße,32-34,44649,Herne,02323/16-0, ,berufsfeuerwehr@herne.de,www.berufsfeuerwehr.herne.de,Feuerwache,059160000000,Herne,Herne,Herne,Arnsberg,Nordrhein-Westfalen
7.153140000691039,51.473659999230179,205,Berufsfeuerwehr Bochum - Feuer- und Rettungswache I - Bochum-West,FRW I - Bochum-West,Grünstraße,31-37,44867,Bochum,0234/9254-112, ,FRW1@bochum.de,www.bochum.de,Feuer- und Rettungswache,059110000000,Bochum,Bochum,Bochum,Arnsberg,Nordrhein-Westfalen
7.204219999580785,51.476939998738985,206,Berufsfeuerwehr Bochum - Feuer- und Rettungswache II - Bochum-Mitte,FRW II - Bochum-Mitte,Bessemerstraße,26,44793,Bochum,0234/9254-212, ,FRW2@bochum.de,www.bochum.de,Feuer- und Rettungswache,059110000000,Bochum,Bochum,Bochum,Arnsberg,Nordrhein-Westfalen
7.298120000071862,51.488929998871349,207,Berufsfeuerwehr Bochum - Feuer- und Rettungswache III - Bochum-Ost,FRW III - Bochum-Ost,Brandwacht,1,44894,Bochum,0234/9254-0, ,FRW3@bochum.de,www.bochum.de,Feuer- und Rettungswache,059110000000,Bochum,Bochum,Bochum,Arnsberg,Nordrhein-Westfalen
7.298120000071862,51.488929998871349,208,Berufsfeuerwehr Bochum - Hauptfeuer- und Rettungswache Werne,HFRW Werne,Brandwacht,1,44894,Bochum,0234/9254-0,0234/9254-909,feuerwehr@bochum.de,www.bochum.de,Verwaltung,059110000000,Bochum,Bochum,Bochum,Arnsberg,Nordrhein-Westfalen
7.026850000637964,51.462319999102391,209,Berufsfeuerwehr Essen - Feuerwache 1 und Leitstelle,FW 1 und Leitstelle,Eiserne Hand,45,45139,Essen,0201/1239,0201/233594,info@feuerwehr.essen.de,www.feuerwehr-essen.com,Feuerwache mit Leitstelle,051130000000,Essen,Essen,Essen,Düsseldorf,Nordrhein-Westfalen
6.96042999990656,51.464809999387207,210,Berufsfeuerwehr Essen - Feuerwache 2 - Borbeck,FW 2 - Borbeck,Wüstenhöferstraße,34a,45355,Essen, , ,info@feuerwehr.essen.de,www.feuerwehr-essen.com,Feuerwache,051130000000,Essen,Essen,Essen,Düsseldorf,Nordrhein-Westfalen
6.976529999955643,51.503519998980586,211,Berufsfeuerwehr Essen - Feuerwache 3 - Hafen,FW 3 - Hafen,Ostuferstraße,16,45356,Essen, , ,info@feuerwehr.essen.de,www.feuerwehr-essen.com,Feuerwache,051130000000,Essen,Essen,Essen,Düsseldorf,Nordrhein-Westfalen
7.023600000631705,51.498259999316829,212,Berufsfeuerwehr Essen - Feuerwache 4 - Altenesen,FW 4 - Altenessen,Fundlandstraße,25,45326,Essen, , ,info@feuerwehr.essen.de,www.feuerwehr-essen.com,Feuerwache,051130000000,Essen,Essen,Essen,Düsseldorf,Nordrhein-Westfalen
7.090010000473648,51.467859999431269,213,Berufsfeuerwehr Essen - Feuerwache 5 - Kray,FW 5 - Kray,Ottostraße,60,45307,Essen, , ,info@feuerwehr.essen.de,www.feuerwehr-essen.com,Feuerwache,051130000000,Essen,Essen,Essen,Düsseldorf,Nordrhein-Westfalen
7.084729999660025,51.396559998969181,214,Berufsfeuerwehr Essen - Feuerwache 6 - Kupferdreh,FW 6 - Kupferdreh,Kupferdreher Straße,82-86,45257,Essen, , ,info@feuerwehr.essen.de,www.feuerwehr-essen.com,Feuerwache,051130000000,Essen,Essen,Essen,Düsseldorf,Nordrhein-Westfalen
7.083850000135032,51.445639998759958,215,Berufsfeuerwehr Essen - Feuerwache 7 - Steele,FW 7 - Steele,Ruhrbruchshof,6,45276,Essen, , ,info@feuerwehr.essen.de,www.feuerwehr-essen.com,Feuerwache,051130000000,Essen,Essen,Essen,Düsseldorf,Nordrhein-Westfalen
6.940649999931397,51.3647699989302,216,Berufsfeuerwehr Essen - Feuerwache 8 - Kettwig,FW 8 - Kettwig,Schulstraße,22,45219,Essen, , ,info@feuerwehr.essen.de,www.feuerwehr-essen.com,Feuerwache,051130000000,Essen,Essen,Essen,Düsseldorf,Nordrhein-Westfalen
7.003360000092496,51.424139998861435,217,Berufsfeuerwehr Essen - Feuerwache 9 - Rüttenscheid,FW 9 - Rüttenscheid,Manfredstraße,26,45131,Essen, , ,info@feuerwehr.essen.de,www.feuerwehr-essen.com,Feuerwache,051130000000,Essen,Essen,Essen,Düsseldorf,Nordrhein-Westfalen
7.117099999280049,51.416399999086501,218,Berufsfeuerwehr Essen - Feuerwache 11 - Burgaltendorf,FW 11 - Burgaltendorf,Alte Hauptstraße,36,45289,Essen, , ,info@feuerwehr.essen.de,www.feuerwehr-essen.com,Feuerwache,051130000000,Essen,Essen,Essen,Düsseldorf,Nordrhein-Westfalen
6.989749999814837,51.436169999388476,219,Berufsfeuerwehr Essen - Rettungswache 12 - Universitätsklinikum,RW 12 - Universitätsklinikum,Hufelandstraße,55,45147,Essen, , ,info@feuerwehr.essen.de,www.feuerwehr-essen.com,Rettungswache,051130000000,Essen,Essen,Essen,Düsseldorf,Nordrhein-Westfalen
6.950390000092971,51.475859999471687,220,Berufsfeuerwehr Essen - Rettungswache 13 - Philippus-Stift,RW 13 - Philippus-Stift,Hülsmannstraße,17,45355,Essen, , ,info@feuerwehr.essen.de,www.feuerwehr-essen.com,Rettungswache,051130000000,Essen,Essen,Essen,Düsseldorf,Nordrhein-Westfalen
7.032779999995769,51.444569999457997,221,Berufsfeuerwehr Essen - Rettungswache 14 - Elisabeth-Krankenhaus,RW 14 - Elisabeth-Krankenhaus,Moltkestraße,61,45138,Essen, , ,info@feuerwehr.essen.de,www.feuerwehr-essen.com,Rettungswache,051130000000,Essen,Essen,Essen,Düsseldorf,Nordrhein-Westfalen
7.033439999638748,51.474789999156336,222,Berufsfeuerwehr Essen - Rettungswache 15 - St. Vincenz-Krankenhaus,RW 15 - St. Vincenz-Krankenhaus,Von-Bergmann-Straße,2,45141,Essen, , ,info@feuerwehr.essen.de,www.feuerwehr-essen.com,Rettungswache,051130000000,Essen,Essen,Essen,Düsseldorf,Nordrhein-Westfalen
7.079329999750008,51.449699999108915,223,Berufsfeuerwehr Essen - Rettungswache 16 - Alfried Krupp Krankenhaus Steele,RW 16 - Alfried Krupp Krankenhaus Steele,Hellweg,10,45276,Essen, , ,info@feuerwehr.essen.de,www.feuerwehr-essen.com,Rettungswache,051130000000,Essen,Essen,Essen,Düsseldorf,Nordrhein-Westfalen
7.086269999424398,51.39138999946767,224,Berufsfeuerwehr Essen - Rettungswache 17 - St. Josef Hospital Kupferdreh,RW 17 - St. Josef Hospital Kupferdreh,Heidbergweg,22-24,45257,Essen, , ,info@feuerwehr.essen.de,www.feuerwehr-essen.com,Rettungswache,051130000000,Essen,Essen,Essen,Düsseldorf,Nordrhein-Westfalen
7.00581999985183,51.389039999327267,225,Berufsfeuerwehr Essen - Rettungswache 18 - St. Josef Krankenhaus Werden,RW 18 - St. Josef Krankenhaus Werden,Propsteistraße,2,45239,Essen, , ,info@feuerwehr.essen.de,www.feuerwehr-essen.com,Rettungswache,051130000000,Essen,Essen,Essen,Düsseldorf,Nordrhein-Westfalen
6.925889999767856,51.436879998848461,226,Berufsfeuerwehr Mülheim an der Ruhr - Feuer-und Rettungswache 2 - Heißen,FRW 2 - Heißen,An der Seilfahrt,17-19,45472,Mülheim an der Ruhr,0208/455-36201, ,feuerwehr-leitstelle@muelheim-ruhr.de,www.muelheim-ruhr.de,Feuer- und Rettungswache,051170000000,Mülheim an der Ruhr,Mülheim an der Ruhr,Mülheim an der Ruhr,Düsseldorf,Nordrhein-Westfalen
6.861440000533536,51.427809999125365,227,Berufsfeuerwehr Mülheim an der Ruhr - Hauptfeuer-und Rettungswache 1 - Broich,HFRW 1 - Broich,Zur Alten Dreherei,11,45479,Mülheim an der Ruhr,0208/455-92,0208/455-3799,feuerwehr-leitstelle@muelheim-ruhr.de,www.muelheim-ruhr.de,Feuer- und Rettungswache mit Leitstelle,051170000000,Mülheim an der Ruhr,Mülheim an der Ruhr,Mülheim an der Ruhr,Düsseldorf,Nordrhein-Westfalen
7.14521999957203,51.591119998699632,228,Berufsfeuerwehr Herten - Feuer- und Rettungswache Herten,FRW Herten,An der Feuerwache,7-9,45699,Herten,02366/31024,02366/39258,feuerwehrinfo@herten.de,www.herten.de,Feuer- und Rettungswache,055620020020,Herten,Herten,Recklinghausen,Münster,Nordrhein-Westfalen
7.110640000014516,51.508459999006973,229,Berufsfeuerwehr Gelsenkirchen - Feuer- und Rettungswache 1 - Altstadt,FRW 1 - Altstadt,Wildenbruchstraße,50,45888,Gelsenkirchen, , ,feuerwehr@gelsenkirchen.de,www.gelsenkirchen.de,Feuer- und Rettungswache,055130000000,Gelsenkirchen,Gelsenkirchen,Gelsenkirchen,Münster,Nordrhein-Westfalen
7.068559999861908,51.564319999282098,230,Berufsfeuerwehr Gelsenkirchen - Zentrale Feuer- und Rettungswache 2 - Buer - Leitstelle,ZFRW 2 - Buer,Seestraße,3,45894,Gelsenkirchen,0209/1704-0,0209/1704-282,feuerwehr@gelsenkirchen.de,www.gelsenkirchen.de,Feuer- und Rettungswache mit Leitstelle,055130000000,Gelsenkirchen,Gelsenkirchen,Gelsenkirchen,Münster,Nordrhein-Westfalen
7.042690000672189,51.6054399988043,231,Berufsfeuerwehr Gelsenkirchen - Feuer- und Rettungswache 3 - Hassel,FRW 3 - Hassel,Lüttinghofstraße,90,45896,Gelsenkirchen, , ,feuerwehr@gelsenkirchen.de,www.gelsenkirchen.de,Feuer- und Rettungswache,055130000000,Gelsenkirchen,Gelsenkirchen,Gelsenkirchen,Münster,Nordrhein-Westfalen
7.053449999427128,51.525539999120952,232,Berufsfeuerwehr Gelsenkirchen - Feuer- und Rettungswache Heßler,FRW Heßler/ NAS Hessler,An der Landwehr,10,45883,Gelsenkirchen, , ,feuerwehr@gelsenkirchen.de,www.gelsenkirchen.de,Feuer- und Rettungswache,055130000000,Gelsenkirchen,Gelsenkirchen,Gelsenkirchen,Münster,Nordrhein-Westfalen
7.041160000442385,51.548979999168807,233,Berufsfeuerwehr Gelsenkirchen - Rettungswache Beckhausen,RW Beckhausen,Kampstraße,1,45899,Gelsenkirchen, , ,feuerwehr@gelsenkirchen.de,www.gelsenkirchen.de,Rettungswache,055130000000,Gelsenkirchen,Gelsenkirchen,Gelsenkirchen,Münster,Nordrhein-Westfalen
7.048519999401966,51.581539999382969,234,Berufsfeuerwehr Gelsenkirchen - Rettungswache Buer-Mitte - Marienhospital Buer,RW Buer-Mitte - Marienhospital Buer,Mühlenstraße,5-9,45894,Gelsenkirchen, , ,feuerwehr@gelsenkirchen.de,www.gelsenkirchen.de,Rettungswache,055130000000,Gelsenkirchen,Gelsenkirchen,Gelsenkirchen,Münster,Nordrhein-Westfalen
7.106570000407184,51.556499998923762,235,Berufsfeuerwehr Gelsenkirchen - Rettungswache Resser-Mark,RW Resser-Mark,Im Emscherbruch,30,45892,Gelsenkirchen, , ,feuerwehr@gelsenkirchen.de,www.gelsenkirchen.de,Rettungswache,055130000000,Gelsenkirchen,Gelsenkirchen,Gelsenkirchen,Münster,Nordrhein-Westfalen
7.089390000541297,51.528419999357389,236,Berufsfeuerwehr Gelsenkirchen - Rettungswache Schalke-Nord,RW Schalke-Nord,Hochkampstraße,68c,45881,Gelsenkirchen, , ,feuerwehr@gelsenkirchen.de,www.gelsenkirchen.de,Rettungswache,055130000000,Gelsenkirchen,Gelsenkirchen,Gelsenkirchen,Münster,Nordrhein-Westfalen
7.060219999380164,51.571049998624936,237,Berufsfeuerwehr Gelsenkirchen - Notarztstandort Buer - Bergmannsheil Buer,NAS Buer - Bergmannsheil Buer,Schernerweg,4,45894,Gelsenkirchen, , ,feuerwehr@gelsenkirchen.de,www.gelsenkirchen.de,Notarzt,055130000000,Gelsenkirchen,Gelsenkirchen,Gelsenkirchen,Münster,Nordrhein-Westfalen
7.027580000015917,51.541189999340979,238,Berufsfeuerwehr Gelsenkirchen - Notarztstandort Horst - St. Josef-Hospital,NAS Horst - St. Josef-Hospital,Rudolf-Bertram-Platz,1,45899,Gelsenkirchen, , ,feuerwehr@gelsenkirchen.de,www.gelsenkirchen.de,Notarzt,055130000000,Gelsenkirchen,Gelsenkirchen,Gelsenkirchen,Münster,Nordrhein-Westfalen
7.102140000058576,51.496459998776622,239,Berufsfeuerwehr Gelsenkirchen - Notarztstandort Ückendorf - Marienhospital Gelsenkirchen,NAS Ückendorf - Marienhospital Gelsenkirchen,Virchowstraße,122,45886,Gelsenkirchen, , ,feuerwehr@gelsenkirchen.de,www.gelsenkirchen.de,Notarzt,055130000000,Gelsenkirchen,Gelsenkirchen,Gelsenkirchen,Münster,Nordrhein-Westfalen
6.866710000107872,51.481069998872243,240,Berufsfeuerwehr Oberhausen - Feuer- und Rettungswache 1,FRW 1 - Oberhausen,Brücktorstraße,30,46047,Oberhausen,0208/8585-0,0208/8585-243,feuerwehr@oberhausen.de,www.oberhausen.de/feuerwehr,Feuer- und Rettungswache,051190000000,Oberhausen,Oberhausen,Oberhausen,Düsseldorf,Nordrhein-Westfalen
6.855619999490074,51.513629998779244,241,Berufsfeuerwehr Oberhausen - Feuer- und Rettungswache 2,FRW 2 - Oberhausen,Dorstener Straße,119,46145,Oberhausen, , ,feuerwehr@oberhausen.de,www.oberhausen.de/feuerwehr,Feuer- und Rettungswache,051190000000,Oberhausen,Oberhausen,Oberhausen,Düsseldorf,Nordrhein-Westfalen
6.923439999939981,51.531669998827731,242,Berufsfeuerwehr Bottrop - Feuer- und Rettungswache 1,FRW 1 Bottrop,Hans-Sachs-Straße,78-80,46236,Bottrop,02041/7803-0,02041/7803-109,feuerwehr@bottrop.de,www.stadtfeuerwehrverband-bottrop.de,Feuer- und Rettungswache mit Leitstelle,055120000000,Bottrop,Bottrop,Bottrop,Münster,Nordrhein-Westfalen
6.919629999766207,51.605529999523299,243,Berufsfeuerwehr Bottrop-  Feuer- und Rettungswache 2,FRW 2 Bottrop,Schulstraße,15,46244,Bottrop,02041/7803-0, ,feuerwehr@bottrop.de,www.stadtfeuerwehrverband-bottrop.de,Feuer- und Rettungswache,055120000000,Bottrop,Bottrop,Bottrop,Münster,Nordrhein-Westfalen
6.793770000684351,51.443259998791348,244,Berufsfeuerwehr Duisburg - Leitstelle - Feuer- und Rettungswache 1,FRW 1 - Innenstadt,Wintgensstraße,111,47058,Duisburg,0203/308-0,0203/308-2000,info@feuerwehr.duisburg.de,www.duisburg.de,Feuer- und Rettungswache mit Leitstelle,051120000000,Duisburg,Duisburg,Duisburg,Düsseldorf,Nordrhein-Westfalen
6.780670000010627,51.490249999240376,245,Berufsfeuerwehr Duisburg - Feuer- und Rettungswache 3 - Hamborn,FRW 3 - Hamborn,Duisburger Straße,145,47166,Duisburg,0203/308-2431,0203/308-4001,robert.baecker@feuerwehr.duisburg.de,www.duisburg.de,Feuer- und Rettungswache,051120000000,Duisburg,Duisburg,Duisburg,Düsseldorf,Nordrhein-Westfalen
6.725969999713304,51.525099999331196,246,Berufsfeuerwehr Duisburg - Feuer- und Rettungswache 4 - Walsum,FRW 4 - Walsum,Dr. Wilhelm-Roelen-Straße,200,47179,Duisburg,0203/308-3413,0203/308-4005,jörg.theilenberg@feuerwehr.duisburg.de,www.duisburg.de,Feuer- und Rettungswache,051120000000,Duisburg,Duisburg,Duisburg,Düsseldorf,Nordrhein-Westfalen
6.712130000721502,51.457719998801082,247,Berufsfeuerwehr Duisburg - Feuer- und Rettungswache 5 - Homberg,FRW 5 - Homberg,Rheindeichstraße,22,47198,Duisburg,0203/308-2220,0203/308-4012,michael.goertzen@feuerwehr.duisburg.de,www.duisburg.de,Feuer- und Rettungswache,051120000000,Duisburg,Duisburg,Duisburg,Düsseldorf,Nordrhein-Westfalen
6.710379999438064,51.413679998884248,248,Berufsfeuerwehr Duisburg - Feuer- und Rettungswache 6 - Rheinhausen,FRW 6 - Rheinhausen,Friedrich-Ebert-Straße,8,47226,Duisburg,0203/308-2436,0203/308-4001,nils.radke@feuerwehr.duisburg.de,www.duisburg.de,Feuer- und Rettungswache,051120000000,Duisburg,Duisburg,Duisburg,Düsseldorf,Nordrhein-Westfalen
6.758579999338484,51.383309998708235,249,Berufsfeuerwehr Duisburg - Feuer- und Rettungswache 7 - Buchholz,FRW 7 - Buchholz,Düsseldorfer Landstraße,92,47249,Duisburg,0203/308-0,0203/308-4007,info@feuerwehr.duisburg.de,www.duisburg.de,Feuer- und Rettungswache,051120000000,Duisburg,Duisburg,Duisburg,Düsseldorf,Nordrhein-Westfalen
6.734080000520828,51.448769999222165,250,Berufsfeuerwehr Duisburg - Feuer- und Hafenwache 8 - Hafen Ruhrort,FHW 8 - Hafen Ruhrort,Vinckeweg,30,47119,Duisburg,0203/308-2520,0203/308-4001,michael.vanderheyden@feuerwehr.duisburg.de,www.duisburg.de,Feuer- und Hafenwache,051120000000,Duisburg,Duisburg,Duisburg,Düsseldorf,Nordrhein-Westfalen
6.582749999491678,51.328699998804602,251,Berufsfeuerwehr Krefeld - Amt 37 - Fachbereich Feuerwehr und Zivilschutz,Amt 37 - Feuerwehr und Zivilschutz,Zur Feuerwache,4,47805,Krefeld,02151/8213-0,02151/8213-209,feuerwehr@krefeld.de,www.krefeld.de,Verwaltung,051140000000,Krefeld,Krefeld,Krefeld,Düsseldorf,Nordrhein-Westfalen
6.582749999491678,51.328699998804602,252,Berufsfeuerwehr Krefeld - Hauptfeuer- und Rettungswache,HFRW Krefeld,Zur Feuerwache,4,47805,Krefeld,02151/8213-0,02151/8213-209,feuerwehr@krefeld.de,www.krefeld.de,Feuer- und Rettungswache,051140000000,Krefeld,Krefeld,Krefeld,Düsseldorf,Nordrhein-Westfalen
6.652699999896999,51.338479999143431,253,Berufsfeuerwehr Krefeld - Feuerwache 2 - Hafenstraße,FW 2 - Hafenstraße,Hafenstraße,50,47809,Krefeld,02151/8213-0, ,feuerwehr@krefeld.de,www.krefeld.de,Feuerwache,051140000000,Krefeld,Krefeld,Krefeld,Düsseldorf,Nordrhein-Westfalen
7.611040000613593,51.974529999453885,254,"Berufsfeuerwehr Münster - Feuerwache 1 - Nord - Feuerwehr, Rettungsdienst, Leitstelle und Katastrophenschutz",FRW 1 - Nord,York-Ring,25,48159,Münster,0251/2025-0,0251/2025-8010,feuerwehr@stadt-muenster.de,www.stadt-muenster.de,Feuer- und Rettungswache mit Leitstelle,055150000000,Münster,Münster,Münster,Münster,Nordrhein-Westfalen
7.645890000711148,51.946269999100366,255,Berufsfeuerwehr Münster - Feuerwache 2 - Mitte - Feuer- und Rettungswache,FRW 2 - Mitte,Theodor-Scheiwe-Straße,1,48155,Münster,0251/2025-0,0251/2025-8010,feuerwehr@stadt-muenster.de,www.stadt-muenster.de,Feuer- und Rettungswache,055150000000,Münster,Münster,Münster,Münster,Nordrhein-Westfalen
7.625810000158691,51.894339999153637,256,Berufsfeuerwehr Münster - Feuerwache 3 - Süd - Feuer- und Rettungswache Hiltrup,FW 3 Süd - FRW Hiltrup,Hansestraße,23,48165,Münster,0251/2025-0,0251/2025-8010,feuerwehr@stadt-muenster.de,www.stadt-muenster.de,Feuer- und Rettungswache,055150000000,Münster,Münster,Münster,Münster,Nordrhein-Westfalen
7.583649999993393,51.927369998845982,257,Berufsfeuerwehr Münster - Rettungswache 10 - Mecklenbeck,RW 10 - Mecklenbeck,Dingbängerweg,4,48163,Münster, , ,feuerwehr@stadt-muenster.de,www.muenster.de/stadt/feuerwehr,Rettungswache,055150000000,Münster,Münster,Münster,Münster,Nordrhein-Westfalen
7.666260000324688,51.989029999007897,258,Berufsfeuerwehr Münster - Rettungswache 16 - Kemper,RW 16 - Kemper,Rudolf-Diesel-Straße,51,48157,Münster, , ,feuerwehr@stadt-muenster.de,www.muenster.de/stadt/feuerwehr,Rettungswache,055150000000,Münster,Münster,Münster,Münster,Nordrhein-Westfalen
8.03876000054216,52.281859998807356,259,Berufsfeuerwehr Osnabrück - Feuerwehr- und Rettungsleitstelle,FWRLS Osnabrück,Nobbenburger Straße,4,49076,Osnabrück,0541/50030-0,0541/3232720,feuerwehr@osnabrueck.de,www.buerger.osnabrueck.de,Feuer- und Rettungswache mit Leitstelle,034040000000,Osnabrück,Osnabrück,Osnabrück, ,Niedersachsen
6.983920000360937,50.964859998695403,260,"Berufsfeuerwehr Köln - Amt für Feuerschutz, Rettungsdienst und Bevölkerungsschutz","Amt für Feuerschutz, Rettungsdienst und Bevölkerungsschutz",Boltensternstraße,10,50735,Köln,0221/9748-0,0221/9748-8004,feuerwehr@stadt-koeln.de,www.stadt-koeln.de,Verwaltung,053150000000,Köln,Köln,Köln,Köln,Nordrhein-Westfalen
6.936539999428354,50.99875999905062,261,Berufsfeuerwehr Köln - Gefahrenvorbeugung,Gefahrenvorbeugung,Neusser Landstraße,2,50735,Köln,0221/9748-5001,0221/9748-5004,feuerwehr@stadt-koeln.de,www.stadt-koeln.de,Gefahrenvorbeugung,053150000000,Köln,Köln,Köln,Köln,Nordrhein-Westfalen
6.953729999934738,50.933439998797446,262,Berufsfeuerwehr Köln - Feuerwache 1 - Innenstadt,FW 1 - Innenstadt,Agrippastraße,18,50676,Köln,0221/9748-0, ,feuerwehr@stadt-koeln.de,www.stadt-koeln.de,Feuerwache,053150000000,Köln,Köln,Köln,Köln,Nordrhein-Westfalen
6.97328000070482,50.893739998890794,263,Berufsfeuerwehr Köln - Feuerwache 2 - Marienburg,FW 2 - Marienburg,Schillingsrotter Weg,8-12,50968,Köln,0221/9748-0, ,feuerwehr@stadt-koeln.de,www.stadt-koeln.de,Feuerwache,053150000000,Köln,Köln,Köln,Köln,Nordrhein-Westfalen
6.908939999556938,50.922489999254999,264,Berufsfeuerwehr Köln - Feuerwache 3 - Lindenthal,FW 3 - Lindenthal,Gleueler Straße,223-225,50935,Köln,0221/9748-0, ,feuerwehr@stadt-koeln.de,www.stadt-koeln.de,Feuerwache,053150000000,Köln,Köln,Köln,Köln,Nordrhein-Westfalen
6.90287000006302,50.957839998869872,265,Berufsfeuerwehr Köln - Feuerwache 4 - Ehrenfeld,FW 4 - Ehrenfeld,Äußere Kanalstraße,67,50827,Köln,0221/9748-0, ,feuerwehr@stadt-koeln.de,www.stadt-koeln.de,Feuerwache,053150000000,Köln,Köln,Köln,Köln,Nordrhein-Westfalen
6.949600000536915,50.984899999277268,266,Berufsfeuerwehr Köln - Feuerwache 5 - Weidenpesch,FW 5 - Weidenpesch,Scheibenstraße,13,50737,Köln,0221/9748-0, ,feuerwehr@stadt-koeln.de,www.stadt-koeln.de,Feuerwache,053150000000,Köln,Köln,Köln,Köln,Nordrhein-Westfalen
6.892639999761976,51.016499999355261,267,Berufsfeuerwehr Köln - Feuerwache 6 - Chorweiler,FW 6 - Chorweiler,Volkhovener Weg,184,50765,Köln,0221/9748-0, ,feuerwehr@stadt-koeln.de,www.stadt-koeln.de,Feuerwache,053150000000,Köln,Köln,Köln,Köln,Nordrhein-Westfalen
7.072219999492863,50.880869999158172,268,Berufsfeuerwehr Köln - Feuerwache 7 - Porz,FW 7 - Porz,Kaiserstraße,69,51145,Köln,0221/9748-0, ,feuerwehr@stadt-koeln.de,www.stadt-koeln.de,Feuerwache,053150000000,Köln,Köln,Köln,Köln,Nordrhein-Westfalen
7.047989999860072,50.927549999339774,269,Berufsfeuerwehr Köln - Feuerwache 8 - Ostheim,FW 8 - Ostheim,Hardtgenbuscher Kirchweg,100,51107,Köln,0221/9748-0, ,feuerwehr@stadt-koeln.de,www.stadt-koeln.de,Feuerwache,053150000000,Köln,Köln,Köln,Köln,Nordrhein-Westfalen
7.021010000610494,50.965049998978735,270,Berufsfeuerwehr Köln - Feuerwache 9 - Mülheim,FW 9 - Mülheim,Bergisch Gladbacher Straße,179,51063,Köln,0221/9748-0, ,feuerwehr@stadt-koeln.de,www.stadt-koeln.de,Feuerwache,053150000000,Köln,Köln,Köln,Köln,Nordrhein-Westfalen
6.990279999430416,50.935849999328092,271,Berufsfeuerwehr Köln - Feuerwache 10 - Deutz,FW 10 - Deutz,Gießener Straße,26,50679,Köln,0221/9748-0, ,feuerwehr@stadt-koeln.de,www.stadt-koeln.de,Feuerwache,053150000000,Köln,Köln,Köln,Köln,Nordrhein-Westfalen
6.830909999745354,50.942019999314539,272,Berufsfeuerwehr Köln - Feuerwache 14 - Lövenich,FW 14 - Lövenich,Richard-Wagner-Straße,26-32,50859,Köln,0221/9748-0, ,feuerwehr@stadt-koeln.de,www.stadt-koeln.de,Feuerwache,053150000000,Köln,Köln,Köln,Köln,Nordrhein-Westfalen
7.013550000044138,51.023249999004449,273,Berufsfeuerwehr Leverkusen - Feuer- und Rettungswache 1 - Leverkusen Süd - Integrierte Leitstelle,FRW 1 - Leverkusen Süd - ILS,Stixchesstraße,162,51377,Leverkusen,0214/75050,0214/7505302,info@feuerwehr-leverkusen.de,www.feuerwehr-leverkusen.de,Feuer- und Rettungswache mit Leitstelle,053160000000,Leverkusen,Leverkusen,Leverkusen,Köln,Nordrhein-Westfalen
6.997549999573503,51.062419998897873,274,Berufsfeuerwehr Leverkusen - Feuer- und Rettungswache 2 - Leverkusen Nord,FRW 2 - Leverkusen Nord,Kanalstrasse,45,51379,Leverkusen,02171/404790, ,info@feuerwehr-leverkusen.de,www.feuerwehr-leverkusen.de,Feuer- und Rettungswache,053160000000,Leverkusen,Leverkusen,Leverkusen,Köln,Nordrhein-Westfalen
7.033520000400611,51.032369998792056,275,Berufsfeuerwehr Leverkusen - Rettungswache 3 - Klinikum Leverkusen,RW 3 - Klinikum Leverkusen,Am Gesundheitspark,11,51375,Leverkusen, , ,info@feuerwehr-leverkusen.de,www.feuerwehr-leverkusen.de,Rettungswache,053160000000,Leverkusen,Leverkusen,Leverkusen,Köln,Nordrhein-Westfalen
7.004680000627155,51.068379998880779,276,Berufsfeuerwehr Leverkusen - Rettungswache 4 - St. Remigius Krankenhaus Opladen,RW 4 - St. Remigius Krankenhaus Opladen,An St. Remigius,26,51379,Leverkusen, , ,info@feuerwehr-leverkusen.de,www.feuerwehr-leverkusen.de,Rettungswache,053160000000,Leverkusen,Leverkusen,Leverkusen,Köln,Nordrhein-Westfalen
6.116230000543977,50.777069999523938,277,Berufsfeuerwehr Aachen - Feuer- und Rettungswache 1 - Hauptwache - Einsatzleitstelle,FRW 1 - HW - Einsatzleitstelle,Stolberger Straße,155,52068,Aachen,0241/432-379000,0241/432-370009,feuerwehr@mail.aachen.de,www.aachen.de,Feuer- und Rettungswache mit Leitstelle,053340002002,Aachen,Aachen,Städteregion Aachen,Köln,Nordrhein-Westfalen
6.174890000104733,50.72882999943328,278,Berufsfeuerwehr Aachen - Feuer- und Rettungswache 2 - Wache Süd,FRW 2 - Wache Süd,Oberforstbacher Straße,19c,52076,Aachen,0241/432-379000,0241/432-370009,feuerwehr@mail.aachen.de,www.aachen.de,Feuer- und Rettungswache,053340002002,Aachen,Aachen,Städteregion Aachen,Köln,Nordrhein-Westfalen
6.047959999605575,50.789049999313256,279,Berufsfeuerwehr Aachen - Feuer- und Rettungswache 3 - Nord,FRW 3 - Nord,Mathieustraße,3,52074,Aachen,0241/432-379000,0241/432-370009,feuerwehr@mail.aachen.de,www.aachen.de,Feuer- und Rettungswache,053340002002,Aachen,Aachen,Städteregion Aachen,Köln,Nordrhein-Westfalen
7.074109999996667,50.742879998980214,280,"Berufsfeuerwehr Bonn - Amt 37 - Dezernat I, Allgemeine Verwaltung, Feuerwehr und Rettungsdienst",Amt 37 - Feuerwehr und Rettungsdienst,Lievelingsweg,112,53119,Bonn,0228/717-0,0228/717-183,feuerwehr@bonn.de,www.bonn.de,Verwaltung,053140000000,Bonn,Bonn,Bonn,Köln,Nordrhein-Westfalen
7.074109999996667,50.742879998980214,281,"Berufsfeuerwehr Bonn - Leitstelle für Feuerwehr, Rettungsdienst und Katastrophenschutz",LS Bonn,Lievelingsweg,112,53119,Bonn,0228/717-0, ,feuerwehr@bonn.de,www.bonn.de,Leitstelle,053140000000,Bonn,Bonn,Bonn,Köln,Nordrhein-Westfalen
7.074109999996667,50.742879998980214,282,Berufsfeuerwehr Bonn - Feuer- und Rettungswache 1 - Bonn-Zentrum,FW 1 - Bonn-Zentrum,Lievelingsweg,112,53119,Bonn,0228/717-147, ,feuerwehr@bonn.de,www.bonn.de,Feuer- und Rettungswache,053140000000,Bonn,Bonn,Bonn,Köln,Nordrhein-Westfalen
7.131450000154664,50.736859999512248,283,Berufsfeuerwehr Bonn - Feuer- und Rettungswache 2 - Bonn-Beuel,FRW 2 - Bonn-Beuel,Maarstraße,8-10,53227,Bonn,0228/717-247, ,feuerwehr@bonn.de,www.bonn.de,Feuer- und Rettungswache,053140000000,Bonn,Bonn,Bonn,Köln,Nordrhein-Westfalen
7.144139999420821,50.689859999274709,284,Berufsfeuerwehr Bonn - Feuer- und Rettungswache 3 - Bonn-Bad Godesberg,FRW 3 - Bonn-Bad Godesberg,Friesdorfer Straße,160,53175,Bonn,0228/717-347, ,feuerwehr@bonn.de,www.bonn.de,Feuer- und Rettungswache,053140000000,Bonn,Bonn,Bonn,Köln,Nordrhein-Westfalen
7.064369999538177,50.708529999465341,285,Berufsfeuerwehr Bonn - Rettungswache 4,RW 4 - Hardtberg,Auf dem Kirchbüchel,4,53127,Bonn,0228/717-0, ,feuerwehr@bonn.de,www.bonn.de,Rettungswache,053140000000,Bonn,Bonn,Bonn,Köln,Nordrhein-Westfalen
6.628240000284126,49.746549999306879,286,Berufsfeuerwehr Trier - Feuer- und Rettungswache I - Integrierte Leitstelle,FRW I - ILS,St.-Barbara-Ufer,40,54290,Trier,0651/9488-0,0651/9488-3901,poststelle@feuerwehr-trier.de,www.trier.de,Feuer- und Rettungswache mit Leitstelle,072110000000,Trier,Trier,Trier, ,Rheinland-Pfalz
6.68860999996003,49.802949999274489,287,Berufsfeuerwehr Trier - Feuer- und Rettungswache II - Brand- und Katastrophenschutzzentrum (BKSZ) Trier-Ehrang,FRW II - BKSZ Trier-Ehrang,Servaisstraße,13,54293,Trier,0651/9488-0, ,poststelle@feuerwehr-trier.de,www.trier.de,Feuer- und Rettungswache,072110000000,Trier,Trier,Trier, ,Rheinland-Pfalz
6.639119999638543,49.761709999119532,288,Berufsfeuerwehr Trier - Rettungswache Krankenhaus der Barmherzigen Brüder,RW - Krankenhaus der Barmherzigen Brüder,Nordallee,1,54292,Trier,0651/9488-0, ,poststelle@feuerwehr-trier.de,www.trier.de,Rettungswache,072110000000,Trier,Trier,Trier, ,Rheinland-Pfalz
8.235479999792851,49.979049998982283,289,Berufsfeuerwehr Mainz - Feuerwache 1 - Integrierte Leitstelle,FW 1 - Mainz - ILS,Jakob-Leischner-Straße,11,55128,Mainz,06131/12 4580,06131/124583,feuerwehr@stadt.mainz.de,www.feuerwehr-mainz.org,Feuerwache mit Leitstelle,073150000000,Mainz,Mainz,Mainz, ,Rheinland-Pfalz
8.252840000520829,50.016069999288803,290,Berufsfeuerwehr Mainz - Feuerwache 2,FW 2 - Mainz,Kaiser-Karl-Ring,38,55118,Mainz,06131/12 4580, ,feuerwehr@stadt.mainz.de,www.feuerwehr-mainz.org,Feuerwache,073150000000,Mainz,Mainz,Mainz, ,Rheinland-Pfalz
8.2186499997091,50.079849999461899,291,Berufsfeuerwehr Wiesbaden - Feuerwache 1 - Stadtmitte und Integrierte Leitstelle,FW 1 - Stadtmitte - ILS,Kurt-Schumacher-Ring,16,65197,Wiesbaden,0611/499-0,0611/499-190,feuerwehr@wiesbaden.de,www.feuerwehr-wiesbaden.de,Feuerwache mit Leitstelle,064140000000,Wiesbaden,Wiesbaden,Wiesbaden,Darmstadt,Hessen
8.270030000144898,50.02353999907254,292,Berufsfeuerwehr Wiesbaden - Feuerwache 2 - Wiesbaden Mainz-Kastel,FW 2 - Wiesbaden Mainz-Kastel,Sankt-Florian-Straße,1,55252,Mainz-Kastel, , ,feuerwehr@wiesbaden.de,www.feuerwehr-wiesbaden.de,Feuerwache,064140000000,Wiesbaden,Wiesbaden,Wiesbaden,Darmstadt,Hessen
8.288660000087757,50.083469998801171,293,Berufsfeuerwehr Wiesbaden - Feuerwache 3 - Wiesbaden-Bierstadt,FW 3 - Wiesbaden-Bierstadt,Oberlinstraße,4,65191,Wiesbaden, , ,feuerwehr@wiesbaden.de,www.feuerwehr-wiesbaden.de,Feuerwache,064140000000,Wiesbaden,Wiesbaden,Wiesbaden,Darmstadt,Hessen
7.580929999594818,50.364289998845869,294,Berufsfeuerwehr Koblenz - Feuer- und Rettungswache - Integrierte Leitstelle,FRW - ILS,Schlachthofstraße,2-12,56073,Koblenz,0261/40404-0,0261/44660,info@feuerwehr-koblenz.de,www.koblenz.de/rathaus/verwaltung/feuerwehr,Feuer- und Rettungswache mit Leitstelle,071110000000,Koblenz,Koblenz,Koblenz, ,Rheinland-Pfalz
7.463439999698203,51.357539999451568,295,Berufsfeuerwehr Hagen - Feuer- und Rettungswache 1 - Mitte,FRW 1 - Mitte,Bergischer Ring,87,58095,Hagen,02331/374-0, ,feuerwehr@stadt-hagen.de,www.hagen.de,Feuer- und Rettungswache,059140000000,Hagen,Hagen,Hagen,Arnsberg,Nordrhein-Westfalen
7.545099999643673,51.37437999915025,296,Berufsfeuerwehr Hagen - Feuer- und Rettungswache 2 - Ost - Amtsleitung und Leitstelle,FRW 2 - Ost - LS,Florianstraße,2,58119,Hagen,02331/374-0,02331/3744347,feuerwehr@stadt-hagen.de,www.hagen.de,Feuer- und Rettungswache mit Leitstelle,059140000000,Hagen,Hagen,Hagen,Arnsberg,Nordrhein-Westfalen
7.434370000501775,51.385949999066391,297,Berufsfeuerwehr Hagen - Rettungswache 3 - Vorhalle,RW 3 - Vorhalle,Revelstraße,5,58089,Hagen, , ,feuerwehr@stadt-hagen.de,www.hagen.de,Rettungswache,059140000000,Hagen,Hagen,Hagen,Arnsberg,Nordrhein-Westfalen
7.412820000548238,51.345129998977221,298,Berufsfeuerwehr Hagen - Rettungswache 4 - Haspe,RW 4 - Haspe,Preselweg,41,58135,Hagen, , ,feuerwehr@stadt-hagen.de,www.hagen.de,Rettungswache,059140000000,Hagen,Hagen,Hagen,Arnsberg,Nordrhein-Westfalen
7.466030000243366,51.354009999319445,299,Berufsfeuerwehr Hagen - Notarztstation 1 - Allgemeines Krankenhaus Hagen,NAS 1 - Allgemeines Krankenhaus Hagen,Grünstraße,35,58095,Hagen, , ,feuerwehr@stadt-hagen.de,www.hagen.de,Notarzt,059140000000,Hagen,Hagen,Hagen,Arnsberg,Nordrhein-Westfalen
7.472429999479694,51.39489999932843,300,Berufsfeuerwehr Hagen - Notarztstation 2 - Johannes Hospital Hagen,NAS 2 - Johannes Hospital Hagen,Hospitalstraße,6,58099,Hagen, , ,feuerwehr@stadt-hagen.de,www.hagen.de,Notarzt,059140000000,Hagen,Hagen,Hagen,Arnsberg,Nordrhein-Westfalen
7.349890000570594,51.440579999476633,301,Berufsfeuerwehr Witten - Hauptwache,HW Witten,Dortmunder Straße,17,58455,Witten,02302/923-0,02302/5812359,feuerwehr@stadt-witten.de,www.feuerwehr-witten.de,Feuer- und Rettungswache,059540036036,Witten,Witten,Ennepe-Ruhr-Kreis,Arnsberg,Nordrhein-Westfalen
7.680609999684978,51.381419999274982,302,Berufsfeuerwehr Iserlohn,FW Iserlohn,Dortmunder Straße,112,58636,Iserlohn,02371/806-6,02371/806-806,feuerwehr@iserlohn.de,www.feuerwehr-iserlohn.de,Feuerwache,059620024024,Iserlohn,Iserlohn,Märkischer Kreis,Arnsberg,Nordrhein-Westfalen
7.79202999949717,51.678109999440828,303,"Berufsfeuerwehr Hamm - Amt 37 - Brandschutz, Rettungsdienst und Zivilschutz","Amt 37 - Brandschutz, Rettungsdienst und Zivilschutz",Hafenstraße,45,59067,Hamm,02381/903-0,02381/903-105,info@feuerwehr-hamm.de,www.feuerwehr-hamm.de,Verwaltung,059150000000,Hamm,Hamm,Hamm,Arnsberg,Nordrhein-Westfalen
7.79202999949717,51.678109999440828,304,Berufsfeuerwehr Hamm - Feuer- und Rettungswache 1 - Mitte - Integrierte Leitstelle,FRW 1 - Mitte - ILS,Hafenstraße,45,59067,Hamm,02381/903-260,02381/903-525,feuerwehr@stadt.hamm.de,www.feuerwehr-hamm.de,Feuer- und Rettungswache mit Leitstelle,059150000000,Hamm,Hamm,Hamm,Arnsberg,Nordrhein-Westfalen
7.851389999403202,51.67687999906952,305,Berufsfeuerwehr Hamm - Feuer- und Rettungswache 2 - Ost,FRW 2 - Ost,Hohefeldweg,25,59071,Hamm,02381/903-630, ,feuerwehr@stadt.hamm.de,www.feuerwehr-hamm.de,Feuer- und Rettungswache,059150000000,Hamm,Hamm,Hamm,Arnsberg,Nordrhein-Westfalen
7.851889999942415,51.626549999206063,306,Berufsfeuerwehr Hamm - Rettungswache 3 - Süd,RW 3 - Süd,Vöhde,41,59069,Hamm, , ,feuerwehr@stadt.hamm.de,www.feuerwehr-hamm.de,Rettungswache,059150000000,Hamm,Hamm,Hamm,Arnsberg,Nordrhein-Westfalen
7.734890000318298,51.660139998784743,307,Berufsfeuerwehr Hamm - Rettungswache 4 - West,RW 4 - West,An den Kirchen,26-28,59077,Hamm, , ,feuerwehr@stadt-hamm.de,www.feuerwehr-hamm.de,Rettungswache,059150000000,Hamm,Hamm,Hamm,Arnsberg,Nordrhein-Westfalen
7.769800000586855,51.700099999222857,308,Berufsfeuerwehr Hamm - Rettungswache 5 - Nord - Technisches Zentrum,RW 5 - Nord,Römerstraße,44,59075,Hamm, , ,feuerwehr@stadt.hamm.de,www.feuerwehr-hamm.de,Rettungswache,059150000000,Hamm,Hamm,Hamm,Arnsberg,Nordrhein-Westfalen
8.690579999504177,50.144349999248185,309,"Berufsfeuerwehr Frankfurt am Main - Feuer- und Rettungswache 1 - Eckenheim - Brandschutz-, Katastrophenschutz und Rettungsdienstzentrum - ILS",FRW 1 - Eckenheim - ILS,Feuerwehrstraße,1,60435,Frankfurt am Main,069/212-726309,069/21272550-9,pressestelle.feuerwehr@stadt-frankfurt.de,www.feuerwehr-frankfurt.de,Feuer- und Rettungswache mit Leitstelle,064120000000,Frankfurt am Main,Frankfurt am Main,Frankfurt am Main,Darmstadt,Hessen
8.651400000658459,50.10695999947086,310,Berufsfeuerwehr Frankfurt am Main - Feuer- und Rettungswache 2 - Gallusviertel,FRW 2 - Gallusviertel,Heinrichstraße,8,60327,Frankfurt am Main,069/212-726309, ,pressestelle.feuerwehr@stadt-frankfurt.de,www.feuerwehr-frankfurt.de,Feuer- und Rettungswache,064120000000,Frankfurt am Main,Frankfurt am Main,Frankfurt am Main,Darmstadt,Hessen
8.569819999885556,50.09736999949839,311,Berufsfeuerwehr Frankfurt am Main - Feuer- und Rettungswache 3 - Nied,FRW 3 - Nied,Nieder Kirchweg,26,65934,Frankfurt am Main, , ,pressestelle.feuerwehr@stadt-frankfurt.de,www.feuerwehr-frankfurt.de,Feuer- und Rettungswache,064120000000,Frankfurt am Main,Frankfurt am Main,Frankfurt am Main,Darmstadt,Hessen
8.680219999399352,50.094929999270704,312,Berufsfeuerwehr Frankfurt am Main - Feuer- und Rettungswache 4 - Sachsenhausen,FRW 4 - Sachsenhausen,Mörfelder Landstraße,126,60598,Frankfurt am Main,069/212-726309, ,pressestelle.feuerwehr@stadt-frankfurt.de,www.feuerwehr-frankfurt.de,Feuer- und Rettungswache,064120000000,Frankfurt am Main,Frankfurt am Main,Frankfurt am Main,Darmstadt,Hessen
8.67357000053377,50.200439999221089,313,Berufsfeuerwehr Frankfurt am Main - Feuer- und Rettungswache 10 - Nieder-Eschbach,FRW 10 - Nieder-Eschbach,Deuil-la-Barre Straße,69,60437,Frankfurt am Main,069/212-726309, ,pressestelle.feuerwehr@stadt-frankfurt.de,www.feuerwehr-frankfurt.de,Feuer- und Rettungswache,064120000000,Frankfurt am Main,Frankfurt am Main,Frankfurt am Main,Darmstadt,Hessen
8.751340000202827,50.148269998641126,314,Berufsfeuerwehr Frankfurt am Main - Feuer- und Rettungswache 11 - Enkheim,FRW 11 - Enkheim,Florianweg,11-13,60389,Frankfurt am Main,069/212-726309, ,pressestelle.feuerwehr@stadt-frankfurt.de,www.feuerwehr-frankfurt.de,Feuer- und Rettungswache,064120000000,Frankfurt am Main,Frankfurt am Main,Frankfurt am Main,Darmstadt,Hessen
8.586330000107848,50.055479999059102,315,"Berufsfeuerwehr Frankfurt am Main - Feuerwache 20 - Gateway Gardens, Flughafen","FW 20 - Gateway Gardens, Flughafen",Kapitän-Lehmann-Straße,4,60549,Frankfurt am Main,069/212-726309, ,pressestelle.feuerwehr@stadt-frankfurt.de,www.feuerwehr-frankfurt.de,Feuerwache,064120000000,Frankfurt am Main,Frankfurt am Main,Frankfurt am Main,Darmstadt,Hessen
8.636169999926368,50.156669999504381,316,Berufsfeuerwehr Frankfurt am Main - Feuer- und Rettungswache 21 - Nordweststadt,FRW 21 - Nordweststadt,Erich-Ollenhauer-Ring,2,60439,Frankfurt am Main,069/212-726309, ,pressestelle.feuerwehr@stadt-frankfurt.de,www.feuerwehr-frankfurt.de,Feuer- und Rettungswache,064120000000,Frankfurt am Main,Frankfurt am Main,Frankfurt am Main,Darmstadt,Hessen
8.582050000668366,50.123109998948202,317,Berufsfeuerwehr Frankfurt am Main - Feuer- und Rettungswache 30 - Sossenheim,FRW 30 - Sossenheim,Westerbachstraße,175,65936,Frankfurt am Main, , ,pressestelle.feuerwehr@stadt-frankfurt.de,www.feuerwehr-frankfurt.de,Feuer- und Rettungswache,064120000000,Frankfurt am Main,Frankfurt am Main,Frankfurt am Main,Darmstadt,Hessen
8.521559999481401,50.097189998763916,318,Berufsfeuerwehr Frankfurt am Main - Feuerwache 31 - Zeilsheim,FW 31 - Zeilsheim,Pfaffenwiese,318,65929,Frankfurt am Main, , ,pressestelle.feuerwehr@stadt-frankfurt.de,www.feuerwehr-frankfurt.de,Feuerwache,064120000000,Frankfurt am Main,Frankfurt am Main,Frankfurt am Main,Darmstadt,Hessen
8.723060000669344,50.109119999503562,319,Berufsfeuerwehr Frankfurt am Main - Feuer- und Rettungswache 40 - Ostend,FRW 40 - Ostend,Franziusstraße,20,60314,Frankfurt am Main,069/212-726309, ,pressestelle.feuerwehr@stadt-frankfurt.de,www.feuerwehr-frankfurt.de,Feuer- und Rettungswache,064120000000,Frankfurt am Main,Frankfurt am Main,Frankfurt am Main,Darmstadt,Hessen
8.635020000517928,50.087949998863877,320,Berufsfeuerwehr Frankfurt am Main - Feuerwache 41 - Niederrad,FW 41 - Niederrad,Schwanheimer Straße,140,60528,Frankfurt am Main,069/212-726309, ,pressestelle.feuerwehr@stadt-frankfurt.de,www.feuerwehr-frankfurt.de,Feuerwache,064120000000,Frankfurt am Main,Frankfurt am Main,Frankfurt am Main,Darmstadt,Hessen
8.784969999522438,50.098379998860715,321,Berufsfeuerwehr Offenbach - Feuer- und Rettungswache - Leitstelle,FRW Offenbach - LS,Rhönstraße,10,63071,Offenbach am Main,069/8237990,069/8065-3349,feuerwehr@offenbach.de,www.offenbach.de,Feuer- und Rettungswache mit Leitstelle,064130000000,Offenbach am Main,Offenbach am Main,Offenbach am Main,Darmstadt,Hessen
8.640200000166654,49.874549999236649,322,Berufsfeuerwehr Darmstadt,FW Darmstadt,Bismarckstraße,86,64293,Darmstadt,06151/780-00,06151/132403,feuerwehr@darmstadt.de,www.feuerwehr-darmstadt.de,Feuerwache,064110000000,Darmstadt,Darmstadt,Darmstadt,Darmstadt,Hessen
7.007329999927694,49.236899999073408,323,Berufsfeuerwehr Saarbrücken - Hauptfeuer- und Rettungswache 1,HFRW 1,Hessenweg,7,66111,Saarbrücken,0681/3010-101,0681/3010-109,feuerwehr@saarbruecken.de,www.feuerwehr-saarbruecken.de,Feuer- und Rettungswache,100410100100,Saarbrücken,Saarbrücken,Regionalverband Saarbrücken, ,Saarland
6.956729999833294,49.244879999103155,324,Berufsfeuerwehr Saarbrücken - Feuer- und Rettungswache 2 - Burbach,FRW 2 - Burbach,Weißenburger Straße,17,66113,Saarbrücken, , ,feuerwehr@saarbruecken.de,www.feuerwehr-saarbruecken.de,Feuer- und Rettungswache,100410100100,Saarbrücken,Saarbrücken,Regionalverband Saarbrücken, ,Saarland
8.436250000674862,49.462649999021529,325,Berufsfeuerwehr Ludwigshafen - Hauptfeuerwache und Feuerwehrleitstelle,HFW - FLS,Kaiserwörthdamm,1,67065,Ludwigshafen,0621/504-3037,0621/504-6117,feuerwehr@ludwigshafen.de,www.feuerwehr-lu.de,Feuerwache mit Leitstelle,073140000000,Ludwigshafen am Rhein,Ludwigshafen am Rhein,Ludwigshafen am Rhein, ,Rheinland-Pfalz
8.405979999441978,49.513909999437161,326,Berufsfeuerwehr Ludwigshafen - Feuerwache Nord,FW Nord,Friesenheimer Straße,53,67069,Ludwigshafen,0621/504-6110, ,feuerwehr@ludwigshafen.de,www.feuerwehr-lu.de,Feuerwache,073140000000,Ludwigshafen am Rhein,Ludwigshafen am Rhein,Ludwigshafen am Rhein, ,Rheinland-Pfalz
7.742080000247157,49.439229999057517,327,Berufsfeuerwehr Kaiserslautern - Feuerwache und integrierte Leitstelle,FW und ILS,An der Feuerwache,6,67663,Kaiserslautern,0631/316052-0, ,info@feuerwehr-kaiserslautern.de,www.feuerwehr-kaiserslautern.de,Feuerwache mit Leitstelle,073120000000,Kaiserslautern,Kaiserslautern,Kaiserslautern, ,Rheinland-Pfalz
8.485990000668902,49.466869998900037,328,Berufsfeuerwehr Mannheim - Hauptfeuerwache und Leitstelle Mannheim,HFW - LS Mannheim,Gert-Magnus-Platz,1,68163,Mannheim,0621/32888-0,0621/32888-526,feuerwehr@mannheim.de,www.mannheim.de/feuerwehr,Feuerwache mit Leitstelle,082220000000,Mannheim,Mannheim,Mannheim,Karlsruhe,Baden-Württemberg
8.537320000069956,49.424089999026442,329,Berufsfeuerwehr Mannheim - Feuerwache Süd - Rheinau,FW Süd - Rheinau,Relaisstraße,215,68219,Mannheim,0621/32888-311,0621/32888-313,feuerwehr@mannheim.de,www.mannheim.de/feuerwehr,Feuerwache,082220000000,Mannheim,Mannheim,Mannheim,Karlsruhe,Baden-Württemberg
8.510209999882365,49.517729998782585,330,Berufsfeuerwehr Mannheim - Feuerwache Nord - Käfertal,FW Nord - Käfertal,Auf dem Sand,87,68309,Mannheim,0621/32888-211,0621/32888-213,feuerwehr@mannheim.de,www.mannheim.de/feuerwehr,Feuerwache,082220000000,Mannheim,Mannheim,Mannheim,Karlsruhe,Baden-Württemberg
8.670759999587135,49.397279998970518,331,Berufsfeuerwehr Heidelberg,FW Heidelberg,Baumschulenweg,4,69124,Heidelberg,06221/5821000,06221/58-21190,berufsfeuerwehr@heidelberg.de,www.feuerwehr-heidelberg.de,Feuerwache,082210000000,Heidelberg,Heidelberg,Heidelberg,Karlsruhe,Baden-Württemberg
8.670759999587135,49.397279998970518,332,Feuerwehrleitstelle Heidelberg,FLS Heidelberg,Baumschulenweg,4,69124,Heidelberg,06221/5821000,06221/984-190,feuerwehrleitstelle@heidelberg.de,www.feuerwehr-heidelberg.de,Leitstelle,082210000000,Heidelberg,Heidelberg,Heidelberg,Karlsruhe,Baden-Württemberg
9.165529999476123,48.738049999075827,333,Berufsfeuerwehr Stuttgart - Branddirektion - Abteilung Einsatz - Rettungsdienst,BD - Rettungsdienst,Bruno-Jacoby-Weg,5,70597,Stuttgart,0711/216-75016,0711/216-75019,poststelle.branddirektion@stuttgart.de,www.feuerwehr-stuttgart.de,Rettungswache,081110000000,Stuttgart,Stuttgart,Stuttgart,Stuttgart,Baden-Württemberg
9.219719999661381,48.797799999441054,334,Berufsfeuerwehr Stuttgart - Branddirektion - Abteilung Einsatz - Integrierte Leitstelle,BD - ILS,Mercedesstraße,33,70372,Stuttgart,0711/2167-0,0711/2167-7399,37-Pressestelle@stuttgart.de,www.feuerwehr-stuttgart.de,Leitstelle,081110000000,Stuttgart,Stuttgart,Stuttgart,Stuttgart,Baden-Württemberg
9.181209999692095,48.77156999872772,335,Berufsfeuerwehr Stuttgart - Feuerwache 1 - Süd,FW 1 - Süd,Heusteigstraße,12,70182,Stuttgart,0711/216-71014,0711/216-71019,poststelle.branddirektion@stuttgart.de,www.feuerwehr-stuttgart.de,Feuerwache,081110000000,Stuttgart,Stuttgart,Stuttgart,Stuttgart,Baden-Württemberg
9.166319999692769,48.776539998886143,336,Berufsfeuerwehr Stuttgart - Feuerwache 2 - West,FW 2 - West,Weimarstraße,36,70176,Stuttgart,0711/216-72014,0711/216-72019,poststelle.branddirektion@stuttgart.de,www.feuerwehr-stuttgart.de,Feuerwache,081110000000,Stuttgart,Stuttgart,Stuttgart,Stuttgart,Baden-Württemberg
9.219979999665105,48.797169998956456,337,Berufsfeuerwehr Stuttgart - Feuerwache 3 - Bad Cannstadt - Hauptfeuerwache,HFW 3 - Bad Cannstadt,Mercedesstraße,35,70372,Stuttgart,0711/216-73013,0711/216-73019,poststelle.branddirektion@stuttgart.de,www.feuerwehr-stuttgart.de,Feuerwache,081110000000,Stuttgart,Stuttgart,Stuttgart,Stuttgart,Baden-Württemberg
9.161759999637063,48.812749999461516,338,Berufsfeuerwehr Stuttgart - Feuerwache 4 - Feuerbach,FW 4 - Feuerbach,Bregenzerstraße,47,70469,Stuttgart,0711/216-74014,0711/216-74019,poststelle.branddirektion@stuttgart.de,www.feuerwehr-stuttgart.de,Feuerwache,081110000000,Stuttgart,Stuttgart,Stuttgart,Stuttgart,Baden-Württemberg
9.165529999476123,48.738049999075827,339,Berufsfeuerwehr Stuttgart - Feuer- und Rettungswache 5 - Filder,FRW 5 - Filder,Bruno-Jacoby-Weg,5,70597,Stuttgart,0711/216-75014,0711/216-75019,poststelle.branddirektion@stuttgart.de,www.feuerwehr-stuttgart.de,Feuer- und Rettungswache,081110000000,Stuttgart,Stuttgart,Stuttgart,Stuttgart,Baden-Württemberg
9.19012000051919,48.493129999109023,340,Berufsfeuerwehr Reutlingen - Integrierte Leitstelle,ILS Reutlingen,Hauffstraße,57,72762,Reutlingen,07121/98500,07121/303-1788,leitstelle@leitstelle-reutlingen.de,www.feuerwehr.reutlingen.de,Leitstelle,084150061061,Reutlingen,Reutlingen,Reutlingen,Tübingen,Baden-Württemberg
9.19012000051919,48.493129999109023,341,Berufsfeuerwehr Reutlingen - Feuerwache,FW Reutlingen,Hauffstraße,57,72762,Reutlingen,07121/303-1706,07121/303-1707,feuerwehr@reutlingen.de,www.feuerwehr.reutlingen.de,Feuerwache,084150061061,Reutlingen,Reutlingen,Reutlingen,Tübingen,Baden-Württemberg
9.217919999331155,49.12726999923057,342,Berufsfeuerwehr Heilbronn,FW Heilbronn,Beethovenstraße,29,74074,Heilbronn,07131/56-2100,07131/56-2107,feuerwehr@stadt-heilbronn.de,www.feuerwehr.heilbronn.de,Feuerwache,081210000000,Heilbronn,Heilbronn,Heilbronn,Stuttgart,Baden-Württemberg
9.217919999331155,49.12726999923057,343,Feuerwehrleitstelle Heilbronn,ILS Heilbronn,Beethovenstraße,29,74074,Heilbronn,07131/56-2100,07131/56-2107,feuerwehr@stadt-heilbronn.de,www.feuerwehr.heilbronn.de,Leitstelle,081210000000,Heilbronn,Heilbronn,Heilbronn,Stuttgart,Baden-Württemberg
8.679870000260662,48.890139999183837,344,Berufsfeuerwehr Pforzheim - Hauptfeuerwache,HFW Pforzheim,Habermehlstraße,77,75172,Pforzheim,07231/39-2511,07231/39-1272,fw@stadt-pforzheim.de,www.feuerwehr-pforzheim.de,Feuerwache,082310000000,Pforzheim,Pforzheim,Pforzheim,Karlsruhe,Baden-Württemberg
8.679870000260662,48.890139999183837,345,Berufsfeuerwehr Pforzheim - Integrierte Leitstelle,ILS Pforzheim,Habermehlstraße,77,75172,Pforzheim,07231/1294-0,07231/12945-8402,leitstelle@ils-pforzheim.de,www.feuerwehr-pforzheim.de,Leitstelle,082310000000,Pforzheim,Pforzheim,Pforzheim,Karlsruhe,Baden-Württemberg
8.424870000316952,49.002109998830086,346,Berufsfeuerwehr Karlsruhe - Hauptfeuerwache und integrierte Leitstelle,HFW - ILS,Zimmerstraße,1,76137,Karlsruhe, , , ,www.feuerwehr-karlsruhe.de,Leitstelle,082120000000,Karlsruhe,Karlsruhe,Karlsruhe,Karlsruhe,Baden-Württemberg
8.397719999848157,49.002679998908093,347,Berufsfeuerwehr Karlsruhe - Hauptfeuerwache,HFW Karlsruhe,Ritterstraße,48,76137,Karlsruhe,0721/1333750,0721/1333709,bd@karlsruhe.de,www.feuerwehr-karlsruhe.de,Feuerwache,082120000000,Karlsruhe,Karlsruhe,Karlsruhe,Karlsruhe,Baden-Württemberg
8.354379999504426,49.012829998701349,348,Berufsfeuerwehr Karlsruhe - Feuerwache West,FW West,Honsellstraße,3,76185,Karlsruhe, , , ,www.feuerwehr-karlsruhe.de,Feuerwache,082120000000,Karlsruhe,Karlsruhe,Karlsruhe,Karlsruhe,Baden-Württemberg
7.830220000601569,47.991259998788337,349,Berufsfeuerwehr Freiburg - Integrierte Leitstelle,FW Freiburg - ILS,Eschholzstraße,118,79115,Freiburg im Breisgau,0761/201-3315,0761/201-3399,info@feuerwehr-freiburg.de,www.feuerwehr-freiburg.de,Leitstelle,083110000000,Freiburg im Breisgau,Freiburg im Breisgau,Freiburg im Breisgau,Freiburg,Baden-Württemberg
7.830220000601569,47.991259998788337,350,Berufsfeuerwehr Freiburg - Feuerwache,FW Freiburg,Eschholzstraße,118,79115,Freiburg im Breisgau,0761/201-3315,0761/201-3377,info@feuerwehr-freiburg.de,www.feuerwehr-freiburg.de,Feuerwache,083110000000,Freiburg im Breisgau,Freiburg im Breisgau,Freiburg im Breisgau,Freiburg,Baden-Württemberg
11.569640000461279,48.132659999154697,351,"Berufsfeuerwehr München - Hauptabteilung IV - Branddirektion, Katastrophenschutz, Zivilschutz",HFW München,An der Hauptfeuerwache,8,80331,München,089/2353-0,089/2353-81999, ,www.feuerwehr.muenchen.de,Verwaltung,091620000000,München,München,München,Oberbayern,Bayern
11.569640000461279,48.132659999154697,352,Berufsfeuerwehr München - Feuerwache 1 - Hauptfeuerwache mit Sitz der Branddirektion,FW 1 - HFW und Branddirektion,An der Hauptfeuerwache,8,80331,München,089/2353-0,089/2353-70199,bmf.geschaeftsstelle.kvr@muenchen.de,www.feuerwehr.muenchen.de,Feuerwache,091620000000,München,München,München,Oberbayern,Bayern
11.524689999855193,48.1007799991715,353,Berufsfeuerwehr München - Feuerwache 2 - Sendling,FW 2 - Sendling,Aidenbachstraße,7,81379,München,089/2353-0,089/2353-70299, ,www.feuerwehr.muenchen.de,Feuerwache,091620000000,München,München,München,Oberbayern,Bayern
11.543209999797865,48.133909998965123,354,Berufsfeuerwehr München - Feuerwache 3 - Westend,FW 3 - Westend,Heimeranstraße,10,80339,München,089/2353-0,089/2353-70399, ,www.feuerwehr.muenchen.de,Feuerwache,091620000000,München,München,München,Oberbayern,Bayern
11.555479999602472,48.156449999459227,355,Berufsfeuerwehr München - Feuerwache 4 und ILS - Schwabing,FW 4 und ILS - Schwabing,Heßstraße,120,80797,München,089/2353-0,089/2353-70499, ,www.feuerwehr.muenchen.de,Feuerwache mit Leitstelle,091620000000,München,München,München,Oberbayern,Bayern
11.612099999784332,48.121379999215918,356,Berufsfeuerwehr München - Feuerwache 5 - Ramersdorf,FW 5 - Ramersdorf,Anzinger Straße,41,81671,München,089/2353-0,089/2353-70599, ,www.feuerwehr.muenchen.de,Feuerwache,091620000000,München,München,München,Oberbayern,Bayern
11.452829999344949,48.157939999046164,357,Berufsfeuerwehr München - Feuerwache 6 - Pasing,FW 6 - Pasing,Bassermannstraße,20,81245,München,089/2353-0,089/2353-70699, ,www.feuerwehr.muenchen.de,Feuerwache,091620000000,München,München,München,Oberbayern,Bayern
11.557299999620383,48.186909999402594,358,Berufsfeuerwehr München - Feuerwache 7 - Milbertshofen,FW 7 - Milbertshofen,Moosacher Straße,28,80809,München,089/2353-0,089/2353-70799, ,www.feuerwehr.muenchen.de,Feuerwache,091620000000,München,München,München,Oberbayern,Bayern
11.642650000169802,48.175469999477933,359,Berufsfeuerwehr München - Feuerwache 8 - Unterföhring,FW 8 - Unterföhring,Apianstraße,1,85774,Unterföhring,089/2353-0,089/2353-70899, ,www.feuerwehr.muenchen.de,Feuerwache,091840147147,Unterföhring,Unterföhring,München,Oberbayern,Bayern
11.655829999859478,48.092359999414967,360,Berufsfeuerwehr München - Feuerwache 9 - Neuperlach - Feuer- und Rettungswache,FW 9 - Neuperlach,Heidestraße,3,81739,München,089/2353-0,089/2353-70999, ,www.feuerwehr.muenchen.de,Feuerwache,091620000000,München,München,München,Oberbayern,Bayern
11.687029999978794,48.135869998658244,361,Berufsfeuerwehr München - Feuerwache 10 - Riem/Neue Messe,FW 10 - Riem/Neue Messe,Joseph-Wild-Straße,15,81829,München,089/2353-001,089/2353-71099, ,www.feuerwehr.muenchen.de,Feuerwache,091620000000,München,München,München,Oberbayern,Bayern
11.560990000462384,48.134079998985086,362,Berufsfeuerwehr München - Rettungswache Mitte - Klinikum der Universität München Innenstadt,RW Mitte,Schillerstraße,53,80336,München,089/2353-001, , ,www.feuerwehr.muenchen.de,Rettungswache,091620000000,München,München,München,Oberbayern,Bayern
11.504550000499368,48.166999999059385,363,Berufsfeuerwehr München - Rettungswache Nymphenburg - Krankenhaus des Dritten Ordens,RW Nymphenburg,In den Kirschen,33,80992,München,089/2353-001, , ,www.feuerwehr.muenchen.de,Rettungswache,091620000000,München,München,München,Oberbayern,Bayern
11.577609999628169,48.170629999305127,364,Berufsfeuerwehr München - Rettungswache Schwabing - Städtisches Krankenhaus Schwabing,RW Schwabing,Kölner Platz,1,80804,München,089/2353-001, , ,www.feuerwehr.muenchen.de,Rettungswache,091620000000,München,München,München,Oberbayern,Bayern
11.454060000484839,48.144459998969658,365,Berufsfeuerwehr München - Rettungswache Pasing - Helios Klinikum München West,RW Pasing,Steinerweg,5,81241,München,089/2353-001, , ,www.feuerwehr.muenchen.de,Rettungswache,091620000000,München,München,München,Oberbayern,Bayern
11.467560000512337,48.110729999471062,366,Berufsfeuerwehr München - Rettungswache Großhadern - Klinikum Großhadern,RW Großhadern,Marchioninistraße,15,81377,München,089/2353-001, , ,www.feuerwehr.muenchen.de,Rettungswache,091620000000,München,München,München,Oberbayern,Bayern
11.548729999994626,48.102899998698724,367,Berufsfeuerwehr München - Rettungswache Thalkirchen - Chirurgisches Klinikum München Süd,RW Thalkirchen,Am Isarkanal,30,81379,München,089/2353-001, , ,www.feuerwehr.muenchen.de,Rettungswache,091620000000,München,München,München,Oberbayern,Bayern
11.624709999860817,48.155409998660119,368,Berufsfeuerwehr München - Rettungswache Bogenhausen - Städtisches Krankenhaus Bogenhausen,RW Bogenhausen,Englschalkinger Straße,77,81925,München,089/2353-001, , ,www.feuerwehr.muenchen.de,Rettungswache,091620000000,München,München,München,Oberbayern,Bayern
11.427959999925649,48.769229998834817,369,Berufsfeuerwehr Ingolstadt - Amt für Brand- und Katastrophenschutz,FW Ingolstadt,Dreizehnerstraße,1,85049,Ingolstadt,0841/305-3939,0841/305-3999,info.feuerwehr@ingolstadt.de,www.berufsfeuerwehr-ingolstadt.de,Feuerwache,091610000000,Ingolstadt,Ingolstadt,Ingolstadt,Oberbayern,Bayern
11.668149999366833,48.060719999330765,370,Berufsfeuerwehr München - Rettungswache Ottobrunn - Freiwillige Feuerwehr Ottobrunn,RW Ottobrunn,Ottostraße,19,85521,Ottobrunn,089/2353-001, , ,www.feuerwehr.muenchen.de,Rettungswache,091840136136,Ottobrunn,Ottobrunn,München,Oberbayern,Bayern
11.594339999994906,48.224389999489304,371,Berufsfeuerwehr München - Rettungswache Neuherberg - Helmholtz Zentrum,RW Neuherberg,Ingolstädter Landstraße,1,85764,Oberschleißheim,089/2353-001, , ,www.feuerwehr.muenchen.de,Rettungswache,091840135135,Oberschleißheim,Oberschleißheim,München,Oberbayern,Bayern
10.915449999589599,48.373819999065383,372,Berufsfeuerwehr Augsburg - Hauptfeuerwache,HFW Augsburg,Berliner Allee,30,86153,Augsburg,0821/324-37001,0821/324-37009,feuerwehr@augsburg.de,www.augsburg.de/buergerservice-rathaus/berufsfeuerwehr/,Feuerwache,097610000000,Augsburg,Augsburg,Augsburg,Schwaben,Bayern
10.900009999990122,48.340179998921293,373,Berufsfeuerwehr Augsburg - Feuerwache Süd,FW Augsburg Süd,Alter Postweg,91,86159,Augsburg,0821/324-37400,0821/324-37634,feuerwehr@augsburg.de,www.augsburg.de/buergerservice-rathaus/berufsfeuerwehr/,Feuerwache,097610000000,Augsburg,Augsburg,Augsburg,Schwaben,Bayern
11.056759999320702,49.45347999921951,374,Berufsfeuerwehr Nürnberg - Feuerwache 1,FW 1,Reutersbrunnenstraße,24,90429,Nürnberg,0911/231-6100,0911/231-6105,fw@stadt.nuernberg.de,www.feuerwehr.nuernberg.de,Feuerwache,095640000000,Nürnberg,Nürnberg,Nürnberg,Mittelfranken,Bayern
11.106750000325791,49.458249999378559,375,Berufsfeuerwehr Nürnberg - Feuerwache 2,FW 2,Veilhofstraße,30,90489,Nürnberg,0911/231-6200,0911/231-6205,fw@stadt.nuernberg.de,www.feuerwehr.nuernberg.de,Feuerwache,095640000000,Nürnberg,Nürnberg,Nürnberg,Mittelfranken,Bayern
11.070129999470918,49.448929999430291,376,Berufsfeuerwehr Nürnberg - Feuerwache 3,FW 3,Jakobsplatz,20,90402,Nürnberg,0911/231-6300,0911/231-6305,fw@stadt.nuernberg.de,www.feuerwehr.nuernberg.de,Feuerwache,095640000000,Nürnberg,Nürnberg,Nürnberg,Mittelfranken,Bayern
11.06709999999681,49.407509999353827,377,Berufsfeuerwehr Nürnberg - Feuerwache 4  - Zentrale Wache und Integrierte Leitstelle,FW 4 - ZW - ILS,Regenstraße,4,90451,Nürnberg,0911/231-6400,0911/231-6405,fw@stadt.nuernberg.de,www.feuerwehr.nuernberg.de,Feuerwache mit Leitstelle,095640000000,Nürnberg,Nürnberg,Nürnberg,Mittelfranken,Bayern
11.123989999657853,49.416869998869117,378,Berufsfeuerwehr Nürnberg - Feuerwache 5,FW 5,Karl-Schönleben-Straße,80,90471,Nürnberg,0911/231-6500,0911/231-6505,fw@stadt.nuernberg.de,www.feuerwehr.nuernberg.de,Feuerwache,095640000000,Nürnberg,Nürnberg,Nürnberg,Mittelfranken,Bayern
10.991280000533829,49.476669999072179,379,Berufsfeuerwehr Fürth - Wache 1,FW Fürth,Helmplatz,2,90762,Fürth,0911/974-3600,0911/974-3611,berufsfeuerwehr@fuerth.de,www.feuerwehr-fuerth.org,Feuerwache,095630000000,Fürth,Fürth,Fürth,Mittelfranken,Bayern
12.115799999706814,49.013349999429195,380,Berufsfeuerwehr Regensburg - Hauptfeuerwache und Integrierte Leitstelle,HFW - ILS Regensburg,Greflingerstraße,20,93055,Regensburg,0941/5071365,0941/5074369,berufsfeuerwehr@regensburg.de,www.regensburg.de/feuerwehr,Feuerwache mit Leitstelle,093620000000,Regensburg,Regensburg,Regensburg,Oberpfalz,Bayern
9.940870000131097,49.795619999050203,381,Berufsfeuerwehr Würzburg - Feuerwache und Integrierte Leitstelle,FW - ILS,Hofstallstraße,3,97070,Würzburg,0931/309061-11,0931/309061-20,berufsfeuerwehr@stadt.wuerzburg.de,www.wuerzburg.de/themen/sicherheitundordnung/gefahrenabwehr/berufsfeuerwehr/index.html,Feuerwache mit Leitstelle,096630000000,Würzburg,Würzburg,Würzburg,Unterfranken,Bayern
10.999360000567421,50.99291999878109,382,Berufsfeuerwehr Erfurt - Hauptfeuer- und Rettungswache - Gefahrenschutzzentrum,HFRW - Gefahrenschutzzentrum,St.-Florian-Straße,4,99092,Erfurt,0361/741-5001,0361/741-5009,feuerwehr@erfurt.de,www.erfurt.de/ef/de/leben/feuerwehr,Feuer- und Rettungswache,160510000000,Erfurt,Erfurt,Erfurt, ,Thüringen
11.081979999887075,50.951899999461929,383,Berufsfeuerwehr Erfurt - Rettungswache 2 - Gefahrenabwehrzentrum Süd,FRW 2 - GAZ Süd,Wilhelm-Wolff-Straße,2,99099,Erfurt, , ,feuerwehr@erfurt.de,www.erfurt.de/ef/de/leben/feuerwehr,Feuer- und Rettungswache,160510000000,Erfurt,Erfurt,Erfurt, ,Thüringen
11.337509999806855,50.995039998920419,384,Berufsfeuerwehr Weimar,FW Weimar,Kromsdorfer Straße,13,99427,Weimar,03643/5555-11,03643/5555-49,feuerwehr@stadtweimar.de,stadt.weimar.de,Feuer- und Rettungswache,160550000000,Weimar,Weimar,Weimar, ,Thüringen
10.803010000351202,51.500369998689379,385,Berufsfeuerwehr Nordhausen - Feuerwache,FW und LS,Hohekreuzstraße,1,99734,Nordhausen,03631/6190-0,03631/902375,feuerwehr@nordhausen.de,www.nordhausen-feuerwehr.de,Feuerwache mit Leitstelle,160620041041,Nordhausen,Nordhausen,Nordhausen, ,Thüringen
10.311989999832864,50.991339999139562,386,Berufsfeuerwehr Eisenach,FW Eisenach,An der Feuerwache,6,99817,Eisenach,03691/673-370,03691/673-937,brandschutzamt@eisenach.de,www.eisenach.de,Feuerwache,160560000000,Eisenach,Eisenach,Eisenach, ,Thüringen
10.715640000222759,50.951589999382691,387,Berufsfeuerwehr Gotha,FW Gotha,Oststraße,33,99867,Gotha,03621/222-560,03621/222-565,brandschutzamt@gotha.de,www.feuerwehr-gotha.de,Feuerwache,160670029029,Gotha,Gotha,Gotha, ,Thüringen
