"nameCompany","streetAddress","postalCode","addressLocality"
"McDonald's","Klostermarkt 12","08523","Plauen"
"McDonald's","Äußere Reichenbacher Str. 64","08529","Plauen"
"McDonald's","Göltzschtalstr. 79","08209","Auerbach"
"McDonald's","Industriestr. 15","07907","Schleiz"
"McDonald's","Rosa-Luxemburg-Str. 56","08468","Reichenbach"
"McDonald's","Mittlerer Watzenbach 1","07318","Saalfeld"
"McDonald's","Lössnitzer Str. 89","08280","Aue"
"McDonald's","Chemnitzer Str. 36","09456","Annaberg-Buchholz"
"McDonald's","Arno-Schmidt-Str. 28","08134","Wildenfels (OT Härtensdorf)"
"McDonald's","Oskar-Arnold-Str. 14","08056","Zwickau"
"McDonald's","Innere Plauensche Str. 14 (Zwickau Arcaden)","08056","Zwickau"
"McDonald's","Amsterdamerstr. 2","07747","Jena"
"McDonald's","Kraftsdorferstr. 1","07629","Hermsdorf"
"McDonald's","Schlossstr. 1","07545","Gera"
"McDonald's","Hohe Str. 15","08393","Meerane"
"McDonald's","Siemensstr. 55","07546","Gera"
"McDonald's","Leutragraben 8","07743","Jena"
"McDonald's","Im Neefepark 2","09116","Chemnitz"
"McDonald's","Reichsstr. 1a","09112","Chemnitz"
"McDonald's","Am Rathaus 1","09111","Chemnitz"
"McDonald's","Eichenweg","07616","Petersberg"
"McDonald's","Leipziger Str. 212","09114","Chemnitz"
"McDonald's","Dresdner Str. 117","09130","Chemnitz"
"McDonald's","Lödlaer Chaussee 4b","04617","Lödla"
"McDonald's","Sachsenstr. 9a (Oli-Park)","09244","Lichtenau"
"McDonald's","Geußnitzer Str. 99","06712","Zeitz"
"McDonald's","Häuersteig 8a","09599","Freiberg"
"McDonald's","Am Wilhelmschacht 21","04552","Borna"
"McDonald's","Käthe-Kollwitz-Str.","06667","Weißenfels"
"McDonald's","Augustusberg 72","01683","Nossen"
"McDonald's","Heiterer Blick 1","04720","Großweitzschen"
"McDonald's","Boderitzer Str. 30","01728","Bannewitz"
"McDonald's","Grimmaische Str. (Pösnapark)","04463","Großpösna"
"McDonald's","Gompitzer Höhe 3","01156","Dresden"
"McDonald's","Nordstr. 1","04416","Markkleeberg"
"McDonald's","Dresdner Str. 47","01796","Pirna"
"McDonald's","Michaelisstr. 1","01257","Dresden"
"McDonald's","Hengstbergstr. 11","04668","Grimma"
"McDonald's","an der BAB 14 Muldental Nord","04668","Grimma"
"McDonald's","Prager Str. 4a","01069","Dresden"
"McDonald's","Saarländer Str. 2","04179","Leipzig"
"McDonald's","Trompeterstr. 5","01069","Dresden"
"McDonald's","Merseburger Landstr. 17 (Einkaufszentrum Saalepark)","06237","Leuna (OT Günthersdorf)"
"McDonald's","Webergasse 1","01067","Dresden-Innere Altstadt"
"McDonald's","Wilsdruffer Str. 19/21","01067","Dresden"
"McDonald's","Merseburger Landstr.","06237","Leuna (OT Günthersdorf)"
"McDonald's","Miltitzerstr. 13","04178","Leipzig"
"McDonald's","Petersstr.","04109","Leipzig"
"McDonald's","Querfurter Str. 4","06217","Merseburg Nord"
"McDonald's","Brühl 1","04109","Leipzig"
"McDonald's","Willy-Brandt-Platz 7","04109","Leipzig"
"McDonald's","Willy-Brandt-Platz 3","04109","Leipzig-Zentrum-Ost"
"McDonald's","Peschelstr. 38","01139","Dresden"
"McDonald's","Loschwitzer Str. 49","01309","Dresden"
"McDonald's","Hansastr. 56","01097","Dresden"
"McDonald's","Paunsdorfer Allee 1","04329","Leipzig-Engelsdorf"
"McDonald's","Fabrikstr. 12","01662","Meißen"
"McDonald's","Otto-Schmidt-Str.","04425","Taucha"
"McDonald's","Bierweg 6","04435","Schkeuditz"
"McDonald's","An der Prießnitzaue 1a","01328","Dresden"
"McDonald's","Handelsstr. 1","04356","Leipzig"
"McDonald's","Am Mittelfeld 1","06528","Oberröblingen"
"McDonald's","Leipziger Chaussee 147","06112","Halle"
"McDonald's","An der Lauchstädter Str. 5","06179","Angersdorf"
"McDonald's","Lommatzscher Str. 29","01587","Riesa"
"McDonald's","Neustädter Passage 17","06122","Halle-Neustadt"
"McDonald's","Bahnhofsplatz 1","06112","Halle (Saale)"
"McDonald's","Am Helftaer Anger 2","06295","Lutherstadt Eisleben"
"McDonald's","Rosenfelder Str. 11","06116","Halle"
"McDonald's","Magdeburger Chaussee 10","06118","Halle"
"McDonald's","Dr.-Helmut-Schreyer-Str. 12","04509","Delitzsch"
"McDonald's","Am Fiebig 1","01561","Thiendorf"
"McDonald's","Äußere Weberstr. 83","02763","Zittau"
"McDonald's","an der BAB 9 Köckern Ost","06794","Glebitzsch"
"McDonald's","Aussenring 5","04860","Torgau"
"McDonald's","Kornmarkt 7","02625","Bautzen"
"McDonald's","Krondorfer Str.","06766","Wolfen"
"McDonald's","Kreckwitzer Str. 3","02625","Bautzen"
"McDonald's","Güstenerstr. 19","06449","Aschersleben"
"McDonald's","Dessauer Str. 104","06366","Köthen"
"McDonald's","Ernest-Solvay-Str. 4","06406","Bernburg"
"McDonald's","Neidaer Weg (Globusmarkt)","02977","Hoyerswerda"
"McDonald's","Sollnitzer Allee 2","06842","Dessau"
"McDonald's","Kavalierstr. 71","06844","Dessau"
"McDonald's","Lausitzer Platz 1a","02977","Hoyerswerda"
"McDonald's","Güterbahnhofstr. 33","01968","Senftenberg"
"McDonald's","Am Hopfenfeld 5","02828","Görlitz (OT Girbigsdorf)"
"McDonald's","Ludwig-Erhard-Str. 1","03238","Massen"
"McDonald's","Berliner Chaussee 71","06886","Lutherstadt Wittenberg"
"McDonald's","LPG-Str. 1a","03222","Groß Beuchow"
"McDonald's","Vetschauer Str. 70 (Hauptbahnhof)","03046","Cottbus"
"McDonald's","Heinrich-Hertz-Str. 1","03044","Cottbus"
"McDonald's","Westfalenstr. 3","14822","Linthe"
"McDonald's","an der BAB 10 Michendorf Süd","14552","Michendorf"
"McDonald's","Obstzüchterstr. 1","14542","Werder"
"McDonald's","Parkallee 2","14974","Genshagen"
"McDonald's","Sankt-Annen-Str. 23","14776","Brandenburg An Der Havel"
"McDonald's","Rathenower Landstr.","14770","Brandenburg a.d. Havel"
"McDonald's","Stern-Center","14480","Potsdam"
"McDonald's","Fritz-Zubeil-Straße 95","14482","Potsdam"
"McDonald's","Horstweg","14478","Potsdam"
"McDonald's","Babelsberger Str. 16","14473","Potsdam"
"McDonald's","Brandenburger Str. 30-31","14467","Potsdam"
"McDonald's","Gewerbepark 2","15745","Wildau"
"McDonald's","Am Lückefeld 6","15831","Mahlow"
"McDonald's","Stolper Weg 55","14532","Kleinmachnow"
"McDonald's","Potsdamer Str. 2","14513","Teltow"
"McDonald's","Königstr. 12","14109","Berlin"
"McDonald's","Zeppelinstr. 3","12529","Schönefeld"
"McDonald's","Osdorferstr. 125a","12207","Berlin"
"McDonald's","Buckower Chaussee 100-102","12277","Berlin-Marienfelde"
"McDonald's","Teltower Damm 35","14169","Berlin"
"McDonald's","Am Waldrand 7","15890","Eisenhüttenstadt"
"McDonald's","Grossbeerenstr. 22","12107","Berlin"
"McDonald's","Clayallee 121","14195","Berlin"
"McDonald's","Johannisthaler Chaussee 295","12353","Berlin"
"McDonald's","Schlossstr. 34-36","12163","Berlin"
"McDonald's","Rudower Str. 100","12351","Berlin"
"McDonald's","Schlossstr. 117","12163","Berlin"
"McDonald's","Walther-Schreiber-Platz 1","12161","Berlin"
"McDonald's","Adlergestell 289a","12489","Berlin"
"McDonald's","Mecklenburgische Str. 65-68","14197","Berlin"
"McDonald's","Alboinstr. 4","12103","Berlin"
"McDonald's","Werner-Voß-Damm 62","12101","Berlin"
"McDonald's","Schnellerstr. 21","12439","Berlin"
"McDonald's","Alter Spandauer Weg 5a (Demex-Park)","14641","Wustermark"
"McDonald's","Saalestr. 83","12055","Berlin"
"McDonald's","Alte Langenwahler Chaussee 3","15517","Fürstenwalde"
"McDonald's","Döberitzer Weg 3","14624","Dallgow"
"McDonald's","Sonnenallee 254","12057","Berlin"
"McDonald's","Wendenschloßstr. 2","12559","Berlin"
"McDonald's","U-Bahnhof Adenauer Platz","10629","Berlin"
"McDonald's","Heerstr. 666","13591","Berlin"
"McDonald's","Masurenallee 4-6","14057","Berlin"
"McDonald's","Karl-Marx-Str. 66","12043","Berlin"
"McDonald's","Kantstr. 111a","10627","Berlin"
"McDonald's","Hermannplatz 2-3","10967","Berlin"
"McDonald's","Tauentzienstr. 18","10789","Berlin"
"McDonald's","Berliner Str. 12","15537","Erkner"
"McDonald's","Kurfürstendamm 15","10719","Berlin"
"McDonald's","Wilmersdorfer Str. 46","10629","Berlin"
"McDonald's","Hardenbergplatz 2-4","10623","Berlin"
"McDonald's","Charlottenburger Chaussee 49","13597","Berlin"
"McDonald's","Klosterstr. 3","13581","Berlin"
"McDonald's","Am Treptower Park 14","12435","Berlin"
"McDonald's","Alte Potsdamerstr. 7","10785","Berlin"
"McDonald's","Friedrichstr. 207","10967","Berlin"
"McDonald's","Leipziger Platz 12-13","10117","Berlin II"
"McDonald's","Wrangelstr. 35","10997","Berlin"
"McDonald's","Am Juliusturm 40-46","13599","Berlin-Haselhorst"
"McDonald's","Sonntagsstr. 37 (Bahnhof Ostkreuz / Bahnsteig F)","10245","Berlin"
"McDonald's","Am Ostbahnhof 9","10243","Berlin/Friedrichshain-Friedrichshain"
"McDonald's","Friedrichstr. 141-142 / Georgenstr. (Georgenstr. S-Bahnhof)","10117","Berlin"
"McDonald's","Friedrichstr. 141-142","10117","Berlin"
"McDonald's","Europaplatz 1","10557","Berlin-Moabit"
"McDonald's","Grunerstr. 20","10179","Berlin-Mitte"
"McDonald's","S-Bahnhof Alexanderplatz (S-Bahnhof)","10178","Berlin"
"McDonald's","U-Bahnhof Alexanderplatz","10178","Berlin"
"McDonald's","Karl-Liebknecht-Str. 13","10178","Berlin"
"McDonald's","Weitlingstr. 22 (Bahnhof Lichtenberg)","10317","Berlin"
"McDonald's","Frankfurter Allee 117","10247","Berlin"
"McDonald's","Alt-Friedrichsfelde 61","10315","Berlin"
"McDonald's","Alt-Mahlsdorf 60","12623","Berlin"
"McDonald's","Greifswalder Str. 80","10405","Berlin"
"McDonald's","Badstr. 4 (Gesundbrunnen Center)","13357","Berlin"
"McDonald's","Kurt-Schumacher-Damm 38","13405","Berlin"
"McDonald's","Allee Der Kosmonauten 37","12681","Berlin"
"McDonald's","Osloer Str.","13359","Berlin"
"McDonald's","Passage Laden 17","13359","Berlin"
"McDonald's","Markstr. 16","13409","Berlin"
"McDonald's","Hansastr. 1","13053","Berlin"
"McDonald's","Prenzlauer Promenade 45","13089","Berlin"
"McDonald's","Am Borsigturm 2","13507","Berlin-Tegel"
"McDonald's","Marzahner Promenade 1A","12679","Berlin-Marzahn"
"McDonald's","Bitterfelder Str. 9","12681","Berlin"
"McDonald's","Landsberger Chaussee 17","16356","Eiche"
"McDonald's","Altlandsberger Chaussee","15366","Hoppegarten Ot Hönow"
"McDonald's","Rosa-Luxemburg-Str. 13","15230","Frankfurt (Oder)"
"McDonald's","Nohlstr. 31-32","16548","Glienicke"
"McDonald's","Karl-Marx-Str. 50","16356","Ahrensfelde (OT Lindenberg)"
"McDonald's","Veltenerstr. 16","16761","Hennigsdorf"
"McDonald's","Zeppelinstr. 2","16356","Ahrensfelde (OT Blumberg)"
"McDonald's","Herrenseeallee","15344","Strausberg"
"McDonald's","an der BAB 24 Linumer Bruch Süd","16833","Linum"
"McDonald's","an der BAB 24 Linumer Bruch Nord","16833","Linum"
"McDonald's","Johann-Friedrich-A.-Borsig-Str. 2","16321","Bernau"
"McDonald's","Bahnhofsplatz 1","16515","Oranienburg"
"McDonald's","Sachsenhausener Str. 23","16515","Oranienburg"
"McDonald's","Neustädterstr. 27","16816","Neuruppin"
"McDonald's","Lenzener Chaussee 21","19322","Wittenberge"
"McDonald's","An der B176","16244","Finowfurt"
"McDonald's","Bollwerkstr. 1","16225","Eberswalde"
"McDonald's","Hamburger Str. 1","16909","Wittstock"
"McDonald's","Handelsstr. 1","16303","Schwedt"
"McDonald's","Am Sportplatz 17-19","19370","Parchim"
"McDonald's","Angermünder Str. 7","17291","Prenzlau"
"McDonald's","Rudolf-Diesel-Str. 4","19243","Wittenburg"
"McDonald's","Strelitzerstr. 139","17192","Waren"
"McDonald's","Grabenstr. 6","19061","Schwerin"
"McDonald's","Akeleiweg 3","17033","Neubrandenburg"
"McDonald's","Marienplatz 5-7","19053","Schwerin-Altstadt"
"McDonald's","Marienplatz 11-12","19053","Schwerin"
"McDonald's","Wismarsche Str. 378","19055","Schwerin"
"McDonald's","Krämerstraße 1a","17033","Neubrandenburg"
"McDonald's","Demminer Str. 78","17034","Neubrandenburg"
"McDonald's","Lindbruch 4","18273","Güstrow"
"McDonald's","Kröpeliner Str. 71","18055","Rostock"
"McDonald's","Alt Sievershagen 1d","18069","Lambrechtshagen"
"McDonald's","Hansestr. 49","18182","Bentwisch"
"McDonald's","An der Stadtautobahn 39","18109","Rostock"
"McDonald's","Pommerndreieck","18516","Süderholz (Grimmen)"
"McDonald's","An der Thronpost 1","17489","Greifswald"
"McDonald's","Am Strom 87","18119","Rostock"
"McDonald's","Anklamer Landstr. 1","17491","Greifswald"
"McDonald's","Am Fuchsberg 1a","17438","Wolgast"
"McDonald's","Tribseer Damm 75","18437","Stralsund"
"McDonald's","Grünhufer Bogen 9 (Strelapark)","18437","Stralsund"
"McDonald's","Bahnhofstr. 2","18528","Sehlen"
"McDonald's","Siedemeierkamp 3","29227","Celle"
"McDonald's","An der Autobahn 2","29690","Buchholz"
"McDonald's","Magdeburger Str. 7a","29410","Salzwedel"
"McDonald's","Celler Str. 55","29303","Bergen"
"McDonald's","Bockhorner Weg 7","29683","Fallingbostel"
"McDonald's","Friedrich-Tietjen-Str. 17","27232","Sulingen"
"McDonald's","Nordallee 6","29525","Uelzen"
"McDonald's","Vor dem Weiherbusch 7","29614","Soltau"
"McDonald's","Develangring 73","29451","Dannenberg"
"McDonald's","Hamburger Str. 55","27283","Verden"
"McDonald's","Industriestr. 23","27211","Bassum"
"McDonald's","Horstfeldweg 3","29646","Bispingen"
"McDonald's","Herrlichkeit 9","28857","Syke"
"McDonald's","Margarete-Steiff-Allee 4","28832","Achim"
"McDonald's","Posthausen 11","28870","Ottersberg"
"McDonald's","Am Sande 3","21335","Lüneburg"
"McDonald's","Bahnhofstr. 10","21337","Lüneburg"
"McDonald's","Immelmannstr. 19","27793","Wildeshausen"
"McDonald's","Rönnebrocksweg 3/13","27356","Rotenburg (OT Wümme)"
"McDonald's","Hans-Bredow-Str. 19","28307","Bremen-Osterholz"
"McDonald's","Europaallee 5","28309","Bremen"
"McDonald's","Bei der Pferdehütte 1-3","21339","Lüneburg"
"McDonald's","Bremer Str. 107","28816","Stuhr"
"McDonald's","Am Schwarzen Moor 3","28816","Stuhr"
"McDonald's","Borgwardstr. 1","28279","Bremen"
"McDonald's","Vahrer Str. 197","28329","Bremen-Vahr"
"McDonald's","Neuenlander Str. 109","28201","Bremen"
"McDonald's","Flughafenallee 17a","28199","Bremen"
"McDonald's","Berliner Freiheit 14","28327","Bremen-Vahr (Ekz berliner Freiheit)"
"McDonald's","Alter Dorfweg 30-50","28259","Bremen"
"McDonald's","In der Vahr 68","28329","Bremen"
"McDonald's","Hasporter Damm 187","27755","Delmenhorst"
"McDonald's","Duckwitzstr. 55 (Real)","28259","Bremen"
"McDonald's","Am Dom 6","28195","Bremen"
"McDonald's","Obernstr. 80","28195","Bremen"
"McDonald's","Bahnhofstr. 28-31","28195","Bremen"
"McDonald's","Bahnhofsplatz 15","28195","Bremen"
"McDonald's","Lange Str. 27","27749","Delmenhorst"
"McDonald's","Haferwende (Horn Lehe)","28357","Bremen"
"McDonald's","An der Autobahn 3","27404","Gyhum"
"McDonald's","Waller Heerstr. 101","28219","Bremen-Walle Walle Center"
"McDonald's","Max-Planck-Str. 12","21423","Winsen"
"McDonald's","AG-Weser-Str. 3","28237","Bremen"
"McDonald's","Piepengraben 9","28239","Bremen"
"McDonald's","Harburger Str. 19","21244","Buchholz in der Nordheide"
"McDonald's","Düneberger Str. 119","21502","Geesthacht"
"McDonald's","Schlepelsberg 4-6","21629","Neu Wulmstorf (OT Rade)"
"McDonald's","Zum Alten Speicher 2","28759","Bremen"
"McDonald's","Winsener Str. 231","21077","Hamburg"
"McDonald's","Am Rabenfeld 12-14","28757","Bremen"
"McDonald's","Am Pumpelsberg 2","27711","Osterholz-Scharmbeck"
"McDonald's","Bremer Heerstr. 297","26135","Oldenburg"
"McDonald's","Lehfeld 2","21029","Hamburg"
"McDonald's","Moorstr. 4 (Phoenix Center)","21073","Hamburg"
"McDonald's","Immenberg 2","21465","Wentorf"
"McDonald's","Lüneburgerstr. 39","21077","Hamburg"
"McDonald's","Seevepl. 1","21073","Hamburg"
"McDonald's","Weidenbaumsweg 14","21029","Hamburg"
"McDonald's","Huntestr. 2","26169","Friesoythe"
"McDonald's","Alte Holstenstr. 31-33","21031","Hamburg"
"McDonald's","Stader Str. 256","21075","Hamburg"
"McDonald's","Bahnhofsplatz 12d (Hauptbahnhof)","26122","Oldenburg"
"McDonald's","Lange Str. 7","26122","Oldenburg"
"McDonald's","Cuxhavener Str. 382","21149","Hamburg"
"McDonald's","Amandus-Stubbe-Str. 8","22113","Hamburg"
"McDonald's","Gutenbergstr. 1a","21509","Glinde"
"McDonald's","Dratelnstr. 31a","21109","Hamburg"
"McDonald's","Lüneburger Schanze 10","21614","Buxtehude"
"McDonald's","Wilhelmshavener Heerstr. 25","26125","Oldenburg"
"McDonald's","Bahnhofstr. 47","21614","Buxtehude"
"McDonald's","Am Tegelbusch 1","26129","Oldenburg"
"McDonald's","Möllner Landstr. 7a","22111","Hamburg"
"McDonald's","Willinghusener Weg 1","22113","Oststeinbek"
"McDonald's","Billstedter Hauptstr. 23-25","22111","Hamburg"
"McDonald's","Amsinckstr. 73","20097","Hamburg"
"McDonald's","Eiffestr. 440","20537","Hamburg"
"McDonald's","Beim Strohhause 8","20097","Hamburg"
"McDonald's","Ida-Ehre-Platz 10","20095","Hamburg"
"McDonald's","Adenauer Allee 78 (Zob)","20097","Hamburg"
"McDonald's","Europa Passage Ballindamm 40 Eingang U-Bahn Bergstraße","20095","Hamburg"
"McDonald's","Glockengiesserwall 8-10","20095","Hamburg"
"McDonald's","Reeperbahn 59","20359","Hamburg"
"McDonald's","Barsbütteler Str. 45","22043","Hamburg"
"McDonald's","Paul-Nevermann-Platz 13","22765","Hamburg"
"McDonald's","Scheel-Plessen-Str. (Bahnhof Altona)","22765","Hamburg"
"McDonald's","Theodor-Heuss-Platz 3","20354","Hamburg"
"McDonald's","Wandsbeker Marktstraße 109","22041","Hamburg"
"McDonald's","Wandsbeker Marktstr. 109","22041","Hamburg"
"McDonald's","S-Bahnhof Sternschanze","20357","Hamburg"
"McDonald's","Hamburger Str. 19-47","22083","Hamburg-Uhlenhorst"
"McDonald's","Ahrensburger Str. 156","22045","Hamburg"
"McDonald's","Stresemannstr. 354","22761","Hamburg"
"McDonald's","Friedrich-Ebert-Damm 101","22047","Hamburg"
"McDonald's","Pastor-Schulze-Str. 4","26160","Bad Zwischenahn"
"McDonald's","Kieler Str. 191-193","22525","Hamburg"
"McDonald's","Helmut-Steidl-Platz 3","22143","Hamburg"
"McDonald's","Sieker Landstr. 126","22143","Hamburg"
"McDonald's","August-Krogmann-Str. 10","22159","Hamburg"
"McDonald's","Luruper Hauptstr. 97","22547","Hamburg"
"McDonald's","Steilshooper Allee 5-7","22309","Hamburg"
"McDonald's","Kollaustr. 25","22529","Hamburg"
"McDonald's","Rissener Str. 96-98","22880","Wedel"
"McDonald's","Alte Elbgaustr. 1-3 (Eidelstedt Center)","22523","Hamburg"
"McDonald's","Zeppelinstr. 6","27432","Bremervörde"
"McDonald's","Paul-Sorge-Str. 8/Tibarg 41","22459","Hamburg"
"McDonald's","Hörgensweg 10","22523","Hamburg"
"McDonald's","Flughafenstr. 1-3 (Flughafen, Terminal 1)","22335","Hamburg"
"McDonald's","Am Rackerschlag 2","23909","Ratzeburg"
"McDonald's","Hamburger Str. 159","22926","Ahrensburg"
"McDonald's","Poppenbütteler Weg 94","22339","Hamburg"
"McDonald's","Harburger Str. 184","21680","Stade"
"McDonald's","Langenhorner Chaussee 287","22415","Hamburg"
"McDonald's","Ammerlandallee 16","26655","Westerstede"
"McDonald's","an der BAB 1 Buddikate West","22965","Todendorf"
"McDonald's","Deverweg 45","26871","Papenburg"
"McDonald's","Berliner Allee 43","22850","Norderstedt"
"McDonald's","Friedrich-Ebert-Str. 54 (Marktplatz)","25421","Pinneberg"
"McDonald's","an der BAB 20 Schönberger Land Süd","23923","Lockwisch"
"McDonald's","an der BAB 20 Schönberger Land Nord","23923","Niendorf"
"McDonald's","Gertrud-Barthel-Str. 5","26316","Varel"
"McDonald's","Auf dem Halenberg","25451","Quickborn"
"McDonald's","Nansenstr. 2","27570","Bremerhaven"
"McDonald's","An der Sielbrücke 3","26954","Nordenham"
"McDonald's","Papenburger Str. 1","26789","Leer"
"McDonald's","An der Autobahn","23858","Reinfeld"
"McDonald's","Bürgermeister-Smidt-Str. 17","27568","Bremerhaven"
"McDonald's","Lise-Meitner-Str. 1","25337","Elmshorn"
"McDonald's","Am Kleinen Stadtfeld 11","23970","Wismar"
"McDonald's","Hinter den Kirschkaten 2","23560","Lübeck"
"McDonald's","Ziegelstr. 232","23556","Lübeck"
"McDonald's","Stresemannstr. 293-295","27580","Bremerhaven"
"McDonald's","Gutenbergstr. 5 B","24558","Henstedt-Ulzburg"
"McDonald's","Am Bahnhof 2","23558","Lübeck"
"McDonald's","Breite Str. 25","23552","Lübeck"
"McDonald's","Zierower Landstr. 3","23968","Wismar"
"McDonald's","Bei der Lohmühle 21b","23554","Lübeck"
"McDonald's","Dänischburger Landstr. 81","23569","Lübeck"
"McDonald's","Bahnhofstr. 10","26382","Wilhelmshaven"
"McDonald's","Wiebeke-Kruse-Str. 1","25348","Glückstadt"
"McDonald's","Güterstr. 51","26389","Wilhelmshaven"
"McDonald's","Hamburger Str. 107","23795","Bad Segeberg"
"McDonald's","Am Bullhamm 1a","26441","Jever"
"McDonald's","Am Brookhafen 6","25524","Itzehoe"
"McDonald's","Feldschmiede 34","25524","Itzehoe"
"McDonald's","Emder Str. 21","26603","Aurich"
"McDonald's","Herderstr. 2","26721","Emden"
"McDonald's","Olaf-Palme-Allee 4","25541","Brunsbüttel"
"McDonald's","Eutiner Str. 57-59","23730","Neustadt in Holstein"
"McDonald's","Papenstr. 145-147","27472","Cuxhaven"
"McDonald's","Konrad-Adenauer-Allee 2","27472","Cuxhaven"
"McDonald's","Altonaer Str. 141-143","24539","Neumünster"
"McDonald's","Röntgenstr. 2","23701","Eutin"
"McDonald's","Konrad-Adenauer-Platz 2 (Hauptbahnhof)","24534","Neumünster"
"McDonald's","Brückenstr. 2","24537","Neumünster"
"McDonald's","Gewerbestr. 9","26506","Norden"
"McDonald's","Grotwisch 4","24589","Dätgen"
"McDonald's","Dannauer Bruch 1","23758","Oldenburg in Holstein"
"McDonald's","Dieselstr. 4","24223","Raisdorf"
"McDonald's","Theodor-Heuss-Ring 118","24143","Kiel"
"McDonald's","Kaistr. 54","24114","Kiel"
"McDonald's","Sophienblatt 25-27 (Hauptbahnhof)","24103","Kiel"
"McDonald's","Mühlendamm 1","24113","Kiel"
"McDonald's","Holstenbrücke 3","24103","Kiel"
"McDonald's","Süderdamm 4","25746","Heide"
"McDonald's","Friedrichstr. 28","25746","Heide"
"McDonald's","Gutenbergstr. 82a","24118","Kiel"
"McDonald's","Am Ahlmannkai 1a","24782","Büdelsdorf"
"McDonald's","Landkirchener Weg 44","23769","Burg"
"McDonald's","Noorstr. 15","24340","Eckernförde"
"McDonald's","Schleidörferstr. 1a","24837","Schleswig"
"McDonald's","Flensburger Chaussee 40","25813","Husum"
"McDonald's","Eckernförder Str. 9b","24376","Kappeln"
"McDonald's","Herrmannstr. 55","25821","Bredstedt"
"McDonald's","Langberger Weg 4","24941","Flensburg"
"McDonald's","Am Friedenshügel 3","24941","Flensburg"
"McDonald's","Holm 57-61","24937","Flensburg"
"McDonald's","Grosse Str. 1","24937","Flensburg"
"McDonald's","Wasserlooslück 2a","24944","Flensburg"
"McDonald's","Industrieweg 49","24955","Harrislee"
"McDonald's","An der B5","25920","Risum-Lindholm"
"McDonald's","Friedrichstr. 36","25980","Sylt (Westerland)"
"McDonald's","Distelrasen","36381","Schlüchtern"
"McDonald's","Danziger Str. 12","36093","Künzell"
"McDonald's","Frankfurter Str. 8a","36043","Fulda"
"McDonald's","Bahnhofstr. 26","36037","Fulda"
"McDonald's","Carl-Zeiss-Str. 4","36088","Hünfeld"
"McDonald's","Umgehungsstr. 37","36341","Lauterbach"
"McDonald's","Griedeler Str. 77","35510","Butzbach"
"McDonald's","An der Haune 1","36251","Bad Hersfeld"
"McDonald's","Industriestr. 10","36275","Kirchheim"
"McDonald's","Rasthof Pfefferhöhe","36304","Alsfeld"
"McDonald's","Brandenburgstr. 4","37293","Herleshausen"
"McDonald's","Carl-Benz-Str. 2","35447","Reiskirchen"
"McDonald's","Gottlieb-Daimler-Str. 6","36179","Bebra"
"McDonald's","Ferniestr. 3","35440","Linden"
"McDonald's","Schiffenberger Weg 120","35394","Giessen"
"McDonald's","Neuen Bäue 22","35390","Gießen"
"McDonald's","Bahnhofstr. 102 (Hauptbahnhof)","35390","Gießen"
"McDonald's","Gottlieb-Daimler-Str. 27","35398","Gießen"
"McDonald's","Hörnsheimer Eck 2-4","35578","Wetzlar"
"McDonald's","Alte Str. 1","35578","Wetzlar"
"McDonald's","Walbergraben 20","35614","Aßlar"
"McDonald's","Viehweg 10","35781","Weilburg"
"McDonald's","Friedrich-Ebert-Str. 112","34613","Schwalmstadt"
"McDonald's","Hersfelder Str. 27","34576","Homberg"
"McDonald's","Landstr. 6","37269","Eschwege"
"McDonald's","Bahnhofstr. 33","35037","Marburg"
"McDonald's","Afföllerstr. 102","35039","Marburg"
"McDonald's","Leipziger Str. 203","37235","Hessisch Lichtenau"
"McDonald's","Auf den Lüppen 3a","35745","Herborn"
"McDonald's","Alte Wildunger Str.","34560","Fritzlar"
"McDonald's","Robert-Bosch-Str. 13","34302","Guxhagen"
"McDonald's","Kasseler Str. 34","35683","Dillenburg"
"McDonald's","Giflitzer Str. 12","34537","Bad Wildungen"
"McDonald's","Georg-Kramer-Str. 16","35216","Biedenkopf"
"McDonald's","Alexander-von-Humboldt-Str. 1","34253","Lohfelden"
"McDonald's","Leipziger Str. 289","34123","Kassel"
"McDonald's","Göttinger Str. 21","34123","Kassel"
"McDonald's","Ruhrstr. 17","35066","Frankenberg"
"McDonald's","Treppenstr. 5","34117","Kassel"
"McDonald's","Kohlenstr. 140","34121","Kassel"
"McDonald's","Willy-Brandt-Platz 1","34131","Kassel-Bad Wilhelmshöhe"
"McDonald's","Brandenburger Str. 1","37115","Duderstadt"
"McDonald's","Lange Wender 10","34246","Vellmar"
"McDonald's","Göttinger Str. 25","34346","Hann. Münden"
"McDonald's","Siekweg 30","37081","Göttingen"
"McDonald's","Weender Str. 77","37073","Göttingen"
"McDonald's","Hannoversche Str. 38","37075","Göttingen"
"McDonald's","An der Kuhbach 4","34497","Korbach"
"McDonald's","Lerchenbreite 48","38889","Blankenburg"
"McDonald's","Petershütter Allee 4","37520","Osterode am Harz"
"McDonald's","Von Menzel Str. 6","37154","Northeim"
"McDonald's","Im Wrexer Teich 1a","34474","Diemelstadt"
"McDonald's","Dornbergsweg 38a","38855","Wernigerode"
"McDonald's","Im Sülzeteiche 9","38820","Halberstadt"
"McDonald's","Peter-Henlein-Str. 1","38640","Goslar"
"McDonald's","Hildesheimerstr. 53","38640","Goslar"
"McDonald's","Hansestr. 3","37574","Einbeck"
"McDonald's","Carl-Zeiss-Str. 4a","38644","Goslar"
"McDonald's","Am Stremsgraben 6","39218","Schönebeck"
"McDonald's","Am Zainer Berg 1","38723","Seesen"
"McDonald's","Werner-Von-Siemens-Ring 13","39116","Magdeburg"
"McDonald's","Burgbergblick 2","37603","Holzminden"
"McDonald's","Dringenberger Str. 91","33014","Bad Driburg"
"McDonald's","Am Pfingstanger 20","38259","Salzgitter"
"McDonald's","Bahnhofstr. 69","39104","Magdeburg"
"McDonald's","Breiter Weg 20","39104","Magdeburg"
"McDonald's","Pohlweg 110 (Südring-Center)","33100","Paderborn"
"McDonald's","Frankfurter Weg 17","33106","Paderborn"
"McDonald's","Bahnhofstr. 29 (Hauptbahnhof)","33102","Paderborn"
"McDonald's","Geseker Str. 78","33154","Salzkotten"
"McDonald's","Borsig Str. 1","31061","Alfeld"
"McDonald's","Olvenstedter Graseweg 37","39128","Magdeburg"
"McDonald's","Schäferweg 4","33100","Paderborn"
"McDonald's","Berliner Allee","39326","Hohenwarsleben"
"McDonald's","Lipper Tor 2","32839","Steinheim"
"McDonald's","Glindenberger Weg 1A","39126","Magdeburg"
"McDonald's","Goslarische Str. 2","38304","Wolfenbüttel"
"McDonald's","Gebrüder-Welger-Str. 3","38304","Wolfenbüttel"
"McDonald's","Konrad-Adenauer-Str. 81","38226","Salzgitter"
"McDonald's","Gewerbestr. 1","39291","Theeßen"
"McDonald's","Siemensstr. 2","31812","Bad Pyrmont"
"McDonald's","Dieselstr. 18","38350","Helmstedt"
"McDonald's","Magdeburger Chaussee 81","39288","Burg"
"McDonald's","Johann-Gottlob-Nathusius-Str. 28","39340","Haldensleben"
"McDonald's","Albert-Einstein-Str. 2","31135","Hildesheim"
"McDonald's","Bavenstedter Str. 48","31135","Hildesheim"
"McDonald's","Im Moorbusche","38162","Cremlingen"
"McDonald's","Stobwasserstr. 1","38122","Braunschweig"
"McDonald's","Berliner Platz 1","38102","Braunschweig"
"McDonald's","Gutenbergstr. 1-3","31180","Giesen"
"McDonald's","Bohlweg 17/18","38100","Braunschweig"
"McDonald's","Ritterbrunnen 1 (Schloss Arkaden)","38100","Braunschweig"
"McDonald's","Welfenhof 1","38100","Braunschweig"
"McDonald's","Packhofpassage 1","38100","Braunschweig"
"McDonald's","Hansaweg 2a","32758","Detmold"
"McDonald's","Hamburger Str. 262","38114","Braunschweig"
"McDonald's","Bodelschwinghstr. 17","38159","Vechelde"
"McDonald's","Am Mühlenhop 2","38154","Königslutter am Elm"
"McDonald's","Hastenbecker Weg 82","31785","Hameln"
"McDonald's","Hansestr. 90","38112","Braunschweig"
"McDonald's","Stauffenbergstr. 2","32791","Lage"
"McDonald's","An der Autobahn 1","33334","Gütersloh"
"McDonald's","Bielefelder Str. 57","33378","Rheda-Wiedenbrück"
"McDonald's","Liemer Weg 78","32657","Lemgo"
"McDonald's","Ruhmrischkamp 4","38179","Schwülper"
"McDonald's","Hansestr. 1e","33689","Bielefeld"
"McDonald's","Dieselstr. 8b","31228","Peine"
"McDonald's","Strengerstr. 24 (Busbahnhof)","33330","Gütersloh"
"McDonald's","Kieler Str. 12","30880","Laatzen"
"McDonald's","Im Büntefeld 2","30974","Wennigsen (OT Holtensen)"
"McDonald's","Lerchenweg 24","38446","Wolfsburg"
"McDonald's","Porschestr. 7","38440","Wolfsburg"
"McDonald's","Detmolder Str. 338","33605","Bielefeld"
"McDonald's","Westerlinge 2","38442","Wolfsburg"
"McDonald's","Oldentruper Str. 236","33719","Bielefeld-Oldentrup"
"McDonald's","Willy-Brandt-Platz 3","38440","Wolfsburg"
"McDonald's","Im Brocke 43","33649","Bielefeld"
"McDonald's","Karlsruher Str. 12a","30880","Laatzen"
"McDonald's","Rudolph-Brandes-Allee 28","32105","Bad Salzuflen"
"McDonald's","Jahnplatz 6","33602","Bielefeld"
"McDonald's","Eckendorfer Str. 58","33609","Bielefeld"
"McDonald's","Am Bahnhof 1d","33602","Bielefeld"
"McDonald's","Altes Feld 16","31749","Auetal"
"McDonald's","Konrad-Adenauer-Str. 44","31737","Rinteln"
"McDonald's","Hildesheimer Str. 216","30519","Hannover"
"McDonald's","Burgdorfer Str. 106","31275","Lehrte"
"McDonald's","Nenndorfer Chaussee 9","30453","Hannover"
"McDonald's","Braunschweiger Str. 103","38518","Gifhorn"
"McDonald's","Kreisstr. 2","30629","Hannover"
"McDonald's","Niki-de-Saint-Phalle-Promenade 6 (U-Bahnhof)","30159","Hannover"
"McDonald's","Andreaestr. 1","30159","Hannover"
"McDonald's","Ernst-August-Platz 1","30159","Hannover"
"McDonald's","Bahnhofplatz 1","32052","Herford"
"McDonald's","Georgstr. 9","30159","Hannover"
"McDonald's","Bünder Str. 104","32051","Herford"
"McDonald's","Kronskamp 1","30890","Barsinghausen"
"McDonald's","Zum Autohof 2","32457","Porta Westfalica"
"McDonald's","Kreuzbreite 21","31675","Bückeburg"
"McDonald's","Schulenburger Landstr. 107","30165","Hannover"
"McDonald's","Varrelheide 188","30657","Hannover"
"McDonald's","Vahrenwalder Str. 250","30179","Hannover"
"McDonald's","Jahnstr. 30","31655","Stadthagen"
"McDonald's","Ringstr. 27","32584","Löhne"
"McDonald's","F.-A.-Meyer-Str. 2","32457","Porta Westfalica"
"McDonald's","Brüsseler Str. 2","30853","Langenhagen"
"McDonald's","Bremer Str. 4a","30827","Garbsen"
"McDonald's","Lübbecker Str. 2","32423","Minden"
"McDonald's","Langer Weg","39576","Stendal"
"McDonald's","Flughafenstr. 4","30855","Langenhagen"
"McDonald's","Kokenhorststr. 18","30938","Burgwedel"
"McDonald's","Blankensteinstr. 44","32257","Bünde"
"McDonald's","An der Nonnenwiese 1a","31515","Wunstorf"
"McDonald's","Mecklenhorster Str. 13","31535","Neustadt am Rübenberge"
"McDonald's","Thyssenstr. 11","32312","Lübbecke"
"McDonald's","Celler Str. 1","31582","Nienburg"
"McDonald's","Wasserturmstr. 12","42477","Radevormwald"
"McDonald's","Bandwirkerstr. 2","42929","Wermelskirchen"
"McDonald's","Jägerwald 8","42897","Remscheid"
"McDonald's","Erbschlöer Str. 164","42369","Wuppertal"
"McDonald's","an der BAB 1 Erhrenberg West (Autobahnraststätte)","42389","Wuppertal"
"McDonald's","Kölner Str. 114","42651","Solingen"
"McDonald's","Rittershauser Brücke 15 (Bahnhof)","42277","Wuppertal"
"McDonald's","Höhne 4","42275","Wuppertal"
"McDonald's","Frankfurter Damm 18","42719","Solingen"
"McDonald's","Bahnstr. 26","42697","Solingen"
"McDonald's","Hofkamp 1-3","42103","Wuppertal"
"McDonald's","Friedrich-Ebert-Str. 127-129 (Petrol Station)","42105","Wuppertal"
"McDonald's","Schleefstr. 17","44287","Dortmund"
"McDonald's","Uellendahler Str. 304","42109","Wuppertal"
"McDonald's","Heinrich-Hertz-Str. 4","40789","Monheim am Rhein"
"McDonald's","Bollenheide 2","42781","Haan"
"McDonald's","Kölner Str. 98","41539","Dormagen"
"McDonald's","Westfalendamm 102","44141","Dortmund"
"McDonald's","Lübecker Str. 6","41540","Dormagen"
"McDonald's","Diekhaus 2","40724","Hilden"
"McDonald's","Heubesstr. 23 (Bahnhof)","40597","Düsseldorf"
"McDonald's","Werkmeisterstr. 66","44145","Dortmund"
"McDonald's","Ostenhellweg 37","44135","Dortmund"
"McDonald's","Westenhellweg 66-68","44137","Dortmund"
"McDonald's","Königswall 15","44137","Dortmund"
"McDonald's","an der BAB 57 Nievenheim West","41542","Dormagen"
"McDonald's","Zur Fliethe 8","42489","Wülfrath"
"McDonald's","Am Trippelsberg 4","40589","Düsseldorf"
"McDonald's","Wulfshofstr. 5b","44149","Dortmund"
"McDonald's","Brandschachtstr. 1","44149","Dortmund"
"McDonald's","Rudolf-Diesel-Str. 1","40822","Mettmann"
"McDonald's","Evinger Str. 154","44339","Dortmund"
"McDonald's","Kreisstr. 29a","45525","Hattingen"
"McDonald's","Alte Wittener Str. 38","44803","Bochum"
"McDonald's","Heiligenhauser Str. 82","42549","Velbert"
"McDonald's","Engelswiese 4","44534","Lünen"
"McDonald's","Sperberweg 22","41468","Neuss"
"McDonald's","Königsberger Str. 23","40231","Düsseldorf"
"McDonald's","Am Einkaufszentrum 26 (Ruhrpark)","44791","Bochum"
"McDonald's","Kurt-Schumacher-Platz","44787","Bochum"
"McDonald's","Grafenberger Allee 258","40237","Düsseldorf"
"McDonald's","Konrad-Adenauer-Platz 14","40210","Düsseldorf"
"McDonald's","Friedrichstr. 129-133","40217","Düsseldorf-Unterbilk"
"McDonald's","Graf-Adolf-Straße 56","40210","Düsseldorf"
"McDonald's","An der Zuckerfabrik 2","41516","Grevenbroich"
"McDonald's","Am Wehrhahn 4","40211","Düsseldorf"
"McDonald's","Fährstr. 27-29","40221","Düsseldorf"
"McDonald's","Neustr. 16","40213","Düsseldorf"
"McDonald's","Mercedesstr. 13 (Smart-Center)","40470","Düsseldorf"
"McDonald's","Breslauer Str. 2-4","41460","Neuss"
"McDonald's","Bahnhofstr. 110","44575","Castrop-Rauxel"
"McDonald's","Stormstr. 6-8","44867","Bochum"
"McDonald's","Moselstr. 4","41464","Neuss"
"McDonald's","Ruhrbruchshof 10","45276","Essen"
"McDonald's","Dorstener Str. 444","44809","Bochum"
"McDonald's","Niederstr. 11","41460","Neuss"
"McDonald's","Lise-Meitner-Str. 6","40882","Ratingen"
"McDonald's","Am Westerfeld 2","44625","Herne"
"McDonald's","Neusser Str. 204","41363","Jüchen"
"McDonald's","Burgunderstr. 51-53","40549","Düsseldorf"
"McDonald's","Konrad-Adenauer-Platz 4","44629","Herne"
"McDonald's","Eleonorastr. 12","45136","Essen"
"McDonald's","Terminal-Ring 1, Ankunft C","40474","Düsseldorf"
"McDonald's","An der Pönt 49","40885","Ratingen"
"McDonald's","Heinz-Rühmann-Platz 1 (Bahnhof)","44649","Herne"
"McDonald's","Wickingstr. 39","45886","Gelsenkirchen"
"McDonald's","Am Hauptbahnhof 5","45127","Essen"
"McDonald's","Bahnhofstr. 83","45879","Gelsenkirchen"
"McDonald's","Am Holtgraben 1","45711","Datteln"
"McDonald's","Neersener Str. 41","41564","Kaarst"
"McDonald's","Limbeckerplatz 1a","45127","Essen"
"McDonald's","Stoppenberger Str. 61","45141","Essen-Nordviertel"
"McDonald's","Schmalkalder Str. 15","45665","Recklinghausen"
"McDonald's","Hans-Böckler-Str. 70","45127","Essen"
"McDonald's","Humboldtring 13","45472","Mülheim an der Ruhr"
"McDonald's","Kölner Str. 36","45481","Mülheim a.d. Ruhr"
"McDonald's","Grothusstr. 21a","45881","Gelsenkirchen"
"McDonald's","August-Wessing-Damm 83","48231","Warendorf"
"McDonald's","Altenessener Str. 411","45329","Essen"
"McDonald's","Am Hauptbahnhof 8","45468","Mülheim a.d. Ruhr"
"McDonald's","Bottroper Str. 301","45356","Essen"
"McDonald's","Europaplatz","45657","Recklinghausen"
"McDonald's","Westring 45","45659","Recklinghausen"
"McDonald's","Albert-Hahn-Str. 1","47269","Duisburg"
"McDonald's","Adenauerallee 126a","45891","Gelsenkirchen"
"McDonald's","Adolf-Kempken-Weg 121","41189","Mönchengladbach"
"McDonald's","Resser Weg 26","45699","Herten"
"McDonald's","Heifeskamp 24a","45475","Mülheim a.d. Ruhr"
"McDonald's","Stresemannstr. 26 (Marienplatz)","41236","Mönchengladbach"
"McDonald's","Aachener Str. 73","41812","Erkelenz"
"McDonald's","Am Südring-Center 1","46242","Bottrop"
"McDonald's","Rahracker 5","41065","Mönchengladbach"
"McDonald's","Krefelder Str. 672","41066","Mönchengladbach"
"McDonald's","Versmolder Str. 10","49201","Dissenam Teutoburger Wald"
"McDonald's","Zum Aquarium 7","46047","Oberhausen"
"McDonald's","Hindenburgstr. 65","41061","Mönchengladbach"
"McDonald's","Willy-Brandt-Platz (Hauptbahnhof)","46045","Oberhausen"
"McDonald's","Centroallee 78","46047","Oberhausen"
"McDonald's","Mülheimer Str. 22-24","46049","Oberhausen"
"McDonald's","Berliner Platz 8 (Stadtgalerie)","46236","Bottrop"
"McDonald's","Mercatorstr. 17","47051","Duisburg"
"McDonald's","Feldhauser Str. 91","45894","Gelsenkirchen"
"McDonald's","Concordiastr. 32","46049","Oberhausen"
"McDonald's","Königstr. 58","47051","Duisburg"
"McDonald's","Halskestr. 1","47877","Willich"
"McDonald's","Hochstr. 10 (Karstadt)","45964","Gladbeck"
"McDonald's","Diessemer Bruch 98","47805","Krefeld"
"McDonald's","Roermonder Str. 20","41836","Hückelhoven"
"McDonald's","Rockwoolstr. 6","45964","Gladbeck"
"McDonald's","Freerbruchstr. 36","45770","Marl"
"McDonald's","Hansastr. 99","47798","Krefeld"
"McDonald's","Asterlager Str. 59","47228","Duisburg"
"McDonald's","Industriestr. 14","49324","Melle"
"McDonald's","Rheinstr. 94","47798","Krefeld"
"McDonald's","Weierstr. 114","46149","Oberhausen"
"McDonald's","Marler Str. 4","45721","Haltern am See"
"McDonald's","Voithstr. 1","47803","Krefeld"
"McDonald's","Duisburger Str. 236","47166","Duisburg (OT Hamborn)"
"McDonald's","Freiheitsstr. 213","41747","Viersen"
"McDonald's","Höhenhöfe 2","47918","Tönisvorst"
"McDonald's","Weseler Str. 60","48151","Münster"
"McDonald's","Ludgeristr. 51-53","48143","Münster"
"McDonald's","Rudolf-Diesel-Str. 65a","48157","Münster"
"McDonald's","Europaplatz 1","46282","Dorsten"
"McDonald's","Münsterstr. 111","48249","Dülmen"
"McDonald's","Karl-Heinz-Klingen-Str. 92","46539","Dinslaken"
"McDonald's","Pascalstr. 3","47506","Neukirchen-Vluyn"
"McDonald's","Beisenbusch 1","48301","Nottuln"
"McDonald's","Klöcknerstr. 14","49124","Georgsmarienhütte"
"McDonald's","Otto-Schott-Str. 15","47906","Kempen"
"McDonald's","An der Neuweide 33","47495","Rheinberg"
"McDonald's","Nollesweg 2","41372","Niederkrüchten"
"McDonald's","Endelner Feld 6","46286","Dorsten"
"McDonald's","Prinzenstr. 84","47475","Kamp-Lintfort"
"McDonald's","Hannoversche Str. 45","49084","Osnabrück"
"McDonald's","Espenhof 15","49549","Ladbergen"
"McDonald's","Alte Bahnhofstr. 9","48268","Greven"
"McDonald's","Theodor-Heuss-Platz 1","49074","Osnabrück"
"McDonald's","An der Landwehr 8","41334","Nettetal"
"McDonald's","Nikolaiort 1-2","49074","Osnabrück"
"McDonald's","Bremer Str. 75","49191","Belm"
"McDonald's","Teutopark 2a (Teutopark)","49525","Lengerich"
"McDonald's","Dülmener Str. 106","48653","Coesfeld"
"McDonald's","Pagenstecherstr. 72","49090","Osnabrück"
"McDonald's","Schermbecker Landstr. 119","46485","Wesel am Rhein"
"McDonald's","Franz-Etzel-Platz 15 (Bahnhof)","46483","Wesel am Rhein"
"McDonald's","Weseler Str. 121","47608","Geldern"
"McDonald's","Grevener Damm 121","48282","Emsdetten"
"McDonald's","Bahnhofstr. 26","46325","Borken"
"McDonald's","Rudolf-Diesel-Str. 2","49477","Ibbenbüren"
"McDonald's","Osnabrücker Str. 2","49565","Bramsche"
"McDonald's","Carl-Benz-Str. 10","48565","Steinfurt"
"McDonald's","Im Königsesch 5","46395","Bocholt"
"McDonald's","Heeker Str. 70","48683","Ahaus"
"McDonald's","Bahnhofstr. 1","48431","Rheine"
"McDonald's","C.-Schwarze-Str. 3","49356","Diepholz"
"McDonald's","Laurenzstr. 51","48607","Ochtrup"
"McDonald's","Dekkers Waide 1a","46419","Isselburg"
"McDonald's","An der Landesgrenze 4","48499","Salzbergen"
"McDonald's","Hösterweg 9","47574","Goch"
"McDonald's","Zum Hansacenter 4","49451","Holdorf"
"McDonald's","Siemensstr. 6","48599","Gronau"
"McDonald's","Friesenstr. 1","49377","Vechta"
"McDonald's","Werner-von-Siemens-Str. 7","49584","Fürstenau"
"McDonald's","Reeser Str. 73","46446","Emmerich am Rhein"
"McDonald's","Paxtonstr. 1","48488","Emsbüren"
"McDonald's","Van-Den-Bergh-Str. 64","47533","Kleve"
"McDonald's","Hoffmannallee 19a","47533","Kleve"
"McDonald's","Zum Heidhof 22","49809","Lingen"
"McDonald's","Sulzbührener Str. 3","49685","Emstek"
"McDonald's","Lingener Str. 103","48531","Nordhorn"
"McDonald's","Max-Planck-Str. 1","49661","Cloppenburg"
"McDonald's","Lange Str. 18","49661","Cloppenburg"
"McDonald's","Lingener Str. 73","49716","Meppen"
"McDonald's","Auf der Saar 13","55276","Oppenheim"
"McDonald's","Rudolf-Diesel-Str. 2","55232","Alzey"
"McDonald's","Curiestr. 1","55129","Mainz am Rhein"
"McDonald's","Am Giener 21","55268","Nieder-Olm"
"McDonald's","Gutenbergplatz 8-12","55116","Mainz am Rhein"
"McDonald's","Haifa-Allee 4","55128","Mainz am Rhein"
"McDonald's","Bahnhofsplatz 1a (Hauptbahnhof)","55116","Mainz am Rhein"
"McDonald's","Rheinallee 181","55120","Mainz am Rhein"
"McDonald's","Schwabenheimer Weg 68","55543","Bad Kreuznach"
"McDonald's","Rheinstr. 55","55435","Gau-Algesheim"
"McDonald's","Europaplatz 1","55543","Bad Kreuznach"
"McDonald's","Gustav-Stresemann-Str. 2a","55411","Bingenam Rhein"
"McDonald's","Auf Dem Stein 2","55444","Waldlaubersheim"
"McDonald's","Ringstr.","55774","Baumholder"
"McDonald's","Fischbacher Str. 2","55743","Idar-Oberstein"
"McDonald's","Sonnenhof","55469","Simmern"
"McDonald's","In der Scheib","56291","Pfalzfeld"
"McDonald's","Industriestr. 20","56410","Montabaur"
"McDonald's","Terminal A - Gebäude 600","55483","Hahn-Flughafen"
"McDonald's","Gewerbestr. 13","56477","Rennerod"
"McDonald's","Bahnhofplatz 1","56075","Koblenz am Rhein"
"McDonald's","Schloßstr. 46-48","56068","Koblenz"
"McDonald's","Im Reimersheck 1","56424","Mogendorf"
"McDonald's","Friedrich-Mohr-str. 2","56070","Koblenz"
"McDonald's","Adolph-Kolping-Str. 7","56170","Bendorf"
"McDonald's","Industriestr. 64","56218","Mülheim-Kärlich"
"McDonald's","Junkerstücke 4","56566","Neuwied"
"McDonald's","Hans-Julius-Ahlmann-Str. 1","56626","Andernach"
"McDonald's","Bahnhofstr. 6","57319","Bad Berleburg"
"McDonald's","Eiserfelder Str. 170","57072","Siegen"
"McDonald's","Gottlieb-Daimler-Str. 18","54516","Wittlich"
"McDonald's","Koblenzer Str. 160","56727","Mayen"
"McDonald's","Am Bahnhof 16","57072","Siegen"
"McDonald's","Raiffeisenstr. 17a","56594","Willroth"
"McDonald's","Wilhelmstr. 110","57518","Betzdorf"
"McDonald's","Ludwig-Erhard-Str. 1","56743","Mendig"
"McDonald's","Am Kenner Haus","54344","Kenn"
"McDonald's","Birlenbacher Str. 2","57078","Siegen"
"McDonald's","an der BAB 3 Epgert Ost","56593","Krunkel"
"McDonald's","Kölner Str. 117","57610","Altenkirchen"
"McDonald's","Zurmainer Str. 153b","54292","Trier"
"McDonald's","Hauptmarkt 18","54290","Trier"
"McDonald's","In den Moselauen 2","54294","Trier"
"McDonald's","Am Hagenblech 58","59955","Winterberg"
"McDonald's","Zitzenbachstr. 2","57223","Kreuztal"
"McDonald's","Bühler Höhe 1","57258","Freudenberg"
"McDonald's","Am Güterbahnhof 4-14","53424","Remagen"
"McDonald's","Am Breithammer 5","57462","Olpe"
"McDonald's","Wiehler Str. 22","51545","Waldbröl"
"McDonald's","Wittichenauer Str. 3","53604","Bad Honnef"
"McDonald's","Bitburger Str. 86","54634","Bitburg"
"McDonald's","Wilhelmstr. 50-56","53474","Bad Neuenahr-Ahrweiler"
"McDonald's","Elsper Str. 42","57368","Lennestadt"
"McDonald's","Königswinterer Str. 233","53639","Königswinter"
"McDonald's","Möhnestr. 51","59929","Brilon"
"McDonald's","Alfred-Nobel-Str. 3","53773","Hennef"
"McDonald's","Brunnenstr. 6 (B410)","54568","Gerolstein"
"McDonald's","Koblenzer Str. 165-167","53177","Bonn"
"McDonald's","Bahnhofstr. 19 (Bahnhof)","53773","Hennef"
"McDonald's","Aennchenplatz 8","53173","Bonn"
"McDonald's","Le-Puy-Str. 24 (Busbahnhof)","59872","Meschede"
"McDonald's","Auf Dem Steinbüchel 2","53340","Meckenheim"
"McDonald's","Gummersbacher Str. 92b","51643","Gummersbach"
"McDonald's","Königswinterer Str. 100-104","53227","Bonn"
"McDonald's","Europaplatz 16 (Europaplatz)","53721","Siegburg"
"McDonald's","Eulenbach 2","53359","Rheinbach"
"McDonald's","Markt 9","53111","Bonn"
"McDonald's","Am Hauptbahnhof 1","53111","Bonn"
"McDonald's","Poststr. 12","53111","Bonn"
"McDonald's","Bertha-von-Suttner-Platz 1","53111","Bonn"
"McDonald's","Friedensplatz 4","53111","Bonn"
"McDonald's","Marie-Curie-Str. 11-17","53757","St. Augustin"
"McDonald's","Oststr. 38","58540","Meinerzhagen"
"McDonald's","Bornheimer Str. 232","53119","Bonn"
"McDonald's","Schöntalweg 1","53347","Alfter"
"McDonald's","Zum Puddelhammer 24","59581","Warstein"
"McDonald's","Burghof 4","51491","Overath"
"McDonald's","Schweinsohl 2","59846","Sundern"
"McDonald's","Echternacherstr. 6","53842","Troisdorf"
"McDonald's","Otto-Brenner-Str. 2 (Gewerbegebiet Scharrenbroich)","51503","Rösrath"
"McDonald's","Gildestr. 6b","58791","Werdohl"
"McDonald's","Terminal 2 Kennedystr.","51147","Köln"
"McDonald's","Am Hellenkreuz 2","53332","Bornheim"
"McDonald's","Bürener Str. 153 (Drivers Park)","59590","Geseke"
"McDonald's","Bräuckenstr. 19","58511","Lüdenscheid"
"McDonald's","Von-Siemens-Str. 6","53879","Euskirchen"
"McDonald's","Vorgebirgsstr. 2","50389","Wesseling"
"McDonald's","Oststr. 2a (Bahnhof)","53879","Euskirchen"
"McDonald's","Rudolf-Diesel-Str. 32","51149","Köln"
"McDonald's","Brockhauser Weg 97","58507","Lüdenscheid"
"McDonald's","Parkallee 1","53919","Weilerswist"
"McDonald's","Lenneper Str. 63","51688","Wipperfürth"
"McDonald's","Edmund-Rumpler-Str. 1","51149","Köln"
"McDonald's","Werner-Schumacher-Str. 14","53925","Kall"
"McDonald's","Werler Str. 6 (Möhnepark)","59755","Arnsberg"
"McDonald's","Richard-Zanders-Str. 5","51465","Bergisch Gladbach"
"McDonald's","Hamburger Str. 12","50321","Brühl"
"McDonald's","Rolshover Str.","51105","Köln"
"McDonald's","Bahnhofstr. 12","58675","Hemer"
"McDonald's","Bergisch Gladbacher Str. 1005","51069","Köln"
"McDonald's","Frankfurter Str. 236","51065","Köln"
"McDonald's","Erwitter Str. 157a","59557","Lippstadt"
"McDonald's","Koblenzer Str. 2-4","50968","Köln"
"McDonald's","Istanbulstr. 20","51103","Köln"
"McDonald's","Frankfurter Str. 20","51065","Köln"
"McDonald's","Ottoplatz 7 (Bahnhof Köln-Deutz, Messe)","50679","Köln"
"McDonald's","Siemensstr. 37","50374","Erftstadt"
"McDonald's","Rixbecker Str. 2","59555","Lippstadt"
"McDonald's","Werler Landstr. 4","59494","Soest"
"McDonald's","Luxemburger Str. 106-112","50354","Hürth"
"McDonald's","Sülzburgstr. 7","50937","Köln"
"McDonald's","Barbarossaplatz 1","50674","Köln"
"McDonald's","Schildergasse 60-68","50667","Köln"
"McDonald's","Clevischer Ring","51063","Köln"
"McDonald's","Am Bahnhof 2","59494","Soest"
"McDonald's","Trankgasse 11 McCafé","50667","Köln"
"McDonald's","Trankgasse 11 (Hauptbahnhof)","50667","Köln"
"McDonald's","Schwertnergasse 1","50667","Köln-Altstadt-Nord"
"McDonald's","Marzellenstr. 2-8","50667","Köln"
"McDonald's","Rudolfplatz 8-10","50674","Köln"
"McDonald's","Raiffeisenstr. 43-45","58638","Iserlohn"
"McDonald's","Neusser Str. 204","50733","Köln"
"McDonald's","Amsterdamerstr. 236","50735","Köln"
"McDonald's","Ehrenfeldgürtel 20","50823","Köln"
"McDonald's","Hämmerstr. 1","58708","Menden"
"McDonald's","Stixchesstraße 123 (Real)","51377","Leverkusen"
"McDonald's","Aachener Str. 752","50931","Köln"
"McDonald's","Dürener Str. 433","50858","Köln"
"McDonald's","Venloer Str. 624","50827","Köln"
"McDonald's","Kölner Str. 200","50226","Frechen"
"McDonald's","Bismarckstr. 133","51373","Leverkusen"
"McDonald's","Alter Reher Weg 2","58119","Hagen"
"McDonald's","Friedrich-Ebert-Platz 7","51373","Leverkusen"
"McDonald's","Aachener Str. 1253","50858","Köln"
"McDonald's","Kölner Str. 189","51379","Leverkusen"
"McDonald's","Neuwerk 2a","59457","Werl"
"McDonald's","Hohenzollernstr. 2","58095","Hagen"
"McDonald's","Berliner Platz 8","58089","Hagen"
"McDonald's","Spenrather Weg 11","50829","Köln"
"McDonald's","Mailänder Passage 1","50765","Köln"
"McDonald's","Enneper Str. 51","58135","Hagen"
"McDonald's","Sachsstr. 1","50259","Pulheim"
"McDonald's","Kölner Str. 306","58256","Ennepetal"
"McDonald's","Stiftsstr. 224","50171","Kerpen"
"McDonald's","Talstr. 25","58332","Schwelm"
"McDonald's","Bahnhofstr. 11","50169","Kerpen"
"McDonald's","Weststr. 3","58089","Hagen"
"McDonald's","Am Eckey 3","58239","Schwerte"
"McDonald's","Europaring 2","50170","Kerpen"
"McDonald's","Bahnhofstr. 63 (Busbahnhof)","59423","Unna"
"McDonald's","Rudolf-Diesel-Str. 3","52351","Düren"
"McDonald's","Wilhelmstr. 2c","59439","Holzwickede"
"McDonald's","Am Handwerkerzentrum 2","52156","Monschau"
"McDonald's","Strängenbach 2","59510","Lippetal"
"McDonald's","Am Sodagraben 1","50127","Bergheim"
"McDonald's","Kuhgasse 8","52349","Düren"
"McDonald's","Kamen Karree 7","59174","Kamen"
"McDonald's","Werler Str. 313","59069","Hamm"
"McDonald's","Im Grossen Tal 3","52353","Düren"
"McDonald's","Neubeckumer Str. 55","59269","Beckum"
"McDonald's","Dortmunder Str. 23","58455","Witten"
"McDonald's","Ruhrstr. 1","58452","Witten"
"McDonald's","Richard-Matthaei-Platz 1 (Allee-Center Hamm)","59065","Hamm"
"McDonald's","Werner Str. 123","59192","Bergkamen"
"McDonald's","Beckumer Str. 105","59229","Ahlen"
"McDonald's","Nordlippestr. 52","59368","Werne"
"McDonald's","Eisenbahnstr. 11","52222","Stolberg"
"McDonald's","Aachener Str. 108","52249","Eschweiler"
"McDonald's","Debyestr. 39","52078","Aachen"
"McDonald's","Kapuzinerstr. 40","52457","Aldenhoven"
"McDonald's","Adenauerstr. 21","52146","Würselen"
"McDonald's","Jülicher Str. 342-352","52070","Aachen"
"McDonald's","Zollamtstr. 1 (Bahnhofsplatz)","52064","Aachen"
"McDonald's","Holzgraben 11","52062","Aachen"
"McDonald's","Roermonder Str. 194","52134","Herzogenrath"
"McDonald's","Valve 50","59348","Lüdinghausen"
"McDonald's","F.-W.Raiffeisen-Str. 30","52531","Übach-Palenberg"
"McDonald's","Bahnhofstr. 27 (Bahnhof)","52511","Geilenkirchen"
"McDonald's","Industriestr. 2a","52525","Heinsberg"
"McDonald's","Am Stadtweg 1","63927","Bürgstadt"
"McDonald's","Hohenaspen 38","69231","Rauenberg"
"McDonald's","Im Breitspiel 28","69126","Heidelberg"
"McDonald's","Rohrbacher Str. 3","69115","Heidelberg"
"McDonald's","Hebelstr. 4","69115","Heidelberg"
"McDonald's","Stadtring","64720","Michelstadt"
"McDonald's","Willy-Brandt-Platz 5","69115","Heidelberg"
"McDonald's","Hoeber-und-Mandelbaum-Str. 1","68794","Oberhausen-Rheinhausen"
"McDonald's","Gleisstr. 8/5","68766","Hockenheim"
"McDonald's","Goldbeckstr. 3","69493","Hirschberg a.d. Bergstraße"
"McDonald's","Alte Mannheimer Landstr. 1","68782","Brühl"
"McDonald's","Bergstr. 31","69469","Weinheim"
"McDonald's","Wormser Landstr. 196","67346","Speyer"
"McDonald's","Berliner Allee 1","63739","Aschaffenburg"
"McDonald's","Heidelberger Str. 11","68519","Viernheim"
"McDonald's","Industriestr. 1","63768","Hösbach"
"McDonald's","Rosslauer Weg 2-4","68309","Mannheim"
"McDonald's","Neckarauer Str. 58-60","68199","Mannheim"
"McDonald's","Goldbacher Str. 2","63739","Aschaffenburg"
"McDonald's","Schönbornstr. 50","63741","Aschaffenburg"
"McDonald's","Ludwigstr. 2-4","63739","Aschaffenburg"
"McDonald's","Am Katzenbaumerschlag 2","67105","Schifferstadt"
"McDonald's","Willy-Brandt-Platz 17","68161","Mannheim"
"McDonald's","Planken 07/15","68161","Mannheim"
"McDonald's","H 1,5","68159","Mannheim"
"McDonald's","Mittelstr. 12","68169","Mannheim"
"McDonald's","Walzmühlstr.","67061","Ludwigshafen am Rhein"
"McDonald's","Lorscher Str. 53a","64646","Heppenheim"
"McDonald's","In der Mörschgewanne 12/16","67065","Ludwigshafen am Rhein"
"McDonald's","Georg-August-Zinn-Str. 100a","64823","Groß-Umstadt"
"McDonald's","Rathausplatz 20","67059","Ludwigshafen am Rhein"
"McDonald's","Bruchwiesenstr. 295","67059","Ludwigshafen am Rhein"
"McDonald's","Saaläckerstr. 2b","63801","Kleinostheim"
"McDonald's","Wormser Str. 101","64625","Bensheim"
"McDonald's","Viernheimer Weg 23","68307","Mannheim"
"McDonald's","Mannheimer Str. 63","67071","Ludwigshafen am Rhein"
"McDonald's","Industriestr. 34 A","68623","Lampertheim"
"McDonald's","Frankfurter Str. 103","64807","Dieburg"
"McDonald's","Richard-Sang-Str. 5","67454","Haßloch"
"McDonald's","Wormser Str. 105","67227","Frankenthal"
"McDonald's","Chemnitzer Str. 50","67433","Neustadt a.d. Weinstraße"
"McDonald's","Daimlerstr. 1","63755","Alzenau"
"McDonald's","Heidelberger Str. 191","64285","Darmstadt"
"McDonald's","Ernst-Ludwig-Str. 26","64283","Darmstadt"
"McDonald's","Schönauer Str. 18a","67547","Worms"
"McDonald's","Dr.-Otto-Röhm-Str. 3","67547","Worms"
"McDonald's","Main-Kinzig-Str. 21","63607","Wächtersbach"
"McDonald's","Rheinstr. 69","64295","Darmstadt"
"McDonald's","Bruchstr. 2c","67098","Bad Dürkheim"
"McDonald's","Platz der Deutschen Einheit 21","64293","Darmstadt"
"McDonald's","Gräfenhäuser Str. 89","64293","Darmstadt"
"McDonald's","Rudolf-Walther-Str. 2","63584","Gründau"
"McDonald's","Karl-Benz-Str. 5","63128","Dietzenbach"
"McDonald's","Gutenbergstr. 5","64331","Weiterstadt"
"McDonald's","Rudolf-Diesel-Str. 28","64331","Weiterstadt"
"McDonald's","Rodgaustr. 7","63457","Hanau"
"McDonald's","Am Hauptbahnhof 14a","63450","Hanau"
"McDonald's","Woogstr. 52","63329","Egelsbach"
"McDonald's","Röntgenstr. 3 (Gewerbepark BAB 45)","63526","Erlensee"
"McDonald's","Rosengartenweg 1","67281","Kirchheim a.d. Weinstraße"
"McDonald's","Am Markt 5","63450","Hanau"
"McDonald's","Römerstr. 1a","64560","Riedstadt"
"McDonald's","Lamboystr. 32","63452","Hanau"
"McDonald's","Robert-Bosch-Str. 1","63303","Dreieich"
"McDonald's","Wilhelm-Röntgen-Str. 24-26","63477","Maintal"
"McDonald's","Carl-Friedrich-Gauss-Str. 2","63263","Neu-Isenburg"
"McDonald's","Borsigstr. 1","63165","Mühlheim am Main"
"McDonald's","Hermesstr. 4","63263","Neu-Isenburg"
"McDonald's","Sprendlinger Landstr. 177","63069","Offenbach am Main"
"McDonald's","Industriestraße 19 (Total Tankstelle)","64546","Mörfelden-Walldorf"
"McDonald's","Strahlenbergerstr. 103","63067","Offenbach am Main"
"McDonald's","Hanauer Landstraße","60314","Frankfurt"
"McDonald's","Diesterwegplatz 51","60594","Frankfurt am Main"
"McDonald's","Borsigallee 33","60388","Frankfurt am Main"
"McDonald's","Grosse Friedberger Str. 3-5","60313","Frankfurt am Main"
"McDonald's","Flughafen Terminal 2 GLOBAL","60547","Frankfurt am Main"
"McDonald's","Flughafen Terminal 2","60549","Frankfurt"
"McDonald's","An der Hauptwache 11","60313","Frankfurt am Main"
"McDonald's","Kaiserstr. 52","60313","Frankfurt am Main"
"McDonald's","Grosse Bockenheimer Str. 6","60313","Frankfurt am Main"
"McDonald's","Am Hauptbahnhof 1","60329","Frankfurt / Main"
"McDonald's","Terminal 1, Transit B, Ebene 3","60549","Frankfurt am Main"
"McDonald's","Terminal 1, Ebene 0, Bereich A, Gb 212 (Gebäude 212)","60549","Frankfurt am Main"
"McDonald's","Europa-Allee 6 (Skyline Plaza)","60327","Frankfurt am Main"
"McDonald's","Terminal 1, Abflug Z","60549","Frankfurt am Main"
"McDonald's","Friedberger Landstr. 291","60389","Frankfurt am Main"
"McDonald's","Eckenheimer Landstr. 181 (Total Tankstelle)","60320","Frankfurt am Main"
"McDonald's","Mainzer Landstr. 533","65933","Frankfurt am Main"
"McDonald's","Friedberger Str. 89a","61118","Bad Vilbel"
"McDonald's","Adam-Opel-Str. 49","65428","Rüsselsheim am Main"
"McDonald's","Am Schindberg 8","65474","Bischofsheim"
"McDonald's","Nidacorso 3 (Nordwestzentrum)","60439","Frankfurt am Main"
"McDonald's","Limescorso 33 (Nordwestzentrum)","60439","Frankfurt am Main"
"McDonald's","In der Grobach 19","61197","Florstadt"
"McDonald's","Guerickestr. 12","60488","Frankfurt am Main"
"McDonald's","Bischheimerstr. 18","67292","Kirchheimbolanden"
"McDonald's","Heinrich-Lanz-Allee 1 (Martinszehnten)","60437","Frankfurt am Main"
"McDonald's","Mainzer Str. 97","67657","Kaiserslautern"
"McDonald's","Marktstr. 40","67655","Kaiserslautern"
"McDonald's","Am Kronberger Hang 9","65824","Schwalbach"
"McDonald's","Am Bahnhof 1","61352","Bad Homburg v.d. Höhe"
"McDonald's","Turnstr. 75","66953","Pirmasens"
"McDonald's","Am Wandersmann 1","65719","Hofheim am Taunus"
"McDonald's","Zeppelinstr. 3","63667","Nidda"
"McDonald's","Bölckestr. 64","55252","Mainz-Kastel"
"McDonald's","Hans-Mess-Str. 2","61440","Oberursel"
"McDonald's","Hanauer Str. 44","61169","Friedberg"
"McDonald's","Dieselstr. 1b","61191","Rosbach v.d. Höhe"
"McDonald's","Opelkreisel 30","67663","Kaiserslautern"
"McDonald's","Im Haderwald 15","67661","Kaiserslautern"
"McDonald's","Mainzer Str. 99-101","65189","Wiesbaden"
"McDonald's","Äppelallee 69","65203","Wiesbaden-Biebrich"
"McDonald's","Hagenauer Str. 41","65203","Wiesbaden"
"McDonald's","Bahnhofsplatz 1","65189","Wiesbaden"
"McDonald's","Kirchgasse 64","65183","Wiesbaden"
"McDonald's","Dotzheimer Str. 182b","65197","Wiesbaden"
"McDonald's","Am Koehlwäldchen 5","66877","Ramstein-Miesenbach"
"McDonald's","Zeppelinstr. 1","61267","Neu-Anspach"
"McDonald's","Gottlieb-Daimler-Str. 32-38","66482","Zweibrücken"
"McDonald's","Auroffer Str. 2","65510","Idstein"
"McDonald's","Geisenheimer Str. 58","65385","Rüdesheim am Rhein"
"McDonald's","Talstr. 63","66424","Homburg"
"McDonald's","Zum Lappentascher Hof 18","66424","Homburg"
"McDonald's","Beuerbacher Landstr. 4a","65520","Bad Camberg"
"McDonald's","Südstr. 1/60","66386","St. Ingbert"
"McDonald's","Boxbergweg 1","66538","Neunkirchen"
"McDonald's","Brüsseler Str. 4","65552","Limburg a.d. Lahn"
"McDonald's","August-Balthasar-Str. 2","66606","St. Wendel"
"McDonald's","Eschberger Weg 1","66121","Saarbrücken"
"McDonald's","Nikolaus-Otto-Str. 11","65582","Diez"
"McDonald's","Hedwig-Stalter-Str. 1","66125","Saarbrücken"
"McDonald's","Bahnhofstr. 18","66111","Saarbrücken"
"McDonald's","Reichsstr. 1","66111","Saarbrücken"
"McDonald's","Metzer Str. 123","66117","Saarbruecken"
"McDonald's","Saarwiesenstr. 11","66333","Völklingen"
"McDonald's","Auf Dem Graben 8","66822","Lebach"
"McDonald's","Saarbrücker Str. 213","66359","Bous"
"McDonald's","Provinzialstr. 248","66740","Saarlouis"
"McDonald's","Merziger Str. 85","66763","Dillingen"
"McDonald's","Haagstr. 55","66679","Losheim am See"
"McDonald's","Saarwiesenring 2","66663","Merzig"
"McDonald's","Robert-Bosch-Str. 2-4","73431","Aalen"
"McDonald's","Am Mittelbach 1 (Shell Tankstelle)","73433","Aalen"
"McDonald's","Max-Eyth-Str. 8","73479","Ellwangen"
"McDonald's","Im Gewerbepark 9","73329","Kuchen"
"McDonald's","Lorcherstr. 183","73529","Schwäbisch Gmünd"
"McDonald's","Daimlerstr. 6","73054","Eislingen"
"McDonald's","Bahnhofstr. 1","73033","Göppingen"
"McDonald's","Haller Str. 94","74564","Crailsheim"
"McDonald's","Robert-Bosch-Str. 4/1","72525","Münsingen"
"McDonald's","Marco-Polo-Str. 1","74589","Satteldorf"
"McDonald's","Daimlerstr. 2","73660","Urbach"
"McDonald's","Marie-Curie-Str. 2","73230","Kirchheim unter Teck"
"McDonald's","Bahnhof 2","73614","Schorndorf"
"McDonald's","Oberboihinger Str.","72622","Nürtingen"
"McDonald's","Christian-Eisele-Str. 11","73257","Köngen"
"McDonald's","Daimlerstr. 72","74545","Michelfeld"
"McDonald's","Ulmer Str. 15","72555","Metzingen"
"McDonald's","In den Käppeleswiesen 8","72488","Sigmaringen"
"McDonald's","Max-Eyth-Str. 16","72793","Pfullingen"
"McDonald's","Felix-Wankel-Str. 5","73760","Ostfildern"
"McDonald's","Kalkofenstr. 18","71384","Weinstadt"
"McDonald's","Wanne 7","71522","Backnang"
"McDonald's","Max-Eyth-Str. 29","71364","Winnenden"
"McDonald's","Heiligenwiesen 31","70327","Stuttgart"
"McDonald's","Bühlstr. 135","70736","Fellbach"
"McDonald's","Felix-Wankel-Str. 38","70794","Filderstadt"
"McDonald's","Flughafenstr. 63","70629","Stuttgart"
"McDonald's","Bahnhofplatz 4","78462","Konstanz"
"McDonald's","Opelstr. 1","78467","Konstanz"
"McDonald's","Würzburger Str. 50 (An der B19)","74653","Künzelsau"
"McDonald's","Bahnhofstr. 30","70372","Stuttgart"
"McDonald's","Aldinger Str. 76","70378","Stuttgart"
"McDonald's","Truchtelfinger Str. 64","72458","Albstadt"
"McDonald's","Reutlinger Str. 66","72072","Tübingen"
"McDonald's","Hauptbahnhof Stuttgart","70173","Stuttgart"
"McDonald's","Königstr. 1b","70173","Stuttgart"
"McDonald's","Schulstr. 5","70173","Stuttgart"
"McDonald's","Mössinger Str. 17","72131","Ofterdingen"
"McDonald's","Marienstr. 12","70178","Stuttgart"
"McDonald's","Mailänder Platz 7","70173","Stuttgart, Milaneo"
"McDonald's","Handwerkstr. 2","70565","Stuttgart"
"McDonald's","Heilbronner Str. 393","70469","Stuttgart"
"McDonald's","Aldinger Str. 85","70806","Kornwestheim"
"McDonald's","Im Brenntenstock","74613","Öhringen"
"McDonald's","Robert-Bosch-Str. 1","71711","Murr"
"McDonald's","Arsenalplatz 1","71638","Ludwigsburg"
"McDonald's","Wollinstr. 6","70439","Stuttgart"
"McDonald's","Porschestr. 1 (Breuningerland)","71634","Ludwigsburg"
"McDonald's","Wilhelm-Maybach-Str. 9","72108","Rottenburg am Neckar"
"McDonald's","Porschestr. 2","74360","Ilsfeld"
"McDonald's","Tilsiterstr. 7","71065","Sindelfingen"
"McDonald's","Wolfgang-Brumme-Allee 27 (EKZ Mercaden)","71034","Böblingen"
"McDonald's","Karl-Benz-Str. 7","71034","Böblingen"
"McDonald's","Am Autobahnkreuz 3","74248","Ellhofen"
"McDonald's","Mercedesstr. 12","71063","Sindelfingen"
"McDonald's","Robert-Gerwig-Str. 27","78315","Radolfzell am Bodensee"
"McDonald's","Stuttgarter Str. 65","74321","Bietigheim-Bissingen"
"McDonald's","Neue Ramtelstr. 9","71229","Leonberg"
"McDonald's","Lange Str. 13","72336","Balingen"
"McDonald's","Leonberger Str. 98","71229","Leonberg"
"McDonald's","Ohmstr. 5/1","71083","Herrenberg"
"McDonald's","Happenbacher Str. 3","74074","Heilbronn"
"McDonald's","Deutschhofstr. 19","74072","Heilbronn"
"McDonald's","Sülmerstr. 57","74072","Heilbronn"
"McDonald's","Heiner-Fleischmann-Str. 1/1","74172","Neckarsulm"
"McDonald's","Industriestr. 1","78224","Singen"
"McDonald's","August-Ruf-str. 16","78224","Singen"
"McDonald's","Jahnstr. 45","78234","Engen"
"McDonald's","Römerstr. 11","71296","Heimsheim"
"McDonald's","Haiterbacher Str. 68","72202","Nagold"
"McDonald's","Rauher Grund 2","72160","Horb am Neckar"
"McDonald's","Eythstr. 14","72189","Vöhringen"
"McDonald's","Stuttgarter Str. 100","75365","Calw"
"McDonald's","Flözlinger Str. 57","78658","Zimmern ob Rottweil"
"McDonald's","Enztalstr. 2","75223","Niefern-Öschelbronn"
"McDonald's","Carl-Benz-Str. 2","74722","Buchen"
"McDonald's","Carl-Friedrich-Benz-Str. 15","78073","Bad Dürrheim"
"McDonald's","Adolf-Seebacher-Str. 2","75177","Pforzheim"
"McDonald's","Carl-Benz-Str. 4","78166","Donaueschingen"
"McDonald's","Karlsruher Str. 87","75179","Pforzheim"
"McDonald's","Milanstr. 4","78048","Villingen-Schwenningen"
"McDonald's","Alexanderstr. 1","75015","Bretten"
"McDonald's","Stuttgarter Str. 193","72250","Freudenstadt"
"McDonald's","Am Mantel 1a","76646","Bruchsal"
"McDonald's","Simon-Hegele-Str. 1c","76689","Karlsdorf-Neuthard"
"McDonald's","Durlacher Allee 109","76137","Karlsruhe"
"McDonald's","Titiseestr. 13","79822","Titisee-Neustadt"
"McDonald's","Bahnhofplatz 1","76137","Karlsruhe"
"McDonald's","Kaiserstr. 135","76133","Karlsruhe"
"McDonald's","Kaiserstr. 150 (Europaplatz)","76133","Karlsruhe"
"McDonald's","Murgtalstr. 1","76571","Gaggenau"
"McDonald's","Pulverhausstr. 42","76135","Karlsruhe"
"McDonald's","Bocksdornweg 2","76149","Karlsruhe"
"McDonald's","Von-Opel-Str. 2b","79761","Waldshut-Tiengen"
"McDonald's","Am Mühlburger Bahnhof 1","76189","Karlsruhe"
"McDonald's","Ettlinger Str. 3","76437","Rastatt"
"McDonald's","Industriestr. 26","76547","Sinzheim"
"McDonald's","Kühgrunddamm 8","76744","Wörth am Rhein"
"McDonald's","Mainzer Str. 2","76726","Germersheim"
"McDonald's","Am Achernsee 4","77855","Achern"
"McDonald's","Okenstr. 105","77652","Offenburg"
"McDonald's","Hauptstr. 58","77652","Offenburg"
"McDonald's","Alter Stadtbahnhof 1","77933","Lahr"
"McDonald's","Dammweg 2/2","79312","Emmendingen"
"McDonald's","Kaiser-Joseph-Str. 252","79098","Freiburg"
"McDonald's","Tullastr. 82a","79108","Freiburg"
"McDonald's","Bismarck Allee 5","79098","Freiburg"
"McDonald's","Johannes-Kopp-Str. 4","76829","Landauin der Pfalz"
"McDonald's","Basler Str. 111-113","79115","Freiburg"
"McDonald's","Tullastr. 1","79713","Bad Säckingen"
"McDonald's","Königsbergerstr. 17","77694","Kehl"
"McDonald's","Kapeller Str. 1g","76887","Bad Bergzabern"
"McDonald's","Breisgauallee 4","79336","Herbolzheim"
"McDonald's","Freiburger Str. 25","79189","Bad Krozingen"
"McDonald's","Grossmattstr. 2","79618","Rheinfelden"
"McDonald's","Zur Rheinbrücke 23","79206","Breisach am Rhein"
"McDonald's","Rastanlage Bremgarten 2","79258","Hartheim"
"McDonald's","Chesterplatz 3","79539","Lörrach"
"McDonald's","Schliengener Str. 22","79379","Müllheim"
"McDonald's","Clara-Immerwahr-Str. 1","79539","Lörrach"
"McDonald's","Colmarer Str. 7","79576","Weil am Rhein"
"McDonald's","Hauptstr. 437","79576","Weil am Rhein"
"McDonald's","Tal 6","80331","München"
"McDonald's","Karlsplatz 10","80335","München"
"McDonald's","Augustenstr. 53","80333","München"
"McDonald's","Schwanthalerstr. 8","80336","München"
"McDonald's","Bahnhofplatz 2 (S-Bahnhof UG)","80335","München"
"McDonald's","Feilitzschstr. 13","80802","München"
"McDonald's","Hohenzollernstr. 152","80797","München"
"McDonald's","Hackerbrücke 4","80335","München"
"McDonald's","Goethestr. 74","80336","München"
"McDonald's","Regerstr. 25","81541","München"
"McDonald's","Nymphenburger Str. 156","80634","München"
"McDonald's","Martin-Luther-Straße 26","81539","München"
"McDonald's","Am Harras 12","81373","München"
"McDonald's","Frankfurter Ring 243","80807","München"
"McDonald's","Maria-Probst-Str. 1","80939","München"
"McDonald's","Situlistr. 6","80939","München"
"McDonald's","Hanauer Str. 68","80993","München"
"McDonald's","Hanauer Str. 83","80993","München"
"McDonald's","Fürstenrieder Str. 26","80687","München"
"McDonald's","Thomas-Dehler-Str. 12","81737","Muenchen"
"McDonald's","Machtlfinger Str. 4","81379","München (Thalkirchen)"
"McDonald's","Schleissheimer Str. 506 (Einkaufszentrum Nordheide)","80933","München"
"McDonald's","Landsberger Str. 412 A","81241","München"
"McDonald's","Wasserburger Landstr. 52","81825","München"
"McDonald's","Willy-Brandt-Platz 5 (Riem Arcaden)","81829","München"
"McDonald's","Stäblistr. 16","81477","München"
"McDonald's","Verdistr. 84-88","81247","München"
"McDonald's","Pasinger Bahnhofsplatz 5","81241","München"
"McDonald's","Bavariafilmplatz 7","82031","Grünwald"
"McDonald's","Grünwalder Weg 32","82008","Unterhaching"
"McDonald's","Südliche Münchner Str. 34a","82031","Grünwald"
"McDonald's","Robert-Bürkle-Str.","85737","Ismaning"
"McDonald's","Münchner Str. 160","85757","Karlsfeld"
"McDonald's","Zusestr. 3 (B 471)","85649","Brunnthal"
"McDonald's","Franz-Lehner-Str. 2","85764","Oberschleißheim"
"McDonald's","Fraunhofer Str. 1","85551","Kirchheim"
"McDonald's","Frauenhoferstr. 4","85221","Dachau"
"McDonald's","Max-Planck-Str. 19","85716","Unterschleißheim"
"McDonald's","Augsburger Str. 36","82110","Germering"
"McDonald's","Bahnhofsplatz 3","85221","Dachau"
"McDonald's","Dieselstr. 2","85386","Eching"
"McDonald's","Geiselbullacher Str. 3","82140","Olching"
"McDonald's","Siriusstr. 1","85614","Kirchseeon"
"McDonald's","Landsberger Str. 90","82205","Gilching"
"McDonald's","Münchner Str. 10","82319","Starnberg"
"McDonald's","Hasenheide 1a","82256","Fürstenfeldbruck"
"McDonald's","Oskar-Von-Miller-Ring 2","85254","Sulzemoos"
"McDonald's","Airport Center, Terminalstr. Mitte 18","85356","München-Flughafen"
"McDonald's","Otto-Hahn-Str. 35","85435","Erding"
"McDonald's","Bahnhofstr. 41","82515","Wolfratshausen"
"McDonald's","Johann-Auer-Str. 1","85435","Erding"
"McDonald's","Clemensänger Ring 1","85356","Freising"
"McDonald's","Pfaffenrieder Str. 28","82515","Wolfratshausen"
"McDonald's","Heignkamerstr. 2","83607","Holzkirchen"
"McDonald's","Bahnhofsplatz 4 (S-Bahnhof)","85356","Freising"
"McDonald's","Robert-Koch-Str. 5","85301","Schweitenkirchen"
"McDonald's","Wendling 13","83737","Irschenberg"
"McDonald's","Demmeljochstr. 54","83646","Bad Tölz"
"McDonald's","Seeshaupterstr. 56","82377","Penzberg"
"McDonald's","Münchener Str. 69","82362","Weilheim"
"McDonald's","Hertzstr. 1","86415","Mering"
"McDonald's","Messerschmittstr. 10","86453","Dasing"
"McDonald's","Bernd-Motzkus-Str. 1","83512","Wasserburg am Inn"
"McDonald's","Carl-Jordan-Str. 22","83059","Kolbermoor"
"McDonald's","Strogenweg 1","84174","Eching"
"McDonald's","Rinderhofer Breite 3","86529","Schrobenhausen"
"McDonald's","Südtiroler Platz 1","83022","Rosenheim"
"McDonald's","Klepperstr. 30","83026","Rosenheim"
"McDonald's","Tegernseer Str. 102","83700","Reitrain"
"McDonald's","Haunstetter Str. 21","86343","Königsbrunn"
"McDonald's","Augsburger Str. 66","86899","Landsberg am Lech"
"McDonald's","Meraner Str. 22","86165","Augsburg"
"McDonald's","Winterbruckenweg 55","86316","Friedberg"
"McDonald's","Am Auer Bach 2","85084","Reichertshofen"
"McDonald's","City-Galerie, Willy-Brandt-Platz 1","86153","Augsburg"
"McDonald's","Straßäcker 2","84048","Mainburg"
"McDonald's","Edisonstr. 12a","86199","Augsburg"
"McDonald's","Fuggerstr. 2","86150","Augsburg"
"McDonald's","Viktoriastr. 1","86150","Augsburg"
"McDonald's","Strassäcker 22","82418","Murnauam Staffelsee"
"McDonald's","Ludwig-Erhard-Str. 2","84034","Landshut"
"McDonald's","Donauwörther Str. 193","86154","Augsburg"
"McDonald's","Gablinger Weg 83a","86154","Augsburg"
"McDonald's","Daimlerstr. 5","86391","Stadtbergen"
"McDonald's","Altstadt 88","84028","Landshut"
"McDonald's","Am Alten Viehmarkt 5","84028","Landshut"
"McDonald's","Augsburger Str. 82","86830","Schwabmünchen"
"McDonald's","Straubinger Str. 4","84030","Landshut"
"McDonald's","Teplitzer Str. 26","84478","Waldkraiburg"
"McDonald's","Tannenberger Straße 1","86956","Schongau"
"McDonald's","Ohmstr. 1","84137","Vilsbiburg"
"McDonald's","Am Reitbach 4","83209","Prien am Chiemsee"
"McDonald's","Münchener Str. 134","85051","Ingolstadt"
"McDonald's","Eriagstr. 1","85053","Ingolstadt"
"McDonald's","Schorsch-Meier-Str. 3","84453","Mühldorf am Inn"
"McDonald's","Moritzstr. 15","85049","Ingolstadt"
"McDonald's","Nürnberger Str. 2","85055","Ingolstadt"
"McDonald's","Am Südpark 3","86633","Neuburg a.d. Donau"
"McDonald's","Am Westpark 10 (Audi-Ring)","85057","Ingolstadt"
"McDonald's","Schützenstr. 2","86842","Türkheim"
"McDonald's","Sudetenstr. 14","87600","Kaufbeuren"
"McDonald's","Luitpoldpark 3","84109","Wörth a.d. Isar"
"McDonald's","Werner-von-Siemens-Str. 2a","83301","Traunreut"
"McDonald's","Oberwinkl 3","83355","Grabenstätt"
"McDonald's","Hauptstr. 6","82467","Garmisch-Partenkirchen"
"McDonald's","Mühldorfer Str. 67","84503","Altötting"
"McDonald's","Allgäuer Str. 27","87719","Mindelheim"
"McDonald's","Marienplatz 7/11","82467","Garmisch-Partenkirchen"
"McDonald's","Brückenstr. 5","87616","Marktoberdorf"
"McDonald's","Hochstr. 34","83278","Traunstein"
"McDonald's","Laaberstr. 4","84130","Dingolfing"
"McDonald's","An der Westspange 4","86609","Donauwörth"
"McDonald's","Weissenburger Str. 38","85072","Eichstätt"
"McDonald's","Robert-Bosch-Str. 12","89343","Jettingen-Scheppach"
"McDonald's","Gewerbepark Lindach C","84489","Burghausen"
"McDonald's","Schellenbruckstr. 41","84307","Eggenfelden"
"McDonald's","Michael-Faist-Str. 33","86381","Krumbach"
"McDonald's","KemptenerStr. 69b","87629","Füssen"
"McDonald's","Werner-von-Siemens-Str. 4","89415","Lauingen"
"McDonald's","Gutenbergstr. 6","87781","Ungerhausen"
"McDonald's","Ulmer Str. 91","89312","Günzburg"
"McDonald's","Weissenbachstr. 4","87730","Bad Grönenbach"
"McDonald's","Bleicherstr. 2","87437","Kempten"
"McDonald's","Südeinfahrt 3","84347","Pfarrkirchen"
"McDonald's","Albert Ott str. 4","87435","Kempten"
"McDonald's","Wernher-Von-Braun-Str. 17","87700","Memmingen"
"McDonald's","Sägewerkstr. 15","83395","Freilassing"
"McDonald's","An der Alten Ziegelei 2","89269","Vöhringen"
"McDonald's","Würzburger Str. 3","86720","Nördlingen"
"McDonald's","Am Bühlfeld 1","89542","Herbrechtingen"
"McDonald's","Germanenstr. 8","89250","Senden"
"McDonald's","Otto-Hahn-Str. 2","89231","Neu-Ulm"
"McDonald's","Magirusstr. 14","89129","Langenau"
"McDonald's","Am Waizenhof 8","88317","Aichstetten"
"McDonald's","Östliche Alpenstr. 24","87527","Sonthofen"
"McDonald's","Nördlinger Str. 74","89520","Heidenheim a.d. Brenz"
"McDonald's","Seestr. 2","83471","Schönau am Königssee"
"McDonald's","Bahnhofstraße8","89073","Ulm"
"McDonald's","Blaubeurer Str. 92","89077","Ulm"
"McDonald's","Lerchenbergstr. 9/1","89160","Dornstadt"
"McDonald's","Lindauer Str. 45","88316","Isny"
"McDonald's","Berblingerstr. 28","88471","Laupheim"
"McDonald's","An der Breitach 1","87538","Fischen"
"McDonald's","Leipzigstr. 39","88400","Biberach a.d. Riß"
"McDonald's","Albert-Einstein Str. 10/1","89584","Ehingen"
"McDonald's","Ravensburger Str. 100","88239","Wangen"
"McDonald's","Industriestr. 2","89188","Merklingen"
"McDonald's","Hans-Liebherr-Str. 25","88161","Lindenberg"
"McDonald's","Argonnenstr. 13","88250","Weingarten"
"McDonald's","Gartenstr. 92","88212","Ravensburg"
"McDonald's","Robert-Bosch-Str. 38","88131","Lindau"
"McDonald's","Industriestr. 2","88499","Riedlingen"
"McDonald's","Herbertinger Str. 45","88348","Bad Saulgau"
"McDonald's","Dr.-Klein-Str. 7","88069","Tettnang"
"McDonald's","Ehlersstr. 34","88046","Friedrichshafen"
"McDonald's","Stadtbahnhof 1","88045","Friedrichshafen"
"McDonald's","Planckstr. 2","88677","Markdorf"
"McDonald's","Zur Weierhalde 2","88662","Überlingen"
"McDonald's","Straubinger Str. 46","93326","Abensberg"
"McDonald's","Donaupark Ring 1","93309","Kelheim"
"McDonald's","Ammerholz 5","93080","Pentling"
"McDonald's","Harburger Str. 25","94405","Landaua.d. Isar"
"McDonald's","An der Autobahn 4","91171","Greding"
"McDonald's","Am Schwindgraben 5","93083","Obertraubling"
"McDonald's","Franz-Hartl-Str. 8","93053","Regensburg"
"McDonald's","Defreggerweg 2","93051","Regensburg"
"McDonald's","Friedenstr. 23","93053","Regensburg"
"McDonald's","Maximilianstr. 29","93047","Regensburg"
"McDonald's","Weißgerbergraben 26","93047","Regensburg"
"McDonald's","Weichser Weg 5","93059","Regensburg"
"McDonald's","Vilsstr. 27","93059","Regensburg"
"McDonald's","Augsburger Str. 75","91781","Weißenburg"
"McDonald's","Im Gewerbepark Wörth-Wiesent","93086","Wörth a.d. Donau"
"McDonald's","Ittlinger Str. 194","94315","Straubing"
"McDonald's","An der Hasler Zell 4","93128","Regenstauf"
"McDonald's","Im Grund 2","92331","Parsberg"
"McDonald's","Dr.-Walter-Bruch-Str. 2","94447","Plattling"
"McDonald's","Regensburger Str. 66","93133","Burglengenfeld"
"McDonald's","Nürnberger Str. 111","91710","Gunzenhausen am Altmühlsee"
"McDonald's","Allersberger Str. 81","91154","Roth"
"McDonald's","Nürnberger Str. 41a","92318","Neumarkt"
"McDonald's","Graflingerstr. 180","94469","Deggendorf"
"McDonald's","Bahnhofstr. 1","94474","Vilshofen"
"McDonald's","Bgm.-Wenig-Str. 1","94060","Pocking"
"McDonald's","Max-Planck-Str. 10","92421","Schwandorf"
"McDonald's","Am Falbenholzweg 4","91126","Schwabach"
"McDonald's","An der Autobahn 2","91126","Kammerstein (Schwabach)"
"McDonald's","Am Brunnfeld 3","92421","Schwandorf"
"McDonald's","Luitpoldstr. 25","91550","Dinkelsbühl"
"McDonald's","Schwarzenbrucker Str. 4","90537","Feucht"
"McDonald's","Prackenfelser Str. 14","90518","Altdorf"
"McDonald's","Werner-Von-Siemens-Str. 35","93413","Cham"
"McDonald's","Meraner Str. 2","94036","Passau"
"McDonald's","Äussere Spitalhofstr. 8","94036","Passau"
"McDonald's","Regensburger Str. 416","90480","Nürnberg"
"McDonald's","Wieshof 1","94209","Regen"
"McDonald's","Bahnhofstr. 2","94032","Passau"
"McDonald's","Heisterstr. 1","90441","Nürnberg"
"McDonald's","Nürnberger Str. 42a","91522","Ansbach"
"McDonald's","U-Bahnhof Aufseßplatz","90443","Nürnberg"
"McDonald's","Ansbacher Str. 44","91589","Aurach"
"McDonald's","Bahnhofsplatz 9 (Hauptbahnhof)","90443","Nürnberg"
"McDonald's","Bahnhofsplatz 9","90403","Nürnberg"
"McDonald's","Breite Gasse 6","90402","Nürnberg"
"McDonald's","Laufamholzstr. 76","90482","Nürnberg"
"McDonald's","Hauptmarkt 15","90403","Nürnberg"
"McDonald's","Rothenburger Str. 72","90522","Oberasbach"
"McDonald's","Nikolaus-Otto-Str. 10","91625","Schnelldorf"
"McDonald's","Sigmundstr. 100","90431","Nürnberg"
"McDonald's","Äußere Bayreuther Str. 80","90491","Nürnberg"
"McDonald's","Röthensteig 30","90408","Nürnberg"
"McDonald's","Haeberleinstr. 4","90411","Nürnberg"
"McDonald's","Hersbrucker Straße 54","91207","Lauf a.d. Pegnitz"
"McDonald's","Hans-Vogel-Str. 8","90765","Fürth"
"McDonald's","Flughafenstr. 100","90411","Nürnberg-Almoshof"
"McDonald's","Unterfarrnbacher Str. 2","90766","Fürth"
"McDonald's","Klaus-Konrad-Str.","92533","Wernberg-Köblitz"
"McDonald's","Ort 38","94078","Freyung"
"McDonald's","Olympiaring 1","91074","Herzogenaurach"
"McDonald's","Gundstr. 4","91056","Erlangen"
"McDonald's","Erlangen Arcaden, Nürnbergerstr. 7","91052","Erlangen"
"McDonald's","Hugenottenplatz 1","91054","Erlangen"
"McDonald's","Gewerbepark Schoenthal 1","91287","Plech"
"McDonald's","Im Gewerbepark 2","91093","Heßdorf"
"McDonald's","Dr.-Seeling-Str. 11-17","92637","Weiden"
"McDonald's","Karl-Eibl-Str. 41","91413","Neustadt a.d. Aisch"
"McDonald's","Max-Reger-Str. 7","92637","Weiden"
"McDonald's","Neue Amberger Str. 109","92655","Grafenwöhr"
"McDonald's","Daimler Str. 24","91301","Forchheim"
"McDonald's","Erlanger Str. 15 (Obi)","91315","Höchstadt a.d. Aisch"
"McDonald's","Industriestr. 17","96114","Hirschaid"
"McDonald's","Scheinfelder Str. 14","96160","Geiselwind"
"McDonald's","Nürnberger Str. 245","96050","Bamberg"
"McDonald's","Hohenzollernring 58","95444","Bayreuth"
"McDonald's","Bahnhofstr. 20","95444","Bayreuth"
"McDonald's","Max-Eyth-Str. 14","97980","Bad Mergentheim"
"McDonald's","Ludwigstr. 6 (Hauptbahnhof)","96052","Bamberg"
"McDonald's","Sophian-Kolb-Str. 16","95448","Bayreuth"
"McDonald's","Marktbreiter Str. 54","97199","Ochsenfurt-Kleinochsenfurt"
"McDonald's","Emil-Kemmer-Str. 21","96103","Hallstadt"
"McDonald's","Ludwig-Erhard-Str. 6","95666","Mitterteich"
"McDonald's","Repperndorfer Str. 11","97318","Kitzingen"
"McDonald's","Böttgerstr. 9","95615","Marktredwitz"
"McDonald's","Kulmbacher Str. 5a","95502","Himmelkron"
"McDonald's","Mergentheimer Str. 10","97941","Tauberbischofsheim"
"McDonald's","Mergentheimer Str. 31","97082","Würzburg"
"McDonald's","Faulenbergstr. 1","97076","Würzburg"
"McDonald's","Nürnberger Str. 12 (Real)","97076","Würzburg"
"McDonald's","Saalfelder Str. 4","95326","Kulmbach"
"McDonald's","Marktplatz 15","97070","Würzburg"
"McDonald's","Bahnhofplatz 4","97070","Würzburg"
"McDonald's","In der Au 3","96224","Burgkunstadt"
"McDonald's","Am Sterzelbach 11","97437","Haßfurt"
"McDonald's","Bamberger Str. 98","96215","Lichtenfels"
"McDonald's","Professor-Fritz-Klee-Str. 67","95100","Selb"
"McDonald's","August-Horch-Str. 10","95213","Münchberg"
"McDonald's","Robert-Bosch-Str. 3","97424","Schweinfurt"
"McDonald's","Almosenberg","97877","Wertheim am Main"
"McDonald's","Am Eschenbach 3","97440","Werneck"
"McDonald's","Schrammstr. 4 (Stadtgalerie, Ece)","97421","Schweinfurt"
"McDonald's","Niederwerrner Str. 93","97421","Schweinfurt-Musikerviertel"
"McDonald's","Im Gries 3","96364","Marktrodach"
"McDonald's","Neustadter Str. 9c","96450","Coburg"
"McDonald's","Würzburger Str. 1","97753","Karlstadt"
"McDonald's","Ossecker Str. 177","95030","Hof"
"McDonald's","Mühlweg 2","96465","Neustadt"
"McDonald's","Würzburger Str. 8","97688","Bad Kissingen"
"McDonald's","Jahnstr. 87","97816","Lohr am Main"
"McDonald's","Industriestr. 17","97616","Bad Neustadt a.d. Saale"
"McDonald's","Kurhausstr. 1","98553","Schleusingen"
"McDonald's","Leipziger Str. 110","98617","Meiningen"
"McDonald's","Industriestr. 1","98544","Zella-Mehlis"
"McDonald's","Auf dem Mittelfeld 8","98693","Ilmenau"
"McDonald's","Am Schwimmbad 9","98574","Schmalkalden"
"McDonald's","Alfred-Ley-Str. 6a","99310","Arnstadt"
"McDonald's","an der BAB 4 Eichelborn Nord","99198","Eichelborn"
"McDonald's","Berkaer Str.","99423","Weimar"
"McDonald's","Dr.-Troch-Str. 4","99867","Gotha (OT Ülleben)"
"McDonald's","Hermsdorfer Straße 4","99091","Erfurt"
"McDonald's","Willy-Brandt-Platz 12 (Hauptbahnhof)","99084","Erfurt"
"McDonald's","Weimarische Str. 18 A","99099","Erfurt"
"McDonald's","Schopenhauerstr. 2 (Hauptbahnhof)","99423","Weimar"
"McDonald's","Anger 9","99084","Erfurt"
"McDonald's","Gewerbestr.","99880","Laucha"
"McDonald's","Salinenstr. 56","99086","Erfurt"
"McDonald's","Demminer Str.","99091","Erfurt"
"McDonald's","Am Weimarer Berg","99510","Apolda"
"McDonald's","Kasseler Str.","99817","Eisenach"
"McDonald's","Ammersche Landstr. 146","99974","Mühlhausen"
"McDonald's","Im Krug 1","99734","Nordhausen"
"Burger King","Tank- und Rastanlage Vogtland Süd, A72","08606","Taltitz"
"Burger King","Oskar-Arnold-Straße 15","08056","Zwickau"
"Burger King","Keplerstr. 1a","07549","Gera"
"Burger King","Rasthaus Teufelstal-Süd, Teufelstalweg 9, A4","07646","Mörsdorf"
"Burger King","Heinrichstr. 30","07545","Gera"
"Burger King","Waldenburger Str. 116, A4","08371","Glauchau"
"Burger King","Südring 20","09116","Chemnitz"
"Burger King","Bahnhofstr. 1","09111","Chemnitz"
"Burger King","Haydnstr. 6","09247","Röhrsdorf bei Chemnitz"
"Burger King","Thomas-Mann-Platz 1 b","09130","Chemnitz -  Sachsen-Allee Chemnitz"
"Burger King","Käthe-Kollwitz-Str.","06667","Weißenfels"
"Burger King","Raststätte Dresdner Tor Süd A 4","01723","Wilsdruff"
"Burger King","Wiener Platz 4","01069","Dresden"
"Burger King","Prager Str. 15","01069","Dresden"
"Burger King","Karl-Liebknecht-Str. 24","04107","Leipzig"
"Burger King","Merseburger Str. 263","04430","Leipzig"
"Burger King","Merseburger Str. 263","04178","Leipzig-Rückmarsdorf"
"Burger King","Markt 4","04109","Leipzig"
"Burger King","Schlesischer Platz 1","01097","Dresden"
"Burger King","Willy-Brandt-Platz 5","04109","Leipzig-Zentrum-Ost"
"Burger King","Leipziger Str. 115","01127","Dresden"
"Burger King","Peschelstraße 33","01139","Dresden"
"Burger King","Permoserstr. 33","04328","Leipzig"
"Burger King","Poststr. 1","04158","Leipzig"
"Burger King","Am Fiebig 1a","01561","Thiendorf"
"Burger King","Raststätte Köckern West A 9","06749","Köckern"
"Burger King","BAR Plötzetal-West A14","06420","Könnern"
"Burger King","Nordstr. 1","06420","Könnern"
"Burger King","Güstener Str. 10","06449","Aschersleben"
"Burger King","Sachsendorfer Str. 1a","03058","Groß Gaglow"
"Burger King","Am Seegraben 1a","03051","Cottbus"
"Burger King","Raststätte Buckautal Nord A2","14793","Ziesar"
"Burger King","Im Gewerbegebiet 2","14778","Wollin bei Brandenburg"
"Burger King","Rudolf-Moos-Str. 11","14482","Potsdam"
"Burger King","Chaussestr. 1","15745","Wildau"
"Burger King","Elly-Beinhorn-Ring 2","12529","Schönefeld"
"Burger King","Kronprinzessinnenweg 120","14129","Berlin"
"Burger King","Nahmitzer Damm 12","12277","Berlin"
"Burger King","Flughafen Schönefeld","12251","Berlin"
"Burger King","Ostpreussendamm 60","12207","Berlin"
"Burger King","Flughafen Schönefeld","12527","Berlin"
"Burger King","Reisseckstr. 6","12107","Berlin"
"Burger King","Johannisthaler Chaussee 295 - 327","12351","Berlin"
"Burger King","Buckower Damm 11","12349","Berlin"
"Burger King","Werkstr. 2","15890","Eisenhüttenstadt"
"Burger King","General-Pape-Str. 1","12101","Berlin"
"Burger King","Papestr.","10829","Berlin"
"Burger King","Silbersteinstr. 54","12051","Berlin"
"Burger King","Michael-Brückner-Str. 24","12439","Berlin"
"Burger King","Tempelhofer Damm 28-30","12101","Berlin"
"Burger King","Karl-Marx-Str. 100","12043","Berlin"
"Burger King","Potsdamer Str. 114","10785","Berlin"
"Burger King","Joachimstaler Str. 1-3","10623","Berlin"
"Burger King","Wilmersdorfer Str. 129","10627","Berlin"
"Burger King","Charlottenburger Chaussee 51-55","13597","Berlin"
"Burger King","Alt-Treptow 14-17","12435","Berlin"
"Burger King","Straße-des-17.Juni 100","10557","Berlin"
"Burger King","Carl-Schurz-Str. 37","13597","Berlin"
"Burger King","Friedrichstr.","10178","Berlin"
"Burger King","Paulsternstraße 16","13629","Berlin"
"Burger King","Friedrichstr.","10117","Berlin"
"Burger King","Holzmarktstr. 4","10179","Berlin"
"Burger King","Invalidenstraße 53","10557","Berlin"
"Burger King","Grunerstraße 20","10178","Berlin"
"Burger King","Frankfurter Allee 44","10247","Berlin"
"Burger King","Saatwinkler Damm 61-64","13627","Berlin"
"Burger King","Müllerstr. 153","13353","Berlin-Wedding"
"Burger King","Landsberger Allee 119","10407","Berlin"
"Burger King","Alt-Mahlsdorf 23","12623","Berlin"
"Burger King","Flughafen Tegel","13405","Berlin"
"Burger King","Allee Center 277","13055","Berlin"
"Burger King","Landsberger Allee 277","13055","Berlin"
"Burger King","Schönhauser Allee Arcaden Schönhauser Allee 80","10439","BERLIN"
"Burger King","Holzhauser Str. 31-33","13509","Berlin"
"Burger King","Frankfurter Chaussee 66","15370","Fredersdorf-Vogelsdorf"
"Burger King","Marzahner Promenade 1A","12679","Berlin-Marzahn"
"Burger King","Prerower Platz 1","13051","Berlin"
"Burger King","Landsberger Chaussee 15","16356","Ahrensfelde-Eiche"
"Burger King","Oraniendamm 6-10","13469","Berlin"
"Burger King","Bahnhofplatz 11","15230","Frankfurt a.d. Oder"
"Burger King","Berliner Straße 45","16761","Henningsdorf"
"Burger King","Landgrabenpark 1","16303","Schwedt/Oder"
"Burger King","Friedrich-Engels-Str. 1","19061","Schwerin"
"Burger King","Stargarder Str. 10","17033","Neubrandenburg"
"Burger King","Juri-Gagarin-Ring 1","17036","Neubrandenburg"
"Burger King","Am Eicheneck 7","18273","Güstrow"
"Burger King","Timmermannsstrat 1","18055","Rostock"
"Burger King","Universitätsplatz 7","18055","Rostock"
"Burger King","An der Stadtautobahn 69","18107","Rostock"
"Burger King","Rigaer Str. 5","18107","Rostock"
"Burger King","Koitenhäger Landstr. 20","17491","Greifswald"
"Burger King","Greifswalder Chaussee 120","18439","Stralsund"
"Burger King","Ringstr. 140","18528","Bergen/Rügen"
"Burger King","Gerhard-Kamm-Straße 1","29227","Celle"
"Burger King","Telefunkenstr. 49","29223","Celle"
"Burger King","Raststätte Allertal-Ost, BAB7","29690","Essel an der Aller"
"Burger King","Raststätte Allertal-West BAB7","29690","Essel an der Aller"
"Burger King","Robert-Koch-Str. 1","29683","Bad Fallingbostel"
"Burger King","Soltauer Str. 6","29633","Munster"
"Burger King","Gottlieb-Daimler-Str. 2a","29614","Soltau"
"Burger King","Rasthaus Brunautal West 1","29646","Bispingen"
"Burger King","Auf den Blöcken 4","21337","Lüneburg"
"Burger King","Burgstraße 7","27356","Rotenburg"
"Burger King","Hunteweg 10","27801","Dötlingen"
"Burger King","Everinghauser Straße 200","27367","Sottrum"
"Burger King","Europaallee 1-3","28309","Bremen"
"Burger King","Oyterdamm 74","28876","Oyten"
"Burger King","Bremer Str. 117a","28816","Brinkum-Stuhr"
"Burger King","Borgwardstr. 3","21365","Adendorf"
"Burger King","Pfalzburger Str. 67","28207","Bremen"
"Burger King","Weser-Ems-Str. 1","28816","Stuhr-Groß-Mackenstedt"
"Burger King","Kirchhuchtinger Landstr. 6","28259","Bremen"
"Burger King","Bahnhofsplatz 15","28195","Bremen"
"Burger King","Wittekindstr. 10","27749","Delmenhorst"
"Burger King","Osttangente 191","21423","Winsen"
"Burger King","Hansestr. 3","27419","Sittensen"
"Burger King","Wennerstorfer Weg 47","21279","Hollenstedt"
"Burger King","Cloppenburger Str. 300","26133","Oldenburg"
"Burger King","Stader Str. 302","21075","Hamburg"
"Burger King","Lange Str. 89","26122","Oldenburg"
"Burger King","Lange Str. 89","26121","Oldenburg"
"Burger King","Raststätte Gudow Nord A24","23899","Gudow"
"Burger King","Prinzessinweg 2","26122","Oldenburg"
"Burger King","Reinbeker Redder 2","21031","Hamburg"
"Burger King","Andreas-Meyer-Str. 64","22113","Hamburg"
"Burger King","Billstedter Platz 8b","22111","Hamburg"
"Burger King","Eiffestr. 64","20537","Hamburg"
"Burger King","Steindamm 20","20099","Hamburg"
"Burger King","Reeperbahn 75","20359","Hamburg"
"Burger King","Hahnenkamp 1","22765","Hamburg"
"Burger King","Kieler Straße 222","22525","Hamburg"
"Burger King","Osdorfer Landstr. 25","22607","Hamburg"
"Burger King","Julius-Brecht-Str. 6","22609","Hamburg"
"Burger King","Berner Heerweg 173-175","22159","Hamburg"
"Burger King","Steilshooper Allee 55","22309","Hamburg"
"Burger King","Bramfelder Chaussee 366","22177","Hamburg"
"Burger King","Alsterkrugchaussee 333","22297","Hamburg"
"Burger King","Rissener Str. 108","22880","Wedel"
"Burger King","Raststätte Buddikate Ost","22965","Todendorf"
"Burger King","Langenhorner Chaussee 471","22419","Hamburg"
"Burger King","Am Lohberg 1","21684","Stade"
"Burger King","Berliner Allee 38 - 44a","22850","Norderstedt- Garstedt"
"Burger King","Peiner Hag 1","25497","Prisdorf"
"Burger King","Lise-Meitner-Allee 1","25436","Tornesch"
"Burger King","Schiffdorfer Chaussee 129-133","27574","Bremerhaven"
"Burger King","Obere Bürger 61","27568","Bremerhaven"
"Burger King","Werner-von-Siemens-Str. 3","25337","Elmshorn"
"Burger King","Pferdebade 6","27580","Bremerhaven"
"Burger King","Rudolf-Diesel-Str.","24558","Henstedt-Ulzburg"
"Burger King","Bei der Lohmühle 7a","23554","Lübeck"
"Burger King","Leher-Landstr. 100","27607","Langen bei Bremerhaven"
"Burger King","Ernst-Barlach-Str. 2","26389","Wilhelmshaven"
"Burger King","Altonaer Str. 1","24576","Bad Bramstedt"
"Burger King","Vor dem Delftor 8","25524","Itzehoe"
"Burger King","Emderstr. 19","26603","Aurich"
"Burger King","Raststätte Brokenlande- Ost, Apothekerholz 3","24623","Brokenlande"
"Burger King","Grodener Chaussee 56","27472","Cuxhaven"
"Burger King","Wasbeker Str. 348","24537","Neumünster"
"Burger King","Rendsburger Str. 22","24534","Neumünster"
"Burger King","Raststätte Aalbek West A7","24537","Neumünster"
"Burger King","Bahnhofstr. 14b","26506","Norden"
"Burger King","Klausdorfer Str. 38-42","24223","Schwentinental"
"Burger King","Vogelweide 6b","25746","Heide"
"Burger King","Sophienblatt 20","24103","Kiel"
"Burger King","Sophienblatt 20","24109","Kiel"
"Burger King","Eckernförder Str. 284","24119","Kronshagen"
"Burger King","Friedrichstädter Str. 47","24768","Rendsburg"
"Burger King","Rendsburger Str. 124","24340","Eckernförde"
"Burger King","Wittgenstein 9","24866","Busdorf bei Schleswig"
"Burger King","Siemensstr. 55","25813","Husum"
"Burger King","Lise-Meitner-Str. 33","24941","Flensburg"
"Burger King","Autohof Scandinavianpark","24983","Flensburg-Handewitt"
"Burger King","Nordstr. 300","24943","Flensburg"
"Burger King","Rastanlage Uttrichshausen Ost","36148","Kalbach"
"Burger King","Dipperzer Str. 1","36100","Petersberg"
"Burger King","Kothenbachweg 2-4","36041","Fulda"
"Burger King","Raststätte Grossenmoor-West","36151","Burghaun"
"Burger King","Umgehungsstr. 47","36341","Lauterbach"
"Burger King","A5, Raststätte Rimberg Nord","36287","Breitenbach"
"Burger King","Griedeler Str. 58 - 60","35510","Butzbach"
"Burger King","Hauptstr. 1","36275","Kirchheim"
"Burger King","Gottesrain 2","35325","Mücke-Atzenhain"
"Burger King","Robert-Bosch-Str. 1","35440","Linden"
"Burger King","Schiffenberger Weg 115","35394","Gießen"
"Burger King","Am Forum 1","35576","Wetzlar"
"Burger King","Dr.-Reimer-Str. 2","34323","Malsfeld"
"Burger King","Afföllerstr. 63","35039","Marburg"
"Burger King","Im breiten Boden 1","35745","Herborn"
"Burger King","Giessener Str. 83","34560","Fritzlar"
"Burger King","Bergshäuserstr. 50","34253","Lohfelden"
"Burger King","Leipziger Str. 194","34123","Kassel"
"Burger King","Knorrstr. 28","34134","Kassel-Niederzwehren"
"Burger King","Druseltalstr. 3","34131","Kassel"
"Burger King","Bahnhofsplatz 1","34117","Kassel"
"Burger King","Rasthaus Göttingen-West, A7","37124","Rosdorf"
"Burger King","Am Kauf Park 5","37081","Göttingen"
"Burger King","Im Bahnhof Göttingen, Bahnhofsplatz 1","37073","Göttingen"
"Burger King","An der Lutter 22","37075","Göttingen-Weende"
"Burger King","Otto-Hahn-Str. 8","34466","Wolfhagen"
"Burger King","Industriestr. 1a","34414","Warburg"
"Burger King","Westerlange 1, Autohof an der A7/B3","37154","Northeim"
"Burger King","Bredelarer Str. 49","34431","Marsberg"
"Burger King","Carl-Zeiss-Str. 1","38644","Goslar"
"Burger King","Albaxer Str. 65","37671","Höxter"
"Burger King","Salbker Chaussee 81","39118","Magdeburg"
"Burger King","Warburger Str. 105","33098","Paderborn"
"Burger King","Detmolder Str. 48","33100","Paderborn"
"Burger King","Neuer Sülzeweg 101","39128","Magdeburg"
"Burger King","Theodor-Heuss-Str. 61","38228","Salzgitter"
"Burger King","Raststätte Hildesheimer Börde West A7","31174","Schellerten"
"Burger King","Rasthaus Lappwald, A2","38350","Helmstedt"
"Burger King","Raststätte Helmstedt Süd BAB2","38350","Helmstedt"
"Burger King","Berliner Platz 1","38102","Braunschweig"
"Burger King","Mastbergstr. 3","31137","Hildesheim"
"Burger King","Münchenstr. 12","38118","Braunschweig"
"Burger King","Steinweg 1","38100","Braunschweig"
"Burger King","Ernst-Hilker-Str. 19","32758","Detmold"
"Burger King","Zinngießer Str. 1","31789","Hameln"
"Burger King","ECE Stadt-Galerie Hameln","31785","Hameln"
"Burger King","In den Lohbalken 1","38165","Lehre-Wendhausen"
"Burger King","Hansestr. 86","38112","Braunschweig"
"Burger King","Bielefelder Str. 107","33378","Rheda-Wiedenbrück"
"Burger King","BAR Gütersloh Südseite, Brockweg 300","33334","Gütersloh"
"Burger King","Heinrich-Hertz Str. 27","31228","Peine"
"Burger King","BAR Gütersloh Nordseite, Brockweg 300","33334","Gütersloh"
"Burger King","Detmolder Str. 314","33605","Bielefeld"
"Burger King","Heinrich-Nordhoff-Str. 115","38440","Wolfsburg"
"Burger King","Hildesheimer Str. 424","30519","Hannover"
"Burger King","Röntgenstr. 1","32052","Herford"
"Burger King","Eckendorfer Str. 16","33609","Bielefeld"
"Burger King","BAB 2 Auetal Nord","31749","Auetal-Nord"
"Burger King","Eyßelheideweg 1","38518","Gifhorn"
"Burger King","Hanomagstr. 2","31867","Lauenau"
"Burger King","Ernst-August-Platz 1","30159","Hannover"
"Burger King","Georgstr. 13","30159","Hannover"
"Burger King","Füllenbruchstr. 50","32051","Herford"
"Burger King","Rendsburgerstr. 2","30659","Hannover"
"Burger King","Vahrenwalder Str. 194","30165","Hannover"
"Burger King","Mindener Str. 28","32547","Bad Oeynhausen"
"Burger King","Arneburger Str. 32","39576","Stendal"
"Burger King","Bremer Str. 50a","30826","Garbsen"
"Burger King","Am Autohof 17","32257","Bünde"
"Burger King","Ringstr. 111","32427","Minden"
"Burger King","Gehlenbeckerstr. 2 f","32312","Lübbecke"
"Burger King","Berliner Ring 81","31582","Nienburg"
"Burger King","Neuenkamper Str. 37","42855","Remscheid"
"Burger King","Lichtendorfer Str. 138","58239","Schwerte"
"Burger King","Obere Lichtenplatzer Str. 302","42287","Wuppertal"
"Burger King","Kronprinzenstr. 10","42655","Solingen"
"Burger King","Kronprinzstr. 62","40764","Langenfeld"
"Burger King","Alter Markt 1","42275","Wuppertal"
"Burger King","Aue 34-36","42103","Wuppertal"
"Burger King","Landstr. 62","42781","Haan"
"Burger King","Konrad-Zuse-Str. 2","40789","Monheim"
"Burger King","Ohligser Heide 3","42697","Solingen"
"Burger King","Hörder Bahnhofstr. 8-14","44263","Dortmund"
"Burger King","Ostenhellweg 3","44135","Dortmund"
"Burger King","Westenhellweg 102-106","44137","Dortmund"
"Burger King","Brunnenstr. 79","44145","Dortmund"
"Burger King","Borussiastr. 150","44149","Dortmund"
"Burger King","Kreisstr. 18","45525","Hattingen"
"Burger King","Heiligenhauserstr. 81","42549","Velbert"
"Burger King","Dortmunder Str. 59","44536","Lünen"
"Burger King","Erkrather Str. 207","40233","Düsseldorf"
"Burger King","Castroper Hellweg 113","44805","Bochum"
"Burger King","Worringer Str. 142","40210","Düsseldorf"
"Burger King","Südring 115","40221","Düsseldorf"
"Burger King","Hunsrückenstr. 33","40213","Düsseldorf"
"Burger King","Dückerweg 21","44866","Bochum"
"Burger King","Dorstener Str. 420","44809","Bochum"
"Burger King","Kaiserswerther Str. 84","40880","Ratingen"
"Burger King","Kaiserswerther Str. 84","40878","Ratingen"
"Burger King","Habinghorster Str. 349","44579","Castrop-Rauxel"
"Burger King","Heerdter Landstr. 255","40549","Düsseldorf"
"Burger King","Rotthauser Str. 128","45884","Gelsenkirchen"
"Burger King","Kettwiger Straße 56","45127","Essen"
"Burger King","Helmut-Käutner-Str. 2","45127","Essen"
"Burger King","Grothusstr. 10","45881","Gelsenkirchen"
"Burger King","Gladbecker Str. 421-423","45329","Essen"
"Burger King","Dordrechtring 42","45657","Recklinghausen"
"Burger King","Aktienstr. 42","45359","Essen-Schönebeck"
"Burger King","Willy-Brandt-Allee 54","45891","Gelsenkirchen"
"Burger King","Brauckstr. 160","45892","Gelsenkirchen"
"Burger King","Duvenstr. 345","41236","Mönchengladbach"
"Burger King","Hauptstr. 520","47809","Krefeld"
"Burger King","Krefelder Str. 300","41066","Mönchengladbach"
"Burger King","Centroallee 1","46047","Oberhausen"
"Burger King","Mülheimer Str. 27","46049","Oberhausen"
"Burger King","Hans-Sachs-Str. 2","46236","Bottrop"
"Burger King","Waldnieler Str. 239","41068","Mönchengladbach"
"Burger King","Gladbacher Str. 407","47805","Krefeld"
"Burger King","Westfalenstr. 128","48165","Münster"
"Burger King","Bahnhofstr. 84","46145","Oberhausen"
"Burger King","Hanielstr. 31","46242","Bottrop"
"Burger King","Duisburger Str. 238","47166","Duisburg"
"Burger King","Weseler Str. 212-216","48151","Münster"
"Burger King","Bohlweg 70 - 72","48147","Münster"
"Burger King","Düsseldorfer Straße 2","47918","Tönisvorst"
"Burger King","Am Rohrbusch 50","48161","Münster"
"Burger King","Klever Str. 31","47441","Moers"
"Burger King","Steinfurter Str. 113-115","48149","Münster"
"Burger King","Borkener Str. 44","46284","Dorsten"
"Burger King","Neutorplatz 14","46535","Dinslaken"
"Burger King","Gerhard-Malina-Str. 1b","46537","Dinslaken"
"Burger King","Oststr. 26","47475","Kamp-Lintfort"
"Burger King","Hannoversche Str. 74","49084","Osnabrück"
"Burger King","Möserstr. 51","49074","Osnabrück"
"Burger King","Lengerich Teutopark","49525","Lengerich"
"Burger King","Pagenstecherstr. 50 A","49090","Osnabrück"
"Burger King","Dülmener Str. 24 - 26","48653","Coesfeld"
"Burger King","Reeser Landstr.","46483","Wesel"
"Burger King","Freybergweg 2","46483","Wesel am Rhein"
"Burger King","Grevener Damm 165","48282","Emsdetten"
"Burger King","Münster Straße 212","49479","Ibbenbüren"
"Burger King","Feldstr. 99/B9","47623","Kevelaer"
"Burger King","Im Königsesch 4","46395","Bocholt"
"Burger King","Hörster Heide 2","49434","Neuenkirchen-Voerden"
"Burger King","Wüllener Str. 64","48683","Ahaus"
"Burger King","Neuenkirchener Str. 140","48431","Rheine"
"Burger King","Ovelgönne 20","49356","Diepholz"
"Burger King","Wahlder Str. 10","49451","Holdorf"
"Burger King","Von-Siemens-Str. 1","49393","Lohne"
"Burger King","Riswicker Str. 89","47533","Kleve"
"Burger King","Osloer Straße 1","49377","Vechta"
"Burger King","Schillerstr. 2","49811","Lingen"
"Burger King","Lingener Str. 97","48531","Nordhorn"
"Burger King","Emsteker Str. 39-41","49661","Cloppenburg"
"Burger King","Raststätte Ems-Vechte West","49835","Wietmarschen"
"Burger King","Karl-Heinz-Kipp-Str. 40","55232","Alzey"
"Burger King","Haifa-Allee 10","55128","Mainz"
"Burger King","Große Bleiche 26","55116","Mainz"
"Burger King","Am Mombacher Kreisel 1","55120","Mainz"
"Burger King","Raststätte Heidenfahrt Nord, A60","55262","Heidesheim am Rhein"
"Burger King","Industriestr. 39","55543","Bad Kreuznach"
"Burger King","Am Kieselberg 38","55457","Gensingen"
"Burger King","Am Bahnhof 4","55494","Rheinböllen"
"Burger King","Nahbollenbacherstr. 132","55743","Idar-Oberstein"
"Burger King","An der Kreisstraße","55483","Lautzenhausen"
"Burger King","Raststätte Heiligenroth, A3","56412","Heiligenroth"
"Burger King","Druschelbitzchen 1","56412","Heiligenroth"
"Burger King","Obere Illbach 1","56412","Montabaur-Heiligenroth"
"Burger King","Im Triesch 1, Industriegebiet Triesch, A3","56427","Siershahn"
"Burger King","Hohenfelder Str. 22","56068","Koblenz"
"Burger King","Carl Zeiss Str. 10","56070","Koblenz am Rhein"
"Burger King","Elkersberg 2","57234","Wilnsdorf"
"Burger King","Graf-Heinrich-Str. 33","57627","Hachenburg"
"Burger King","Heddesdorfer Str. 9-13","56564","Neuwied"
"Burger King","Raststätte Urbacher Wald-BAB 3","56307","Dernbach"
"Burger King","Koblenzer Str. 53-55","56626","Andernach"
"Burger King","Koblenzer Str. 174","56727","Mayen"
"Burger King","Wallhausenstr. 40","57072","Siegen"
"Burger King","Bismarckstr. 12","57076","Siegen-Weidenau"
"Burger King","Fabrikstr. 3-5, Alleencenter","54290","Trier"
"Burger King","Raststätte Siegerland-Ost","57258","Freudenberg"
"Burger King","Zurmaiener Str. 146","54292","Trier"
"Burger King","Rasthausstr. 10","53577","Neustadt/Wied"
"Burger King","Sassmicker Hammer 39","57462","Olpe"
"Burger King","Heerstr. 113","53474","Bad Neuenahr-Ahrweiler"
"Burger King","Saarstr. 41","54634","Bitburg"
"Burger King","Frankfurter Str. 182","53773","Hennef"
"Burger King","Jägerweg 0, BAR Siegburg-Ost, A3","53721","Siegburg"
"Burger King","Einsteinstr. 29","53757","Sankt Augustin"
"Burger King","Eulenbach 1","53359","Rheinbach"
"Burger King","Basketsring 2","53123","Bonn"
"Burger King","Bornheimer Str. 232","53119","Bonn"
"Burger King","Raststätte Peppenhoven-West A 61","53359","Rheinbach"
"Burger King","Heinkelstr. 6","53844","Troisdorf"
"Burger King","Carl-Benz-Str. 1","53332","Bornheim"
"Burger King","Plantage 57, A3 Richtung Frankfurt","51503","Rösrath"
"Burger King","Hüstener Str. 7","59821","Arnsberg"
"Burger King","Kölner Str. 150","58509","Lüdenscheid"
"Burger King","Alfred-Nobel-Str. 1","53879","Euskirchen"
"Burger King","Flughafen Köln/Bonn, Terminal 1, Waldstr","51147","Köln"
"Burger King","Am Verteilerkreis West","50968","Köln"
"Burger King","Overweg 33, B475","59494","Soest"
"Burger King","Frankfurter Str. 200","51065","Köln"
"Burger King","Am Eifeltor 1","50997","Köln"
"Burger King","Bergisch Gladbacher Str. 417-419","51067","Köln"
"Burger King","Rastanlage Ville-Ost, BAB1","50354","Hürth"
"Burger King","Dortmunder Str. 110","58638","Iserlohn"
"Burger King","Schildergasse 114","50667","Köln"
"Burger King","Trankgasse 11","50667","Köln"
"Burger King","Hohenzollernring 38-40","50672","Köln"
"Burger King","Carl-Benz-Str. 2","58706","Menden"
"Burger King","Hornpottweg 1","51375","Leverkusen"
"Burger King","Ehrenfeldgürtel 1","50823","Köln"
"Burger King","Kölner Str. 213","50226","Frechen"
"Burger King","BAR Frechen-Süd, A4 Aachen-Köln","50226","Frechen"
"Burger King","Aachener Str. 1253","50858","Köln"
"Burger King","Hammer Str. 77","59457","Werl"
"Burger King","An der Fuchskuhl 2","51379","Leverkusen"
"Burger King","Preusser Str. 4","58135","Hagen"
"Burger King","Venloer Str. 1379","50829","Köln"
"Burger King","Spenrather Weg 5","50829","Köln"
"Burger King","Sindorferstraße 30","50171","Kerpen"
"Burger King","Herdecker Str. 16","58089","Hagen"
"Burger King","Im Zengerott 3","59069","Hamm"
"Burger King","Ostendorfstr. 62","59069","Hamm"
"Burger King","Unnaer Str. 83","59174","Kamen"
"Burger King","Nordstr. 174","52353","Düren"
"Burger King","Dortmunder Str. 52","58455","Witten"
"Burger King","In der Geist 110a","59302","Oelde"
"Burger King","Münsterstr. 11","59065","Hamm"
"Burger King","Dortmunder Str. 114","59067","Hamm"
"Burger King","Raststätte Bedburger Land West A61","50181","Bedburg"
"Burger King","Rue de Wattrelos 3","52249","Eschweiler"
"Burger King","Gut-Dämme-Str. 10-12","52070","Aachen"
"Burger King","Karl-Arnold-Str. 99","52525","Heinsberg"
"Burger King","Am Schwimmbad 30","69168","Wiesloch"
"Burger King","Rasthof Hardtwald-West, BAB5","69207","Sandhausen"
"Burger King","Speyerer Str. 10","69124","Heidelberg"
"Burger King","Speyerer Str. 10","69115","Heidelberg"
"Burger King","Willy-Brandt-Platz","69115","Heidelberg"
"Burger King","Raststätte Am Hockenheimring-Ost","68766","Hockenheim"
"Burger King","Margot-Bruch-Ring 2","68753","Waghäusel"
"Burger King","Ketscherstr. 3","68766","Hockenheim"
"Burger King","Zündholzstr. 1","68723","Schwetzingen"
"Burger King","Bergstr. 7-2","69469","Weinheim"
"Burger King","Würzburger Str. 188 b","63743","Aschaffenburg"
"Burger King","Iggelsheimer Str. 32","67346","Speyer"
"Burger King","Heidelberger Str. 21","68519","Viernheim"
"Burger King","Neckarauer Str. 126","68199","Mannheim"
"Burger King","Hanauer Str. 56","63739","Aschaffenburg"
"Burger King","Dannstadt-Ost, A61","67105","Schifferstadt"
"Burger King","Tiergartenstr. 9a","64646","Heppenheim"
"Burger King","Bruchwiesenstr. 305","67059","Ludwigshafen am Rhein"
"Burger King","An der Riedwiese 1","64625","Bensheim"
"Burger King","Raststätte Lorsch-West BAB 67","64653","Lorsch"
"Burger King","Dannstadt-West, A 61","67125","Dannstadt"
"Burger King","Frankfurter Str. 63","64807","Dieburg"
"Burger King","Wormser Str. 91","67227","Frankenthal"
"Burger King","Le Quartier Hornbach  25","67433","Neustadt an der Weinstraße"
"Burger King","Werner-von-Siemens-Str. 2","64319","Pfungstadt"
"Burger King","An der Westspange 1","63571","Gelnhausen"
"Burger King","Bahnhofstr. 7 - 11","67547","Worms"
"Burger King","Kasinostr. 90","64283","Darmstadt"
"Burger King","Raststätte Weiskirchen-Süd, an der A3","63110","Rodgau-Weiskirchen"
"Burger King","Mainzerstr. 140 B9","67547","Worms"
"Burger King","Elisabeth-Selbert-Str. 2","63128","Dietzenbach"
"Burger King","Daimlerstr. 22","67269","Grünstadt"
"Burger King","Raststätte Gräfenhausen West, Erzhäuserweg 49","64331","Weiterstadt"
"Burger King","Maintaler Str. 22","63452","Hanau"
"Burger King","Waldstr. 260","63071","Offenbach"
"Burger King","An Der Saline 16","63654","Buedingen"
"Burger King","Mühlheimer Str. 105","63075","Offenbach"
"Burger King","Helvetiastr. 1","64521","Groß-Gerau"
"Burger King","Hanauer Landstr. 437","60314","Frankfurt/Main"
"Burger King","Borsigallee 26","60388","Frankfurt am Main"
"Burger King","Flughafen, Terminal 2, Bistro 24","60549","Frankfurt/Main"
"Burger King","Kapitän-Lehmann-Str.","60549","Frankfurt/Main"
"Burger King","Liebfrauenstr. 1-3","60313","Frankfurt/Main"
"Burger King","Im Hauptbahnhof 1","60329","Frankfurt Am Main"
"Burger King","Im Hauptbahnhof Querbahnsteig Bei Gleis 12","60329","Frankfurt"
"Burger King","Mainzer Landstr. 405","60326","Frankfurt/Main"
"Burger King","Alzeyerstr. 9, B43","65428","Rüsselsheim"
"Burger King","In der Grobach 9","61197","Florstadt"
"Burger King","Bahnhofstr. 190","61184","Karben"
"Burger King","Europaallee 6","67657","Kaiserslautern"
"Burger King","Marktstr. 18","67655","Kaiserslautern"
"Burger King","Homburger Landstr. 63-71","61440","Oberursel"
"Burger King","Zeilweg 1","61440","Oberursel"
"Burger King","Zweibrücker Str. 136","66954","Pirmasens"
"Burger King","Pariser Str. 208","67663","Kaiserslautern"
"Burger King","Raiffeisenstr. 1-3","61191","Rosbach vor der Höhe"
"Burger King","Mainzer Str. 127","65187","Wiesbaden"
"Burger King","Äppelallee 37","65203","Wiesbaden"
"Burger King","Raststätte Wetterau-West, BAB 5","61239","Ober-Mörlen"
"Burger King","In dem Wat 2","66877","Ramstein"
"Burger King","Gottlieb-Daimler-Str. 22","66482","Zweibrücken"
"Burger King","Wiesbadener Str. 71","65510","Idstein"
"Burger King","Zweibrücker Str. 67","66424","Homburg"
"Burger King","Raststätte Camberg, A3 Köln - Frankfurt","65520","Bad Camberg"
"Burger King","Südstr. 79","66386","St. Ingbert"
"Burger King","Stummplatz 1","66538","Neunkirchen"
"Burger King","Bahnhofstr. 52","66538","Neunkirchen"
"Burger King","Am Römerkastell 12","66121","Saarbrücken"
"Burger King","August-Balthasar-Straße 4","66606","Sankt Wendel"
"Burger King","Bahnhofsplatz 1","65549","Limburg"
"Burger King","Gottlieb-Daimler-Straße 5","65614","Beselich"
"Burger King","Kleiner Markt 1","66740","Saarlouis"
"Burger King","Wallerfangerstr. 47","66740","Saarlouis"
"Burger King","Rieffstr. 2a","66663","Merzig"
"Burger King","Fackelbrückenstr. 1","73430","Aalen"
"Burger King","Max-Eyth-Str. 1","73479","Ellwangen"
"Burger King","Grube-Karl-Str. 10","73312","Geislingen"
"Burger King","Lorcher Straße 141","73529","Schwäbisch-Gmünd"
"Burger King","Stuttgarter Str. 186","73054","Eislingen an der Fils"
"Burger King","Stuttgarter Str. 82","73033","Göppingen"
"Burger King","Schlierbacher Str. 69","73230","Kirchheim unter Teck"
"Burger King","Esslinger Str. 2","73779","Deizisau"
"Burger King","Karlstr. 5","72764","Reutlingen"
"Burger King","Föhrstr. 4","72760","Reutlingen"
"Burger King","Bahnhofstr. 1","73728","Esslingen"
"Burger King","Düsseldorferstr. 8","71332","Waiblingen"
"Burger King","Düsseldorfer Str. 8","71332","Waiblingen"
"Burger King","Otto-Hirsch-Brücken 21","70329","Stuttgart-Hedelfingen"
"Burger King","Echterdinger Str. 102","70794","Filderstadt-Bernhausen"
"Burger King","Flughafen Stuttgart, Terminal 1, Ebene 4","70629","Stuttgart-Flughafen"
"Burger King","Reichenaustr. 204","78467","Konstanz"
"Burger King","Ehestetter Weg 22","72458","Albstadt"
"Burger King","Waiblinger Str. 14-18","70372","Stuttgart"
"Burger King","Hauptbahnhof Stuttgart","70173","Stuttgart"
"Burger King","Marienplatz 6","70178","Stuttgart"
"Burger King","Europaplatz 17","72072","Tübingen"
"Burger King","Industriestr. 58","70565","Stuttgart-Vaihingen"
"Burger King","Austr. 16","74613","Öhringen"
"Burger King","Stettener Halde 9","72379","Hechingen"
"Burger King","Meßkircherstr. 42","78333","Stockach"
"Burger King","Schwieberdingerstr. 42-44","71636","Ludwigsburg"
"Burger King","Rasthaus Wunnenstein-West, BAB 81","74360","Ilsfeld"
"Burger King","Eschenbrünnlestr. 2","71065","Sindelfingen"
"Burger King","Porschestr. 1c","71636","Ludwigsburg"
"Burger King","Rasthaus Wunnenstein-Ost, BAB 81","74360","Ilsfeld"
"Burger King","Königsberger Str. 14a","71034","Böblingen"
"Burger King","Rastanlage Sindelfinger Wald A 8 / A 81","71069","Sindelfingen"
"Burger King","Stuttgarter Str. 12","74074","Heilbronn"
"Burger King","Neckarsulmer Str. 36-38","74076","Heilbronn"
"Burger King","Max-Planck-Str. 7","78532","Tuttlingen"
"Burger King","Georg-Fischer-Str. 31","78224","Singen"
"Burger King","Stuttgarter Str. 131","71665","Vaihingen/Enz"
"Burger King","Robert-Bosch-Str. 25","72186","Empfingen"
"Burger King","Tuttlinger Str. 65","78628","Rottweil"
"Burger King","Wihelm-Hauff-Str. 54","74906","Bad Rappenau"
"Burger King","Raststätte Pforzheim-Ost, Bergstr. 105-1","75223","Niefern-Öschelbronn"
"Burger King","Neckarstr. 9","78727","Oberndorf a. Neckerar"
"Burger King","Bergstr. 105","75223","Niefern"
"Burger King","Neckarelzerstr. 43","74821","Mosbach"
"Burger King","Dürrheimer Str. 55","78054","Villingen-Schwenningen"
"Burger King","Bahnhofplatz 1","75175","Pforzheim"
"Burger King","Neuer Markt 18","78052","Villingen-Schwenningen"
"Burger King","In der Au 23","74889","Sinsheim"
"Burger King","Kammerforststr. 3","76646","Bruchsal"
"Burger King","Bruchsal West, A5","76694","Forst bei Bruchsal"
"Burger King","Raststätte Alsbach-West, A5","64665","Alsbach"
"Burger King","Kaiserstr. 64","76133","Karlsruhe"
"Burger King","Durmersheimer Str. 145a","76189","Karlsruhe"
"Burger King","Boschstr. 2","76185","Karlsruhe"
"Burger King","Robert-Gerwig-Str. 7","79761","Waldshut-Tiengen"
"Burger King","Karlsruher Str. 16","76437","Rastatt"
"Burger King","Fridolin-Stiegler-Str. 13c","77815","Bühl"
"Burger King","Münchner Str. 10","76726","Germersheim"
"Burger King","Heinrich-Hertz-Str. 2A","77654","Offenburg"
"Burger King","Tullastraße 75","79108","Freiburg im Breisgau"
"Burger King","Hainbachstr. 86","76829","Landau"
"Burger King","Rasthaus Mahlberg-West, A5","77927","Mahlberg"
"Burger King","Hauptstr. 203","77966","Kappel-Grafenhausen"
"Burger King","Breisgauallee 5","79336","Herbolzheim"
"Burger King","BAR Breisgau-Ost, An der A5","79227","Schallstadt"
"Burger King","Schildgasse 33a","79618","Rheinfelden"
"Burger King","Wiesentalstr. 68","79539","Lörrach"
"Burger King","Lustgartenstr. 5","79576","Weil am Rhein"
"Burger King","Tal 10","80331","München"
"Burger King","Sonnenstr. 6","80331","München"
"Burger King","HBF","80335","München"
"Burger King","Bayerstr. 10A","80335","München"
"Burger King","Bahnhofplatz 2","80335","München"
"Burger King","Einsteinstr. 130","81675","München"
"Burger King","Orleansplatz 10","81667","München"
"Burger King","Friedenstr. 17 a","81671","München"
"Burger King","Giesinger Bahnhofplatz 8","81539","München"
"Burger King","Chiemgaustr. 214","81549","München"
"Burger King","Eggenfeldener Str. 114","81929","München"
"Burger King","Triebstr. 44","80993","München"
"Burger King","Wasserburger Landstr. 4","81825","München"
"Burger King","Pollingerstr. 2","81377","München"
"Burger King","Dachauer Str. 515","80993","München"
"Burger King","Landsberger Str. 422","81241","München"
"Burger King","Bodenseestr. 319","81249","München"
"Burger King","Raststätte Vaterstetten-Ost BAB 99","85622","Feldkirchen"
"Burger King","Gaußstraße 2","85221","Dachau"
"Burger King","Münchner Straße 43","85354","Freising"
"Burger King","Schmiedstr. 16","83607","Holzkirchen"
"Burger King","Johann-Auer-Str. 3","85435","Erding"
"Burger King","Autobahnraststätte Holzkirchen-Süd, Schmiedstr. 16","83607","Holzkirchen"
"Burger King","Oberthann 8a","85301","Schweitenkirchen"
"Burger King","Wendling 11","83737","Irschenberg"
"Burger King","Sachsenkamerstr. 29","83646","Bad Tölz"
"Burger King","Laimeringer Str. 5","86453","Dasing"
"Burger King","Münchener Str. 44","83022","Rosenheim"
"Burger King","Augsburger Str. 59","86899","Landsberg am Lech"
"Burger King","Kurt-Schumacher-Str. 4","86165","Augsburg"
"Burger King","Maximilianstr. 17","86150","Augsburg"
"Burger King","Gabelsbergerstr. 7","86199","Augsburg"
"Burger King","A-Ost, Mühlhauser Str. 51b","86169","Augsburg"
"Burger King","Am Mercedesring 2a","86368","Gersthofen"
"Burger King","Rasthaus Holledau-West, an der BAB 9","85301","Geisenhausen"
"Burger King","Siemensstr. 11","84030","Landshut"
"Burger King","Eriagstr. 5","85053","Ingolstadt"
"Burger King","Theodor-Scanne-Str. 4","83233","Bernau"
"Burger King","Römerstr. 49","85055","Ingolstadt"
"Burger King","Mainstr. 1","84453","Mühldorf am Inn"
"Burger King","Mindelheimer Str. 1","86842","Türkheim"
"Burger King","Raststätte Inntal-West, A93","83088","Kiefersfelden"
"Burger King","Bavaria Ring 1","87600","Kaufbeuren"
"Burger King","Bahnhofstr. 31","82467","Garmisch-Partenkirchen"
"Burger King","Münchenerstr. 102","82467","Garmisch-Partenkirchen"
"Burger King","Raststätte Hochfelln Nord, BAB A8","83346","Bergen"
"Burger King","Römerstr. 2a","84130","Dingolfing"
"Burger King","Neurieder Weg 30 - 32","86609","Donauwörth"
"Burger King","Siemensstr. 1","89343","Jettingen-Scheppach"
"Burger King","Wilhelm-Maybach-Str. 3","89312","Günzburg"
"Burger King","Weissenbachstr. 2","87730","Bad Grönenbach"
"Burger King","7-Schwaben-Rasthaus","89340","Leipheim"
"Burger King","Dr. Lauter Str. 5","87700","Memmingen"
"Burger King","Lattenbergstr. 13","83451","Piding"
"Burger King","Raststätte Lonetal-Ost BAB 7","89537","Giengen"
"Burger King","Borsigstr. 16","89231","Neu-Ulm"
"Burger King","Autohof Seligweiler, A8 AS Ulm-Ost","89081","Ulm"
"Burger King","Bahnhofsplatz 1","89073","Ulm"
"Burger King","Blaubeurer Str. 17","89077","Ulm"
"Burger King","Wilhelmstr. 134","89518","Heidenheim an der Brenz"
"Burger King","Hubertus-Liebrecht-Str. 46","88400","Biberach an der Riß"
"Burger King","Raststätte Aichen, A8, München-Stuttgart","89191","Nellingen"
"Burger King","Siemensstr. 1","88239","Wangen"
"Burger King","Ettishofer Str. 6","88250","Weingarten"
"Burger King","Meistershofener Str. 14","88045","Friedrichshafen"
"Burger King","Otterswanger Str. 7/10","88630","Pfullendorf"
"Burger King","Bahnhofstr. 18","93047","Regensburg"
"Burger King","Gleiwitzer Str. 10","93073","Neutraubling"
"Burger King","Max-Planck-Str. 8","93055","Regensburg"
"Burger King","Ittlinger Str. 154","94315","Straubing"
"Burger King","An der Autobahn K 2","91161","Hilpoltstein"
"Burger King","Sindersdorf 1","91161","Hilpoltstein"
"Burger King","Ingolstädter Str. 92","92318","Neumarkt in der Oberpfalz"
"Burger King","Graflingerstr. 151","94469","Deggendorf"
"Burger King","Karl-Schiller-Str. 16","92348","Berg bei Neumarkt i.d.Opf."
"Burger King","Gewerbestr. 2","91126","Schwabach"
"Burger King","Rastanlage Nürnberg Feucht-Ost, an der BAB 9","90537","Feucht"
"Burger King","Mittelweg 18","93413","Cham"
"Burger King","Neuburgerstr. 133 A","94036","Passau"
"Burger King","Zollhausstr. 14","90469","Nürnberg"
"Burger King","Regensburger Str. 110","92224","Amberg"
"Burger King","Weißenburgerstr. 150","90451","Nürnberg"
"Burger King","Regensburger Str. 336","90480","Nürnberg"
"Burger King","Am Eichelberg 2","91567","Herrieden"
"Burger King","Am Tillypark 1","90431","Nürnberg"
"Burger King","Residenzstr. 2-10","91522","Ansbach"
"Burger King","Bahnhofsplatz 9 (Hauptbahnhof)","90443","Nürnberg"
"Burger King","Raststätte Frankenhöhe Nord A6 Nürnberg-Heilbronn","91589","Aurach"
"Burger King","Königstr. 72","90402","Nürnberg"
"Burger King","Rothenburger Str. 18","90513","Zirndorf"
"Burger King","Sigmundstr. 184-186","90431","Nürnberg"
"Burger King","Schwabacher Str. 298","90763","Fürth"
"Burger King","Staffelsteinerstr. 1","90425","Nürnberg"
"Burger King","Bastenauer Str. 8","91637","Wörnitz"
"Burger King","Schwarzleite 4","91220","Schnaittach"
"Burger King","Günther-Scharowsky-Str. 2a","91058","Erlangen"
"Burger King","Günther-Scharowsky-Str. 2a","91054","Erlangen"
"Burger King","Hauptstr. 12","91054","Erlangen"
"Burger King","Ansbacher Str. 38","91541","Rothenburg ob der Tauber"
"Burger King","Doktor-Seeling-Str. 16","92637","Weiden in der Oberpfalz"
"Burger King","Neustädter Str. 54","91456","Diespeck bei Neustadt / Aisch"
"Burger King","Türlgasse 1","92637","Weiden"
"Burger King","Bayreuther Str. 8","91301","Forchheim"
"Burger King","Rastpark Fränkische Schweiz-West, A9 Berlin-Nürnberg","91257","Pegnitz"
"Burger King","Rastpark Fränkische Schweiz-Ost, A9 Nürnberg-Berlin","91257","Pegnitz"
"Burger King","Gewerbepark 4","91350","Gremsdorf"
"Burger King","Raststätte Steigerwald Nord BAB3 Nürnberg-Frankfurt","96193","Wachenroth"
"Burger King","Attelsdorf 19","96132","Schluesselfeld"
"Burger King","Scheinfelder Str. 19","96160","Geiselwind"
"Burger King","Von-Ketteler-Str. 4","96050","Bamberg"
"Burger King","Hohenzollernring 58","95444","Bayreuth"
"Burger King","Theodor-Schmidt-Str. 18","95448","Bayreuth"
"Burger King","Gewerbepark 2a","96149","Breitengüssbach"
"Burger King","Hofer Str. 4  B 303","95502","Himmelkron"
"Burger King","Mainfrankenpark 20","97337","Dettelbach"
"Burger King","Kopenhagener Str. 100","97084","Würzburg"
"Burger King","Nürnberger Str. 1","97076","Würzburg"
"Burger King","Godelstatt 2","97437","Haßfurt"
"Burger King","Raststätte Riedener Wald Ost A 7","97262","Hausen"
"Burger King","August-Horch-Str. 18","95213","Münchberg"
"Burger King","Straßburg Str. 3","97424","Schweinfurt"
"Burger King","Blättleinsäcker 1","97877","Wertheim am Main"
"Burger King","Willi-Kaidel-Str. 7","97424","Schweinfurt"
"Burger King","Ernst-Reuter-Str. 16","95028","Hof"
"Burger King","Ernst-Reuter-Str. 61","95032","Hof(Saale)"
"Burger King","Niorter Str. 2","96450","Coburg"
"Burger King","An der BAB 3","63110","Rodgau"
"Burger King","Am Hohen Rain 3","95180","Berg"
"Burger King","Aralallee 2","99441","Mellingen"
"Burger King","Rasthof Thüringer Tor, Südseite","99869","Schwabhausen/Gotha"
"Burger King","WEIMARISCHE str. 35","99099","ERFURT"
"Burger King","Anger 61","99084","Erfurt"
"Burger King","Mühlhäuser Str. 110","99817","Eisenach"
"Burger King","Rasthof Eisenach an der BAB 4","99819","Krauthausen"
"Burger King","Gebrüder-Franke-Str. 1","99974","Mühlhausen"
"SUBWAY Restaurant","Klosterstr. 6","08233","Plauen"
"SUBWAY Restaurant","Äußere Reichenbacher Str. 64","08529","Plauen"
"SUBWAY Restaurant","Mittlerer Ring 6","08233","Treuen"
"SUBWAY Restaurant","Oskar-Arnold-Str. 2","08056","Zwickau"
"SUBWAY Restaurant","Innere Plauensche Str. 14 (Zwickau Arcaden)","08056","Zwickau"
"SUBWAY Restaurant","Poetenweg 4","08056","Zwickau"
"SUBWAY Restaurant","Autohof Stadtroda","07646","Quirla"
"SUBWAY Restaurant","Gaswerkstr. 2","07546","Gera"
"SUBWAY Restaurant","Gute Borner Allee 1c","08393","Meerane"
"SUBWAY Restaurant","Westbahnhofstraße 13","07745","Jena"
"SUBWAY Restaurant","Leutragraben 1","07743","Jena"
"SUBWAY Restaurant","Zwickauer Str. 81","09112","Chemnitz"
"SUBWAY Restaurant","Am Rathaus 1","09111","Chemnitz"
"SUBWAY Restaurant","Bahnhofstr. 1","09111","Chemnitz"
"SUBWAY Restaurant","Thomas-Mann-Platz 1","09130","Chemnitz-Hilbersdorf"
"SUBWAY Restaurant","Ringstr. 3c","09247","Chemnitz"
"SUBWAY Restaurant","Chemnitzer Straße 133","09599","Freiberg"
"SUBWAY Restaurant","Untermarkt 22","09599","Freiberg"
"SUBWAY Restaurant","Bahnhofstr. 26","04552","Borna"
"SUBWAY Restaurant","Am Marktwege 2","06667","Leißling"
"SUBWAY Restaurant","Wallgraben 1","04668","Grimma"
"SUBWAY Restaurant","Gartenstraße 1","01796","Pirna"
"SUBWAY Restaurant","Reisewitzer Straße 13","01159","Dresden"
"SUBWAY Restaurant","Ludwigsburger Straße 9","04209","Leipzig"
"SUBWAY Restaurant","Karl-Liebknecht-Str. 128","04275","Leipzig"
"SUBWAY Restaurant","Wiener Platz 4","01069","Dresden"
"SUBWAY Restaurant","Könneritzstraße 46","04229","Leipzig"
"SUBWAY Restaurant","Am Einkaufszentrum 1","06254","Günthersdorf"
"SUBWAY Restaurant","König-Heinrich-Str. 2","06217","Merseburg"
"SUBWAY Restaurant","Pfarrgasse 1","01067","Dresden"
"SUBWAY Restaurant","St. Petersburg Str. 26-32","01069","Dresden"
"SUBWAY Restaurant","Karl-Liebknecht-Straße 8","04107","Leipzig"
"SUBWAY Restaurant","Oststraße 2","04317","Leipzig"
"SUBWAY Restaurant","Merseburger Str. 200","04179","Leipzig"
"SUBWAY Restaurant","Neumarkt 9-19","04109","Leipzig"
"SUBWAY Restaurant","Friedrich-Ebert-Straße 95 a","04109","Leipzig"
"SUBWAY Restaurant","Alaunstraße 1","01099","Dresden"
"SUBWAY Restaurant","Willi Brandt Platz 5","04109","Leipzig"
"SUBWAY Restaurant","Loschwitzer Straße 47","01309","Dresden"
"SUBWAY Restaurant","Königsbrücker Straße 60","01099","Dresden"
"SUBWAY Restaurant","Hauptstr. 8","01445","Radebeul"
"SUBWAY Restaurant","Leipziger Straße 102","04425","Taucha"
"SUBWAY Restaurant","Nossener Str. 50","01589","Riesa"
"SUBWAY Restaurant","Bahnhofsplatz 1","06112","Halle (Saale)"
"SUBWAY Restaurant","Neustädter Passage 17 D","06122","Halle"
"SUBWAY Restaurant","Markt 11","06108","Halle"
"SUBWAY Restaurant","Torgauer Straße 41","04838","Eilenburg"
"SUBWAY Restaurant","Freistraße 22","06295","Lutherstadt Eisleben"
"SUBWAY Restaurant","Eilenburger Str. 21","04509","Delitzsch"
"SUBWAY Restaurant","Leipziger Str. 36c","06366","Köthen"
"SUBWAY Restaurant","Gernröder Weg 6","06484","Quedlinburg"
"SUBWAY Restaurant","Zerbster Straße 30","06844","Dessau"
"SUBWAY Restaurant","Magdeburger Str. 34","06862","Rosslau"
"SUBWAY Restaurant","Dessauer Str. 3-4","06886","Lutherstadt Wittenberg"
"SUBWAY Restaurant","Karl-Liebknechtstraße 37/39","14974","Ludwigsfelde"
"SUBWAY Restaurant","Bahnhofstr.1","15711","Königs Wusterhausen"
"SUBWAY Restaurant","Babelsberger Straße 16","14473","Potsdam"
"SUBWAY Restaurant","Tempelhofer Hafen Center/ Tempelhofer Damm 227","12099","Berlin"
"SUBWAY Restaurant","Rudower Chaussee 12","12489","Berlin-Adlershof"
"SUBWAY Restaurant","Rheinstr. 66","12159","Berlin"
"SUBWAY Restaurant","Kurfürstendamm 180","10707","Berlin"
"SUBWAY Restaurant","Joachimstaler Str. 10-12","10719","Berlin"
"SUBWAY Restaurant","Seegefelder Str. 1","13597","Berlin"
"SUBWAY Restaurant","Alte Potsdamer Str. 7","10785","Berlin"
"SUBWAY Restaurant","Ebertstraße 2","10117","Berlin"
"SUBWAY Restaurant","Behrenstr.47 /Friedrichstrasse","10117","Berlin- Mitte"
"SUBWAY Restaurant","Nonnendammallee 119-123","13629","Berlin"
"SUBWAY Restaurant","Spandauer Str.3","10178","Berlin"
"SUBWAY Restaurant","Grunerstr. 20","10179","Berlin-Mitte"
"SUBWAY Restaurant","Panoramastr. 1","10178","Berlin"
"SUBWAY Restaurant","Friedrichstraße 114","10117","Berlin"
"SUBWAY Restaurant","Frankfurter Allee 41","10247","Berlin - Friedrichshain"
"SUBWAY Restaurant","Frankfurter Allee 113 (Ringcenter)","10365","Berlin"
"SUBWAY Restaurant","Chauseestraße 22","10115","Berlin"
"SUBWAY Restaurant","Badstr.4","13357","Berlin, Gesundbrunnencenter"
"SUBWAY Restaurant","Schönhauser Allee 86","10439","Berlin"
"SUBWAY Restaurant","Hallen am Borsigturm","13507","Berlin"
"SUBWAY Restaurant","Marzahner Promenade 1A","12679","Berlin-Marzahn"
"SUBWAY Restaurant","Gorkistraße 11-22","13507","Berlin"
"SUBWAY Restaurant","Prerower Platz 1","13051","Berlin"
"SUBWAY Restaurant","Logenstraße 8","15230","Frankfurt/Oder"
"SUBWAY Restaurant","Herrenseeallee","15344","Strausberg"
"SUBWAY Restaurant","Schulstr. 3","16515","Oranienburg"
"SUBWAY Restaurant","Platz der Befreiung 1","16303","Schwedt/Oder"
"SUBWAY Restaurant","Blumenbrink 64","19061","Schwerin"
"SUBWAY Restaurant","Lübecker Str. 5","19053","Schwerin"
"SUBWAY Restaurant","Grunthalplatz 3-4","19053","Schwerin"
"SUBWAY Restaurant","Gewerbestr. 1","17126","Jarmen"
"SUBWAY Restaurant","Doberaner Str. 10-12","18057","Rostock"
"SUBWAY Restaurant","Breite Str. 12 - 15","18055","Rostock"
"SUBWAY Restaurant","Hansestr. 37","18182","Bentwisch"
"SUBWAY Restaurant","Schuhhagen 28","17489","Greifswald"
"SUBWAY Restaurant","Neuer Markt 6","18439","Stralsund"
"SUBWAY Restaurant","Seestraße 71","18374","Zingst"
"SUBWAY Restaurant","Hehlentorstr. 14","29221","Celle"
"SUBWAY Restaurant","Buchenallee 4","29410","Salzwedel"
"SUBWAY Restaurant","Veestherrnweg 12","29633","Munster"
"SUBWAY Restaurant","Barrierstr. 46B","28857","Syke"
"SUBWAY Restaurant","Margarethe-Steiff-Allee 7","28832","Achim"
"SUBWAY Restaurant","Handelsweg 5","28844","Weyhe"
"SUBWAY Restaurant","Hans-Bredow Str. 9","28307","Bremen"
"SUBWAY Restaurant","Bremerstraße 106","28816","Stuhr"
"SUBWAY Restaurant","3-K-Weg 25","28816","Stuhr"
"SUBWAY Restaurant","Langemarckstraße 195","28199","Bremen"
"SUBWAY Restaurant","Hasporter Damm 110-114","27749","Delmenhorst"
"SUBWAY Restaurant","Pieperstraße 8","28195","Bremen"
"SUBWAY Restaurant","Bahnhofsplatz 15","28195","Bremen"
"SUBWAY Restaurant","Konsul-Smidt-Str. 8 m","28217","Bremen"
"SUBWAY Restaurant","AG-Weser-Str. 3","28237","Bremen"
"SUBWAY Restaurant","Von-Somnitz-Ring 13","21423","Winsen/Luhe"
"SUBWAY Restaurant","Neue Straße 17","21244","Buchholz"
"SUBWAY Restaurant","Schragerstr. 4","28239","Bremen"
"SUBWAY Restaurant","Hannoversche Str. 86","21079","Hamburg-Harburg"
"SUBWAY Restaurant","Billstedter Platz","22111","Hamburg"
"SUBWAY Restaurant","Hammerbrookstraße 92-94","20097","Hamburg"
"SUBWAY Restaurant","Ballindamm 38","20095","Hamburg"
"SUBWAY Restaurant","Glockengiesserwall 8 - 10","20095","Hamburg"
"SUBWAY Restaurant","Gaensemarkt 36","20354","Hamburg"
"SUBWAY Restaurant","Paul-Nevermann-Platz 15/16","22765","Hamburg"
"SUBWAY Restaurant","Mundsburger Damm 61","22087","Hamburg"
"SUBWAY Restaurant","Hoheluftchaussee 28","20253","Hamburg"
"SUBWAY Restaurant","Kieler Straße 561","22525","Hamburg"
"SUBWAY Restaurant","Heegbarg 2","22391","Hamburg-Poppenbüttel"
"SUBWAY Restaurant","Ulzburger Straße 332b","22846","Norderstedt"
"SUBWAY Restaurant","Wismarsche Straße 152b","23936","Grevesmühlen"
"SUBWAY Restaurant","Eutiner Ring 12","23611","Bad Schwartau"
"SUBWAY Restaurant","Holstenstr. 1-2","24103","Kiel"
"SUBWAY Restaurant","Alter Markt 7","24103","Kiel"
"SUBWAY Restaurant","Neustadt 74","25813","Husum"
"SUBWAY Restaurant","Andreas-Clausen-Str. 2","25813","Husum"
"SUBWAY Restaurant","Süderhofenden 14","24937","Flensburg"
"SUBWAY Restaurant","Duburger Str. 65","24939","Flensburg"
"SUBWAY Restaurant","Am Rhönhof 2","36124","Eichenzell"
"SUBWAY Restaurant","Frankfurter Str. 63","36043","Fulda"
"SUBWAY Restaurant","Griedeler Straße 76","35510","Butzbach"
"SUBWAY Restaurant","Linggplatz 7","36251","Bad Hersfeld"
"SUBWAY Restaurant","Industriestr. 12","36275","Kirchheim"
"SUBWAY Restaurant","An der Au 10","36304","Alsfeld"
"SUBWAY Restaurant","Bahnhofstr. 92","35390","Giessen"
"SUBWAY Restaurant","Schulstr. 1","35390","Giessen"
"SUBWAY Restaurant","Neustadt 28","35390","Gießen"
"SUBWAY Restaurant","Philipp-Reis-Str. 2","35398","Gießen"
"SUBWAY Restaurant","Karl-Kellner-Ring 42","35576","Wetlar"
"SUBWAY Restaurant","Am Forum 1","35576","Wetzlar"
"SUBWAY Restaurant","Niederhoner Straße 17-21","37269","Eschwege"
"SUBWAY Restaurant","Lahntor 5","35037","Marburg"
"SUBWAY Restaurant","Universitätsstr. 14 - 22","35037","Marburg"
"SUBWAY Restaurant","Afföller Straße 98","35039","Marburg"
"SUBWAY Restaurant","Bahnhofstr. 1","37327","Leinefelde- Worbis"
"SUBWAY Restaurant","Ruhrstr. 4","35066","Frankenberg (Eder)"
"SUBWAY Restaurant","Untere Königsstr. 71","34117","Kassel-Mitte"
"SUBWAY Restaurant","Mauerstr. 11","34117","Kassel-Mitte"
"SUBWAY Restaurant","Burgstraße 12","37073","Göttingen"
"SUBWAY Restaurant","Berliner Str. 10","37073","Göttingen"
"SUBWAY Restaurant","An der Lutter 22","37077","Göttingen"
"SUBWAY Restaurant","Briloner Str. 35","34497","Korbach"
"SUBWAY Restaurant","Hoher Weg 14a","38820","Halberstadt"
"SUBWAY Restaurant","Im Schleeke 112","38640","Goslar"
"SUBWAY Restaurant","Halberstädter Straße 123","39112","Magdeburg"
"SUBWAY Restaurant","Einsteinstraße 1","39104","Magdeburg"
"SUBWAY Restaurant","Große Diesdorfer Str. 209","39108","Magdeburg"
"SUBWAY Restaurant","Berliner Chaussee 48","39114","Magdeburg"
"SUBWAY Restaurant","Bahnhofstr. 69","39104","Magdeburg"
"SUBWAY Restaurant","Lübecker Str. 130f","39124","Magdeburg"
"SUBWAY Restaurant","Detmolder Straße 55a","33100","Paderborn"
"SUBWAY Restaurant","Ziolkowskistr. 11","39126","Magdeburg"
"SUBWAY Restaurant","Kommissstr. 9","38300","Wolfenbüttel"
"SUBWAY Restaurant","Markt 27","39288","Burg (Bei Magdeburg)"
"SUBWAY Restaurant","J.-G.-Nathusius-Straße 28 A","39340","Haldensleben"
"SUBWAY Restaurant","Hoher Weg 16 a","31137","Hildesheim"
"SUBWAY Restaurant","Drispenstedter Str. 8","31137","Hildesheim"
"SUBWAY Restaurant","Berliner Platz 1d","38100","Braunschweig"
"SUBWAY Restaurant","Pferdemarkt 1","31785","Hameln"
"SUBWAY Restaurant","Brandgehaege 3b","38444","Wolfsburg"
"SUBWAY Restaurant","Detmolder Str. 480","33605","Bielefeld"
"SUBWAY Restaurant","Porschestr. 21a","38440","Wolfsburg"
"SUBWAY Restaurant","Eckendorfer Straße 70","33609","Bielefeld"
"SUBWAY Restaurant","Am Bahnhof 1a","33602","Bielefeld"
"SUBWAY Restaurant","An der Puderzuckermühle 1","31275","Lehrte"
"SUBWAY Restaurant","Buschhorstweg 7","39638","Gardelegen"
"SUBWAY Restaurant","Scheidestr. 9","30625","Hannover"
"SUBWAY Restaurant","Marienstr. 50","30171","Hannover"
"SUBWAY Restaurant","Georgsplatz 12","30159","Hannover"
"SUBWAY Restaurant","Berliner Allee 19/ Ecke Königstrasse","30175","Hannover"
"SUBWAY Restaurant","Wittekindstraße 22","32051","Herford"
"SUBWAY Restaurant","Schillerstraße 28","30159","Hannover"
"SUBWAY Restaurant","Karl-Wiechert-Allee 70-76","30625","Hannover"
"SUBWAY Restaurant","Podbielskistr. 344","30655","Hannover"
"SUBWAY Restaurant","Mindener Straße 115","32547","Bad Oeynhausen"
"SUBWAY Restaurant","Breslauer Straße 2-4","31655","Stadthagen"
"SUBWAY Restaurant","Breite Str. 32","39576","Stendal"
"SUBWAY Restaurant","Markt 16","32423","Minden"
"SUBWAY Restaurant","Ringstraße 49-51","32427","Minden"
"SUBWAY Restaurant","Am Autohof 9","32257","Bünde"
"SUBWAY Restaurant","Marktstr. 37","31535","Neustadt am Rübenberge"
"SUBWAY Restaurant","Hauptstrasse. 90","42651","Solingen"
"SUBWAY Restaurant","Rheindorfer Straße 48-56","40764","Langenfeld"
"SUBWAY Restaurant","Focher Str. 48","42719","Solingen"
"SUBWAY Restaurant","Friedrich-Engels-Allee 48","42285","Wuppertal"
"SUBWAY Restaurant","Friedrich-Ebert-Str. 131","42117","Wuppertal"
"SUBWAY Restaurant","Westfalendamm 287","44141","Dortmund"
"SUBWAY Restaurant","Hofstraße 1","40723","Hilden"
"SUBWAY Restaurant","Lübecker Straße 5-7","41540","Dormagen"
"SUBWAY Restaurant","Stockumer Str. 196","44225","Dortmund"
"SUBWAY Restaurant","Ostwall 2","44135","Dortmund"
"SUBWAY Restaurant","Petrikirchhof 7","44137","Dortmund"
"SUBWAY Restaurant","Christophstr. 59","40225","Düsseldorf - UNI"
"SUBWAY Restaurant","Wehrhahn 2A","40213","Düsseldorf"
"SUBWAY Restaurant","Neustr. 27 - Altstadt","40213","Düsseldorf"
"SUBWAY Restaurant","Duisburger Str. 4","40477","Düsseldorf"
"SUBWAY Restaurant","Breslauerstr. 2-4","41460","Neuss"
"SUBWAY Restaurant","Rüttenscheider Str. 143","45130","Essen"
"SUBWAY Restaurant","Am Hauptbahnhof 5","45127","Essen"
"SUBWAY Restaurant","Porscheplatz 51A","45127","Essen"
"SUBWAY Restaurant","Bahnhofstr. 74-76","45879","Gelsenkirchen-Altstadt"
"SUBWAY Restaurant","Berliner Platz 6-8","45127","Essen"
"SUBWAY Restaurant","Castroper Str. 122","45711","Datteln"
"SUBWAY Restaurant","Gladbeckerstr. 18","45141","Essen"
"SUBWAY Restaurant","Koelnerstraße 5","45481","Mülheim an der Ruhr"
"SUBWAY Restaurant","Castroper Str. 185","45665","Recklinghausen"
"SUBWAY Restaurant","Albert-Hahn-Str. 7","47269","Duisburg"
"SUBWAY Restaurant","Hertener Straße 96 ","45657","Recklinghausen"
"SUBWAY Restaurant","Heifeskamp 18","45475","Mülheim an der Ruhr"
"SUBWAY Restaurant","Adolf-Kempken-Weg","41189","Mönchengladbach"
"SUBWAY Restaurant","Aachener Str. 75","41812","Erkelenz"
"SUBWAY Restaurant","Springemarkt 2","45894","Gelsenkirchen"
"SUBWAY Restaurant","Korschenbroicher Str. 110","41065","Mönchengladbach"
"SUBWAY Restaurant","Friedrich-Karl-Straße 2","46045","Oberhausen"
"SUBWAY Restaurant","Centroallee 85","46047","Oberhausen"
"SUBWAY Restaurant","Dießemer Bruch 183","47805","Krefeld"
"SUBWAY Restaurant","Bahnhofstraße 80-84","46145","Oberhausen"
"SUBWAY Restaurant","Hülser Str. 386","47803","Krefeld"
"SUBWAY Restaurant","Weselerstr. 316","48163","Münster"
"SUBWAY Restaurant","Aegidiimarkt 6","48143","Münster"
"SUBWAY Restaurant","Windhorststr. 19","48143","Münster"
"SUBWAY Restaurant","Münsterstr. 106","48249","Dülmen"
"SUBWAY Restaurant","Hannoversche Straße 5-7","49084","Osnabrück"
"SUBWAY Restaurant","Neumarkt 10","49074","Osnabrück"
"SUBWAY Restaurant","Kurt-Schumacher-Damm 53-54","49078","Osnabrück"
"SUBWAY Restaurant","Pagenstecher Str. 74","49090","Osnabrück"
"SUBWAY Restaurant","Dülmener Straße 25a","48653","Coesfeld"
"SUBWAY Restaurant","Klosterstr. 18","48431","Rheine"
"SUBWAY Restaurant","Zum Hansa-Center 3 a","49451","Holdorf"
"SUBWAY Restaurant","Ochtruper Str. 157","48599","Gronau"
"SUBWAY Restaurant","Lindenstr. 13","49393","Lohne (Oldenburg)"
"SUBWAY Restaurant","Große Straße 34","49377","Vechta"
"SUBWAY Restaurant","Brücktor 3","47533","Kleve"
"SUBWAY Restaurant","Löninger Str. 1","49661","Cloppenburg"
"SUBWAY Restaurant","Nikolaus-Kopernikus-Str. 19","55129","Mainz"
"SUBWAY Restaurant","Holzhofstr. 5","55116","Mainz"
"SUBWAY Restaurant","Haifa Allee 1","55128","Mainz"
"SUBWAY Restaurant","Rheinallee 90a","55120","Mainz"
"SUBWAY Restaurant","Bosenheimer Straße 218","55543","Bad Kreuznach"
"SUBWAY Restaurant","In der Pützgewann 1","56218","Mülheim-Kärlich"
"SUBWAY Restaurant","Koblenzer Straße 39-41","56626","Andernach"
"SUBWAY Restaurant","Koblenzer Straße 181","56727","Mayen"
"SUBWAY Restaurant","In der Schlimmfuhren 2","54338","Schweich"
"SUBWAY Restaurant","Castelforte Straße 10","54292","Trier"
"SUBWAY Restaurant","Hauptmarkt 13","54290","Trier"
"SUBWAY Restaurant","Zehner Straße 40","53498","Bad Breisig"
"SUBWAY Restaurant","Otto-Flimm-Straße (Nürburgring)","53520","Nürburg"
"SUBWAY Restaurant","Brodenheckstraße 19","54634","Bitburg"
"SUBWAY Restaurant","Frankfurter Straße 51","53773","Hennef"
"SUBWAY Restaurant","Vollmerhauser Str. 45","51645","Gummersbach"
"SUBWAY Restaurant","Im Hauptbahnhof Europaplatz 3","53721","Siegburg"
"SUBWAY Restaurant","Maximilianstr. 24","53111","Bonn"
"SUBWAY Restaurant","Bertha-von-Suttner-Platz 12","53111","Bonn"
"SUBWAY Restaurant","Echternacher Str. 2","53842","Troisdorf"
"SUBWAY Restaurant","Kölner Straße 73","53879","Euskirchen"
"SUBWAY Restaurant","Erwitter Str. 111-113","59557","Lippstadt"
"SUBWAY Restaurant","Justinianstraße 16","50679","Köln"
"SUBWAY Restaurant","Bahnhof Messe/Deutz","50679","Köln"
"SUBWAY Restaurant","Schanzenstraße 22","51063","Köln"
"SUBWAY Restaurant","Heumarkt 55-57","50667","Köln"
"SUBWAY Restaurant","Weisshausstr. 27","50939","Köln"
"SUBWAY Restaurant","Hohe Straße 134 b","50667","Köln"
"SUBWAY Restaurant","Giesestraße 1","58636","Iserlohn"
"SUBWAY Restaurant","Hardenbergstr. 5","51373","Leverkusen"
"SUBWAY Restaurant","Kerpener Straße 154","50170","Kerpen"
"SUBWAY Restaurant","Marktstr. 13","58452","Witten"
"SUBWAY Restaurant","Gut-Dämme-Str. 10","52070","Aachen"
"SUBWAY Restaurant","Friedrich-Ebert-Str. 110","52531","Übach-Palenberg"
"SUBWAY Restaurant","Edisonstr. 2","69190","Walldorf"
"SUBWAY Restaurant","Hauptstraße 183","69117","Heidelberg"
"SUBWAY Restaurant","Neugasse 1","69117","Heidelberg"
"SUBWAY Restaurant","Ludwigstraße 77","69483","Wald-Michelbach"
"SUBWAY Restaurant","Handelsstr. 6/1","69214","Eppelheim"
"SUBWAY Restaurant","Gleisstraße 2","68766","Hockenheim"
"SUBWAY Restaurant","Wormser Landstr. 67A","67346","Speyer"
"SUBWAY Restaurant","Casterfeldstraße 44","68199","Mannheim"
"SUBWAY Restaurant","Ludwigstr.  2-4","63739","Aschaffenburg"
"SUBWAY Restaurant","Friedrich-Ebert-Str. 86-90","68167","Mannheim"
"SUBWAY Restaurant","Willy-Brand-Platz 5-7","68161","Mannheim"
"SUBWAY Restaurant","Stadthaus N1","68161","Mannheim"
"SUBWAY Restaurant","Berliner Platz 1","67059","Ludwigshafen am Rhein"
"SUBWAY Restaurant","Wormser Str. 107","67227","Frankenthal"
"SUBWAY Restaurant","Elisabethen Str. 21","64283","Darmstadt"
"SUBWAY Restaurant","Bahnhofstraße 32-34","67547","Worms"
"SUBWAY Restaurant","Hauptbahnhof 20","64293","Darmstadt"
"SUBWAY Restaurant","Am Steinheimer Tor 9","63450","Hanau"
"SUBWAY Restaurant","Mühlstr. 17-19","63450","Hanau"
"SUBWAY Restaurant","Römerstr. 31","63486","Bruchköbel"
"SUBWAY Restaurant","Frankfurter Str. 190 b","63263","Neu-Isenburg"
"SUBWAY Restaurant","Helvetia Str. 2","64521","Gross-Gerau"
"SUBWAY Restaurant","Borsigallee 26","60388","Frankfurt am Main"
"SUBWAY Restaurant","Arnsburger Str. 2","60385","Frankfurt am Main"
"SUBWAY Restaurant","Grosse Eschenheimer Str. 45","60313","Frankfurt am Main"
"SUBWAY Restaurant","Nibelungenplatz 3","60318","Frankfurt / Nordend"
"SUBWAY Restaurant","Leipziger Str. 1","60487","Frankfurt am Main"
"SUBWAY Restaurant","Main-Taunus-Zentrum null","65843","Sulzbach"
"SUBWAY Restaurant","Mainzerstr. 126","67657","Kaiserslautern"
"SUBWAY Restaurant","Guimaraes Platz 1","67655","Kaiserslautern"
"SUBWAY Restaurant","Arnulfstraße 70a","66954","Pirmasens"
"SUBWAY Restaurant","Hans-Mess-Straße 1","61440","Oberursel/Oberstedten"
"SUBWAY Restaurant","Merkurstr. 62-64","67663","Kaiserslautern"
"SUBWAY Restaurant","Strassheimer Str. 22","61169","Friedberg"
"SUBWAY Restaurant","Bahnhofsplatz 1","65189","Wiesbaden"
"SUBWAY Restaurant","Kirchgasse 6","65185","Wiesbaden"
"SUBWAY Restaurant","Langgasse 31","65183","Wiesbaden"
"SUBWAY Restaurant","Saarbrückerstr. 56","67742","Lauterecken"
"SUBWAY Restaurant","Talstraße 36","66424","Homburg"
"SUBWAY Restaurant","Kleinottweilerstr. 75","66450","Bexbach"
"SUBWAY Restaurant","Südstr. 73","66386","Sankt Ingbert"
"SUBWAY Restaurant","Stummplatz 1","66538","Neunkirchen"
"SUBWAY Restaurant","Brüsseler Str. 5","65552","Limburg-Süd"
"SUBWAY Restaurant","Eisenbahnstr. 2","66606","Sankt Wendel"
"Subway","Trierer Str. 1","66111","Saarbrücken"
"SUBWAY Restaurant","Saarbrücker Str. 28","66265","Heusweiler"
"SUBWAY Restaurant","Sonnenstr. 16","66740","Saarlouis"
"SUBWAY Restaurant","Haagstraße 53 A","66679","Losheim am See"
"SUBWAY Restaurant","Reichsstädter Straße 17","73430","Aalen"
"SUBWAY Restaurant","Stuttgarter Straße 51","72622","Nürtingen"
"SUBWAY Restaurant","Karlstraße 21","72764","Reutlingen"
"SUBWAY Restaurant","Ritterstr. 14","73728","Esslingen"
"SUBWAY Restaurant","Martinstraße 8","73728","Esslingen"
"SUBWAY Restaurant","Manfred-von-Ardenne-Allee 4","71522","Backnang"
"SUBWAY Restaurant","Neckarcenter, Weilstraße 227","73733","Esslingen"
"SUBWAY Restaurant","Westtangente 7","71332","Waiblingen"
"SUBWAY Restaurant","Kusterdingerstr. 2","72138","Kirchentellinsfurt"
"SUBWAY Restaurant","Ulmer Straße 2","70771","Leinfelden-Echterdingen"
"SUBWAY Restaurant","Kelley Baracks","70567","Stuttgart"
"SUBWAY Restaurant","König-Karl-Str. 54","70372","Stuttgart"
"SUBWAY Restaurant","Eberhardstraße 49","70173","Stuttgart"
"SUBWAY Restaurant","Rotebühlplatz 20a","70173","Stuttgart"
"SUBWAY Restaurant","Europaplatz 1-7","72072","Tübingen"
"SUBWAY Restaurant","Vaihinger Markt 31","70563","Stuttgart-Vaihingen"
"SUBWAY Restaurant","Wilhelmstr. 17","71638","Ludwigsburg"
"SUBWAY Restaurant","Patch Barracks","70569","Stuttgart-Vaihingen"
"SUBWAY Restaurant","Postplatz 1","71032","Böblingen"
"SUBWAY Restaurant","Gustav-Schwab-Straße 3","72336","Balingen"
"SUBWAY Restaurant","Am Marktplatz 2","74072","Heilbronn"
"SUBWAY Restaurant","Bahnhofstraße 30","74072","Heilbronn"
"SUBWAY Restaurant","Leibnizstraße 3/3","75364","Calw"
"SUBWAY Restaurant","Eythstr. 16a","72189","Vöhringen"
"SUBWAY Restaurant","Wilhelm-Hauff-Str. 43","74906","Bad Rappenau"
"SUBWAY Restaurant","Carl-Benz-Straße 3","74722","Buchen"
"Subway® Restaurant Bretten","Pforzheimer Straße 71","75015","Bretten"
"SUBWAY Restaurant","Kammerforststraße 15","76646","Bruchsal"
"SUBWAY Restaurant","Kronenplatz 1","76133","Karlsruhe"
"SUBWAY Restaurant","Bahnhofplatz 1a","76135","Karlsruhe"
"SUBWAY Restaurant","Robert-Gerwig-Str. 3","79761","Waldshut-Tiengen"
"SUBWAY Restaurant","Gewerbepark Cité 22","76532","Baden-Baden"
"SUBWAY Restaurant","Maximilianstr. 1","76744","Wörth"
"SUBWAY Restaurant","Mainzer Straße 6","76726","Germersheim"
"SUBWAY Restaurant","Lippersmatt 2","79725","Laufenburg (Baden)"
"SUBWAY Restaurant","Johannes-Kopp-Str.12","76829","Landau in der Pfalz"
"SUBWAY Restaurant","Adalbertstr. 10","80799","München"
"SUBWAY Restaurant","Schwanthaler Straße 5","80336","München"
"SUBWAY Restaurant","Arnulfstr. 8","80335","München"
"SUBWAY Restaurant","Bahnhofplatz 2","80335","München"
"SUBWAY Restaurant","Rosenheimer Str. 30","81669","München"
"SUBWAY Restaurant","Grillparzerstr. 27/29","81675","München"
"SUBWAY Restaurant","Orleansplatz 11","81667","München"
"SUBWAY Restaurant","Kapuzinerstr. 1","80337","München"
"SUBWAY Restaurant","Tegernseer Platz 1","81541","München"
"SUBWAY Restaurant","Wendel Dietrich Straße 21","80634","München"
"SUBWAY Restaurant","Margot-Kalinke-Straße 4","80939","München Schwabing-Freimann"
"SUBWAY Restaurant","Kreillerstr. 216","81825","München"
"SUBWAY Restaurant","Sauerbruchstr. 2","81377","München"
"SUBWAY Restaurant","Bodenseestraße 238","81249","München"
"SUBWAY Restaurant","Am Gangsteig 5","85551","Kirchheim-Heimstetten"
"SUBWAY Restaurant","Max-Planck-Str. 17","85716","Unterschleissheim"
"SUBWAY Restaurant","Münchnerstr. 37","85221","Dachau"
"SUBWAY Restaurant","Bahnhofplatz 4","82110","Germering"
"SUBWAY Restaurant","Bürgerstraße 2","85586","Poing"
"SUBWAY Restaurant","Bajuwarenstr. 5","85375","Neufahrn bei Freising"
"SUBWAY Restaurant","Münchner Straße 43","85354","Freising"
"SUBWAY Restaurant","Terminal 2","85356","München"
"SUBWAY Restaurant","Josef Neumeier Strasse","85664","Hohenlinden"
"SUBWAY Restaurant","Robert-Koch-Str. 1","85301","Schweitenkirchen"
"SUBWAY Restaurant","Münchnerstr. 7","83512","Wasserburg am Inn"
"SUBWAY Restaurant","Carl-Jordan-Str. 20","83059","Kolbermoor"
"SUBWAY Restaurant","Strogenweg 4","84174","Eching"
"SUBWAY Restaurant","Haunstetterstraße 2","86343","Königsbrunn"
"SUBWAY Restaurant","Karlstr. 5","86150","Augsburg"
"SUBWAY Restaurant","Viktoriastr. 1","86150","Augsburg"
"SUBWAY Restaurant","Bahnhofstraße 1a","84032","Landshut"
"SUBWAY Restaurant","Altstadt 108","84028","Landshut"
"SUBWAY Restaurant","Eriagstr. 2","85053","Ingolstadt"
"SUBWAY Restaurant","Milchstr. 7","85049","Ingolstadt"
"SUBWAY Restaurant","Katharinenplatz 9","84453","Mühldorf"
"SUBWAY Restaurant","Am Westpark 6","85057","Ingolstadt"
"SUBWAY Restaurant","Münchener Str. 22","86633","Neuburg an der Donau"
"SUBWAY Restaurant","Hauptstr. 60-64","82467","Garmisch-Partenkirchen"
"SUBWAY Restaurant","Simbacherstr. 34","84524","Neuötting"
"SUBWAY Restaurant","Spitalplatz 3","84130","Dingolfing"
"SUBWAY Restaurant","Reichstraße 36","86609","Donauwörth"
"SUBWAY Restaurant","Marktlerstr. 32","84489","Burghausen"
"SUBWAY Restaurant","Klostersteige 28","87435","Kempten"
"SUBWAY Restaurant","Maximilianstr. 7","87700","Memmingen"
"SUBWAY Restaurant","Leipziger Straße 24","88400","Biberach an der Riß"
"SUBWAY Restaurant","Argonnenstraße 9/5","88250","Weingarten"
"SUBWAY Restaurant","Bachstr. 1","88212","Ravensburg"
"SUBWAY Restaurant","Herbertinger Straße 56","88348","Bad Saulgau"
"SUBWAY Restaurant","Ziegetsdorfer Str. 115","93051","Regensburg"
"SUBWAY Restaurant","Pommernstraße 4","93073","Neutraubling"
"SUBWAY Restaurant","Friedenstr. 23","93053","Regensburg"
"SUBWAY Restaurant","Im Gewerbepark A7","93059","Regensburg"
"SUBWAY Restaurant","Ludwigsplatz 38","94315","Straubing"
"SUBWAY Restaurant","Lateinschulgasse 22","94469","Deggendorf"
"SUBWAY Restaurant","Ludwig-Erhard-Ring 2","92348","Berg bei Neumarkt"
"SUBWAY Restaurant","Rodingerstr. 22","93413","Cham"
"SUBWAY Restaurant","Spitalhofstr. 100a","94032","Passau"
"SUBWAY Restaurant","Bahnhofsstr. 5","94032","Passau"
"SUBWAY Restaurant","Frankenstr. 224","90461","Nuernberg"
"SUBWAY Restaurant","Nopitschstr. 82","90441","Nürnberg"
"SUBWAY Restaurant","Bahnhofsplatz","90461","Nürnberg"
"SUBWAY Restaurant","Am Traubenberg 1","96160","Geiselwind"
"SUBWAY Restaurant","Kulmbacher Str. 5","95502","Himmelkron"
"SUBWAY Restaurant","Plattnerstraße 8","97070","Würzburg"
"SUBWAY Restaurant","Am Wiesenweg 11","97262","Hausen"
"SUBWAY Restaurant","Georg Wichtermann Platz 11","97421","Schweinfurt"
"SUBWAY Restaurant","Bahnhofsplatz 1","96515","Sonneberg"
"SUBWAY Restaurant","Puschkinplatz 5","98646","Hildburghausen"
"SUBWAY Restaurant","Alter Molkereiweg 18","97616","Bad Neustadt"
"SUBWAY Restaurant","Friedrich-König-Str. 12","98527","Suhl"
"SUBWAY Restaurant","Poststraße 1","98693","Ilmenau"
"SUBWAY Restaurant","Stadtilmer Str. 102","99310","Arnstadt"
"SUBWAY Restaurant","Friedensstraße 1","99423","Weimar"
"SUBWAY Restaurant","Willy-Brandt-Platz 12","99084","Erfurt"
"SUBWAY Restaurant","Carl-August-Allee 17","99423","Weimar"
"SUBWAY Restaurant","Anger 1-3","99084","Erfurt"
"SUBWAY Restaurant","Johannisstr. 5","99817","Eisenach"
"SUBWAY Restaurant","Bahnhofstr. 35","99817","Eisenach"
"SUBWAY Restaurant","Muehlhäuser Straße 110","99817","Eisenach"
"SUBWAY Restaurant","Stadtring 15a","99610","Sömmerda"
"SUBWAY Mühlhasuen","Untermarkt 37","99974","Mühlhausen"
"SUBWAY Mühlhausen","Ammersche Landstraße 30","99974","Mühlhausen"
"SUBWAY Restaurant","Darrweg 67","99734","Nordhausen"
"SUBWAY Restaurant","Am alten Tor 7","99734","Nordhausen"
"Pizza Hut Chemnitz, Sachsen Allee","Thomas-Mann-Platz 1b","09130","Chemnitz"
"Pizza Hut Dresden Rundkino","Prager Str. 6","01069","Dresden"
"Pizza Hut Günthersdorf, Nova Eventis","EKZ Nova Eventis","06237","Leuna OT Günthersdorf"
"Pizza Hut Leipzig, Kleine Fleischergasse","Auf Grund von Renovierungsarbeiten derzeit geschlossen","04109","Leipzig"
"Pizza Hut Leipzig, HBF","Willy-Brandt-Platz 4","04109","Leipzig"
"Pizza Hut Berlin, Potsdamer Platz","Potsdamer Platz 1","10785","Berlin"
"Pizza Hut Berlin, Mall of Berlin","Leipziger Platz 12","10117","Berlin"
"Pizza Hut Rostock, KTC","Kröpeliner Str. 54","18055","Rostock"
"Pizza Hut Bremen, Weserpark","Hans Bredowstr. 19","28307","Bremen"
"Pizza Hut Bremen, Am Brill","Martini Str. 72-74","28195","Bremen"
"Pizza Hut Bremen Waterfront","AG-Weser-Str. 3","28237","Bremen"
"Pizza Hut Hamburg, Phönix Center","Hannoversche Str. 86","21079","Hamburg-Harburg"
"Pizza Hut Hamburg, Schlemmerpassage","Rathausmarkt 7","20095","Hamburg"
"Pizza Hut Hamburg, Europa Passage","Balindamm 40","20095","Hamburg"
"Pizza Hut Hamburg, Reeperbahn","Reeperbahn 137","20359","Hamburg"
"Pizza Hut Hamburg, Hamburger Meile","Hamburger Str. 27","22083","Hamburg"
"Pizza Hut Lübeck","Breite Str. 36a","23552","Lübeck"
"Pizza Hut Kiel, Cap Kiel","Kai Str. 54-56","24114","Kiel"
"Pizza Hut Kassel Cinestar","Karlsplatz 8","34117","Kassel"
"Pizza Hut Magdeburg, Kantstraße","Kantstr. 6","39104","Magdeburg"
"Pizza Hut Braunschweig, Münzstraße","Münzstr. 13","38100","Braunschweig"
"Pizza Hut Bielefeld, Jahnplatz","Jahnplatz 10","33602","Bielefeld"
"Pizza Hut Hannover, Raschplatz","Raschplatz 6","30161","Hannover"
"Pizza Hut Dortmund, Ostenhellweg","Ostenhellweg 23","44135","Dortmund"
"Pizza Hut Dortmund, Thier-Galerie","Westenhellweg 102-106","44137","Dortmund"
"Pizza Hut Bochum","Am Einkaufszentrum 22","44791","Bochum"
"Pizza Hut Düsseldorf Bilker","Bilkerallee 209","40215","Düsseldorf"
"Pizza Hut Düsseldorf Duisburger","Duisburgerstr. 24","40477","Düsseldorf"
"Pizza Hut Essen, Limbecker Platz","Limbecker Platz 1a","45127","Essen"
"Pizza Hut Oberhausen, Centro","Centroallee 100","46047","Oberhausen"
"Pizza Hut Münster","Steinfurter Str. 3","48149","Münster"
"Pizza Hut Osnabrück, Wittekindstraße","Wittekindstr. 13","49074","Osnabrück"
"Pizza Hut Osnabrück, Domhof","Domhof 9","49074","Osnabrück"
"Pizza Hut Mainz","Schusterstr. 2","55116","Mainz"
"Pizza Hut Koblenz, Forum Mittelrhein","Zentralplatz 2","56068","Koblenz"
"Pizza Hut Koblenz","Marktstr. 1","56068","Koblenz"
"Pizza Hut Trier","Brotstr. 40","54290","Trier"
"Pizza Hut Bonn","Münsterplatz 24","53111","Bonn"
"Pizza Hut Köln, Schildergasse","Schildergasse 83","50667","Köln"
"Pizza Hut Köln, Zülpicher Straße","Zülpicher Str. 12-14","50674","Köln"
"Pizza Hut Kamen","Kamen Karree 21","59174","Kamen"
"Pizza Hut Aachen, Aquis Plaza","Adalbertstr. 100","52062","Aachen"
"Pizza Hut Heidelberg, Hauptstraße","Hauptstr. 111","69117","Heidelberg"
"Pizza Hut Heidelberg, Hebelstraße","Hebelstr. 3","69115","Heidelberg"
"Pizza Hut Viernheim","Robert-Schumann-Str. 1","68519","Viernheim"
"Pizza Hut Aschaffenburg","Frohsinnstr. 29","63739","Aschaffenburg"
"Pizza Hut Mannheim O6","O6 2","68161","Mannheim"
"Pizza Hut Ludwigshafen","Im Zollhof 4","67061","Ludwigshafen"
"Pizza Hut Bensheim","Ampèrestr. 1","64625","Bensheim"
"Pizza Hut Darmstadt, Ernst-Ludwig-Straße","Ernst-Ludwig-Str. 21","64283","Darmstadt"
"Pizza Hut Darmstadt, Eschollbrückerst","Eschollbrückerstr. 44","64295","Darmstadt"
"Pizza Hut Darmstadt, Luisenplatz","Luisenplatz 5a","64283","Darmstadt"
"Pizza Hut Darmstadt, Gräfenhäuser","Gräfenhäuser Str. 48","64297","Darmstadt"
"Pizza Hut Weiterstadt","Gutenbergstr. 3-5","64331","Weiterstadt"
"Pizza Hut Hanau","Am Freiheitsplatz 1","63450","Hanau"
"Pizza Hut Dreieich","Robert-Bosch-Str. 15","63303","Dreieich"
"Pizza Hut Neu-Isenburg","Hermesstr. 4","63263","Neu-Isenburg"
"Pizza Hut Offenbach","Berliner Str. 50-52","63065","Offenbach"
"Pizza Hut Frankfurt, Hanauer","Hanauer Landstr. 292","60314","Frankfurt"
"Pizza Hut Frankfurt Sachsenhausen","Ziegelhüttenweg 5","60598","Frankfurt"
"Pizza Hut Frankfurt, Wittelsbacherallee","Wittelsbacherallee 70","60385","Frankfurt"
"Pizza Hut Frankfurt, Zoo","Hölderlinstr. 22","60316","Frankfurt am Main"
"Pizza Hut Frankfurt, Bruchfeldstraße","Bruchfeldstr. 29","60528","Frankfurt am Main"
"Pizza Hut Frankfurt, Hauptwache","Hauptwache B-Ebene","60313","Frankfurt"
"Pizza Hut Frankfurt, Skyline Plaza","Europaallee 6","60327","Frankfurt am Main"
"Pizza Hut Frankfurt, Dornbusch","Am Dornbusch 31","60320","Frankfurt am Main"
"Pizza Hut Frankfurt, NWZ","Tituscorso 2b","60439","Frankfurt am Main"
"Pizza Hut Eschborn","Elly-Beinhorn-Straße","65760","Eschborn"
"Pizza Hut Hofheim","Chinonplatz 6","65719","Hofheim"
"Pizza Hut Bad Homburg","Louisenstr. 47","61348","Bad Homburg"
"Pizza Hut Kaiserslautern","Kaiserstr. 34","67661","Kaiserslautern"
"Pizza Hut Wiesbaden, Mainzer","Mainzer Str. 99","65189","Wiesbaden"
"Pizza Hut Neunkirchen","Stummstr. 1","66538","Neunkirchen"
"Pizza Hut Saarbrücken","Bahnhofstr. 82","66111","Saarbrücken"
"Pizza Hut Express Saarbrücken Galerie","Trierer-Str. 1","66111","Saarbrücken"
"Pizza Hut Stuttgart, Rotebühlplatz","Rotebühlplatz 1","70178","Stuttgart"
"Pizza Hut Karlsruhe","Erbprinzenstr. 34","76133","Karlsruhe"
"Pizza Hut Am Isartor","Zweibrückenstr. 1","80331","München"
"Pizza Hut Am Stachus","Bayerstr. 13","80335","München"
"Pizza Hut München Olympiazentrum","Lerchenauer Str. 42","80809","München"
"Pizza Hut Oberschleissheim","Mittenheimer Str. 56","85764","Oberschleissheim"
"Pizza Hut Garmisch","Marienplatz 16","82467","Garmisch-Partenkirchen"
"Pizza Hut Nürnberg Breite Gasse","Breite Gasse 35","90402","Nürnberg"
"Pizza Hut Fürth","Fronmüllerstr. 78-80","90763","Fürth"
"Pizza Hut Würzburg","Dominikanerplatz 3b","97070","Würzburg"
"Pizza Hut Schweinfurt, Stadtgalerie","Schrammstr. 5","97421","Schweinfurt"
"Dunkin´ Donuts","Ortsteil Günthersdorf","06237","Leuna"
"Dunkin´ Donuts","Willy-Brandt-Platz 7","04109","Leipzig"
"Dunkin´ Donuts","Kurfürstendamm 166","10707","Berlin"
"Dunkin´ Donuts","Karl-Marx-Str. 1","12043","Berlin"
"Dunkin´ Donuts","Kaiserdamm 26","14057","Berlin"
"Dunkin´ Donuts","Wilmersdorfer str. 59","10627","Berlin"
"Dunkin´ Donuts","Tauentzienstr. 8","10789","Berlin-Charlottenburg"
"Dunkin´ Donuts","Wilhelmstr. 8","13595","Berlin"
"Dunkin´ Donuts","Joachimstaler Str. 1 - 3","10623","Berlin"
"Dunkin´ Donuts","Hardenbergplatz 2-4","10623","Berlin"
"Dunkin´ Donuts","Hardenbergplatz 9-15","10623","Berlin"
"Dunkin´ Donuts","Segefelderstr.","13597","Berlin"
"Dunkin´ Donuts","Potsdamer Str. 2","10785","Berlin"
"Dunkin´ Donuts","Cora-Berliner-Str. 2","10117","Berlin"
"Dunkin´ Donuts","Unter den Linden 78","10117","Berlin"
"Dunkin´ Donuts","Am Ostbahnhof 9","10243","Berlin/Friedrichshain-Friedrichshain"
"Dunkin´ Donuts","Am Washingtonplatz","10557","Berlin"
"Dunkin´ Donuts","Europaplatz 1","10557","Berlin-Moabit"
"Dunkin´ Donuts","Rathausstraße5","10178","Berlin-Mitte"
"Dunkin´ Donuts","Bhf. Alexanderplatz","10178","Berlin"
"Dunkin´ Donuts","U-Bhf. Alexanderplatz","10178","Berlin"
"Dunkin´ Donuts","Frankfurter Allee 111","10247","Berlin"
"Dunkin´ Donuts","Müllerstr. 28","13353","Berlin"
"Dunkin´ Donuts","Badstr. 4","13357","Berlin-Gesundbrunnen"
"Dunkin´ Donuts","Marzahner Promenade 1A","12679","Berlin-Marzahn"
"Dunkin´ Donuts","Im Bahnhof Dammtor Theodor-Heuss-Platz 1","20354","Hamburg"
"Dunkin´ Donuts","Niki-de-Saint-Phalle-Promenade 10A","30159","Hannover"
"Dunkin´ Donuts","Konrad Adenauer Platz 14","40210","Düsseldorf"
"Dunkin´ Donuts","Am Hauptbahnhof 5","45127","Essen"
"Dunkin´ Donuts","Porscheplatz 2","45127","Essen"
"Dunkin´ Donuts","Limbeckerstr. 52","45127","Essen"
"Dunkin´ Donuts","Centroallee","46047","Oberhausen"
"Dunkin´ Donuts","Kornmarkt 8","54290","Trier"
"Dunkin´ Donuts","Schildergasse 8-12","50667","Köln"
"Dunkin´ Donuts","Hohe Str. 134 b","50667","Köln"
"Dunkin´ Donuts","Trankgasse 11","50667","Köln"
"Dunkin´ Donuts","Am Markt 8a","63450","Hanau"
"Dunkin´ Donuts","Zeil 94A","60313","Frankfurt am Main"
"Dunkin´ Donuts","Zeil 106","60313","Frankfurt am Main"
"Dunkin´ Donuts","Am Hauptbahnhof 1","60329","Frankfurt / Main"
"Dunkin´ Donuts","Hauptbahnhof Stuttgart","70173","Stuttgart"
"Dunkin´ Donuts","Sophienstr. 21","70178","Stuttgart"
"Dunkin´ Donuts","Mailänder Platz 7","70191","Stuttgart"
"Dunkin´ Donuts","Wolfgang-Brumme-Allee 27","71034","Böblingen"
"Dunkin´ Donuts","Bayerstr. 10A","80335","München"
"Dunkin´ Donuts","Orleansplatz 10","81667","München"
"Dunkin´ Donuts","Riem Arcaden","81829","München"
"Dunkin´ Donuts","Bahnhofsplatz 9 (Hauptbahnhof)","90443","Nürnberg"
"Dunkin´ Donuts","Königstr. 76","90402","Nürnberg"
"Wienerwald","Lehninger Platz 2","10709","Berlin"
"Wienerwald","Oranienstr. 55","10969","Berlin"
"Wienerwald","Leipziger Platz 12","10117","Berlin"
"Wienerwald","Falkenseer Chaussee 221","13583","Berlin"
"Wienerwald","Stephansplatz 6","30171","Hannover"
"Wienerwald","Hindenburgstr. 15  17","45127","Essen"
"Wienerwald","Chlodwigplatz 5","50678","Köln"
"Wienerwald","Stuttgarterstr. 177","70734","Fellbach"
"Wienerwald","Landhausstr. 203","70188","Stuttgart"
"Wienerwald","Moltkestr. 48","74076","Heilbronn"
"Wienerwald","Kaiserallee 69","76133","Karlsruhe"
"Wienerwald","Turmstr. 24","79539","Lörrach"
"Wienerwald","Karl-Theodor-Str. 45","80803","München"
"Wienerwald","Leonrodstr. 91","80636","München"
"Wienerwald","Anzingerstr. 2","81671","München"
"Wienerwald","Tegernseer Landstr. 114","81539","München"
"Wienerwald","Valpichlerstr. 60","80686","München"
"Wienerwald","Bajuwarenstr. 2","81825","München"
"Wienerwald","Schleißheimerstr. 470","80935","München"
"Wienerwald","Verdistr. 76","81247","München"
"Wienerwald","Wasserburger Landstr. 198","81827","München"
"Wienerwald","Ottobrunnerstr. 33","82008","Unterhaching"
"Wienerwald","Samerstr. 25","83022","Rosenheim"
"Wienerwald","Ludwigstr. 5","87561","Obersdorf"
