"nameCompany","streetAddress","postalCode","addressLocality","column1"
"Kaufland Plauen-Chrieschwitz","Äußere Reichenbacher Str. 64","08529","Plauen","https://www.meinprospekt.de/filialen/kaufland/0"
"Kaufland Plauen-Haselbrunn","Morgenbergstr. 41","08523","Plauen","https://www.meinprospekt.de/filialen/kaufland/0"
"Kaufland Plauen-Kauschwitz","Alte Jößnitzer Str. 30","08525","Plauen","https://www.meinprospekt.de/filialen/kaufland/0"
"Kaufland Auerbach/Vogtland","Zur Sternkoppel 1","08228","Rodewisch","https://www.meinprospekt.de/filialen/kaufland/0"
"Kaufland Schleiz, Admira Center","Oettersdorfer Str. 40","07907","Schleiz","https://www.meinprospekt.de/filialen/kaufland/0"
"Kaufland Schwarzenberg","Karlsbader Str. 2 A","08340","Schwarzenberg","https://www.meinprospekt.de/filialen/kaufland/0"
"Kaufland Unterwellenborn","Kronacher Str. 9","07333","Unterwellenborn","https://www.meinprospekt.de/filialen/kaufland/0"
"Kaufland Zeulenroda","Aumaische Str. 27/29","07937","Zeulenroda","https://www.meinprospekt.de/filialen/kaufland/0"
"Kaufland Reichenbach","Zwickauer Str. 128","08468","Reichenbach im Vogtland","https://www.meinprospekt.de/filialen/kaufland/0"
"Kaufland Greiz","August-Bebel-Str. 46","07973","Greiz","https://www.meinprospekt.de/filialen/kaufland/0"
"Kaufland Pößneck","Saalfelder Str. 21","07381","Pößneck","https://www.meinprospekt.de/filialen/kaufland/0"
"Kaufland Aue","Brünlasberg 1A","08280","Aue","https://www.meinprospekt.de/filialen/kaufland/0"
"Kaufland Rudolstadt","Am Spielborn 1-3","07407","Rudolstadt","https://www.meinprospekt.de/filialen/kaufland/0"
"Kaufland Zwönitz","Albin-Trommler-Str. 1","08297","Zwönitz","https://www.meinprospekt.de/filialen/kaufland/0"
"Kaufland Werdau, Pleissen-Center","Stiftstr. 6-8","08412","Werdau","https://www.meinprospekt.de/filialen/kaufland/0"
"Kaufland Annaberg-Buchholz","Gewerbering 2","09456","Annaberg-Buchholz","https://www.meinprospekt.de/filialen/kaufland/0"
"Kaufland Zwickau-Marienthal-Ost","Bernhardstr. 5","08060","Zwickau","https://www.meinprospekt.de/filialen/kaufland/0"
"Kaufland Werdau, Uferstr.","Uferstr. 1","08412","Werdau","https://www.meinprospekt.de/filialen/kaufland/0"
"Kaufland Zwickau-Eckersbach-Siedl.","Äußere Dresdner Str. 25","08066","Zwickau","https://www.meinprospekt.de/filialen/kaufland/0"
"Kaufland Zwickau-Pölbitz","Schubertstr. 1","08058","Zwickau","https://www.meinprospekt.de/filialen/kaufland/0"
"Kaufland Stollberg/Erzgeb.","Auer Str. 20","09366","Stollberg/Erzgeb.","https://www.meinprospekt.de/filialen/kaufland/0"
"Kaufland Marienberg","Am Lautengrund 4","09496","Marienberg","https://www.meinprospekt.de/filialen/kaufland/0"
"Kaufland Gera-Lusan-Laune","Schleizer Str. 36-39","07549","Gera-Lusan","https://www.meinprospekt.de/filialen/kaufland/0"
"Kaufland Jena-Lobeda","Karl-Marx-Allee 20","07747","Jena-Lobeda","https://www.meinprospekt.de/filialen/kaufland/0"
"Kaufland Glauchau, Grenayer Str.","Grenayer Str. 10","08371","Glauchau-Schönbörnchen","https://www.meinprospekt.de/filialen/kaufland/0"
"Kaufland Meerane","Seiferitzer Allee 1","08393","Meerane","https://www.meinprospekt.de/filialen/kaufland/0"
"Kaufland Gera-Stadtmitte, Arcaden","Heinrichstr. 30","07545","Gera","https://www.meinprospekt.de/filialen/kaufland/0"
"Kaufland Hohenstein-Ernstthal","Heinrich-Heine-Str. 1 a","09337","Hohenstein-Ernstthal","https://www.meinprospekt.de/filialen/kaufland/0"
"Kaufland Glauchau, Waldenburger Str","Waldenburger Str. F175","08371","Glauchau","https://www.meinprospekt.de/filialen/kaufland/0"
"Kaufland Chemnitz-Hutholz","Chemnitzer Str. 65","09123","Chemnitz","https://www.meinprospekt.de/filialen/kaufland/0"
"Kaufland Gera-Bieblach-Ost","Thüringer Str. 26","07552","Gera-Bieblach-Ost","https://www.meinprospekt.de/filialen/kaufland/0"
"Kaufland Zschopau","Chemnitzer Str. 124","09405","Zschopau","https://www.meinprospekt.de/filialen/kaufland/0"
"Kaufland Schmölln","Markt 11","04626","Schmölln","https://www.meinprospekt.de/filialen/kaufland/0"
"Kaufland Jena-Löbstedt","Naumburger Str. 57 a","07743","Jena","https://www.meinprospekt.de/filialen/kaufland/0"
"Kaufland Limbach-Oberfrohna","Ostring 4","09212","Limbach-Oberfrohna","https://www.meinprospekt.de/filialen/kaufland/0"
"Kaufland Chemnitz-Hilbersdorf","Thomas-Mann-Platz 1 C","09130","Chemnitz","https://www.meinprospekt.de/filialen/kaufland/0"
"Kaufland Eisenberg","Obere Donitzschkau 2","07607","Eisenberg","https://www.meinprospekt.de/filialen/kaufland/0"
"Kaufland Burgstädt","Mittweidaer Str. 1","09217","Burgstädt","https://www.meinprospekt.de/filialen/kaufland/0"
"Kaufland Altenburg, Käthe-Kollwitz","Käthe-Kollwitz-Str. 43","04600","Altenburg","https://www.meinprospekt.de/filialen/kaufland/0"
"Kaufland Altenburg, Kauernd. Allee","Kauerndorfer Allee 20","04600","Altenburg","https://www.meinprospekt.de/filialen/kaufland/0"
"Kaufland Zeitz, Schwarzer Weg","Schwarzer Weg 40","06712","Zeitz","https://www.meinprospekt.de/filialen/kaufland/0"
"Kaufland Zeitz, Hainichener Dorfstr","Hainichener Dorfstr. 1","06712","Zeitz","https://www.meinprospekt.de/filialen/kaufland/0"
"Kaufland Frankenberg/Sachsen","Jochen-Köhler-Str. 11","09669","Frankenberg/Sachsen","https://www.meinprospekt.de/filialen/kaufland/0"
"Kaufland Freiberg, Häuersteig","Häuersteig 2","09599","Freiberg","https://www.meinprospekt.de/filialen/kaufland/0"
"Kaufland Mittweida","Sonnenstr. 7","09648","Mittweida","https://www.meinprospekt.de/filialen/kaufland/0"
"Kaufland Freiberg, Bebelplatz","Bebelplatz 2","09599","Freiberg/Sachsen","https://www.meinprospekt.de/filialen/kaufland/0"
"Kaufland Naumburg","Weißenfelser Str. 70","06618","Naumburg","https://www.meinprospekt.de/filialen/kaufland/0"
"Kaufland Borna","Am Wilhelmschacht 34","04552","Borna","https://www.meinprospekt.de/filialen/kaufland/0"
"Kaufland Weißenfels, Max-Planck-Str","Max-Planck-Str. 3","06667","Weißenfels","https://www.meinprospekt.de/filialen/kaufland/0"
"Kaufland Weißenfels, Drei Wege","Drei Wege 5","06667","Weißenfels-Borau","https://www.meinprospekt.de/filialen/kaufland/0"
"Kaufland Waldheim","Hauptstr. 107","04736","Waldheim","https://www.meinprospekt.de/filialen/kaufland/0"
"Kaufland Dippoldiswalde","Industriering 2","01744","Dippoldiswalde","https://www.meinprospekt.de/filialen/kaufland/0"
"Kaufland Freital, Weißeritz Park","An der Spinnerei 8","01705","Freital","https://www.meinprospekt.de/filialen/kaufland/0"
"Kaufland Döbeln","Schillerstr. 6","04720","Döbeln","https://www.meinprospekt.de/filialen/kaufland/0"
"Kaufland Freital, Wilsdruffer Str.","Wilsdruffer Str. 52","01705","Freital","https://www.meinprospekt.de/filialen/kaufland/0"
"Kaufland Grimma","Gerichtswiesen 2","04668","Grimma","https://www.meinprospekt.de/filialen/kaufland/0"
"Kaufland Großpösna, Pösna Park","Sepp-Verscht-Str. 1","04463","Großpösna","https://www.meinprospekt.de/filialen/kaufland/0"
"Kaufland Dresden-Kleinpestitz","Kohlenstr. 18","01189","Dresden","https://www.meinprospekt.de/filialen/kaufland/0"
"Kaufland Leipzig-Großzschocher","Anton-Zickmantel-Str. 1","04249","Leipzig-Großzschocher","https://www.meinprospekt.de/filialen/kaufland/0"
"Kaufland Dresden-Nickern, Kaufpark","Dohnaer Str. 246","01239","Dresden-Lockwitz","https://www.meinprospekt.de/filialen/kaufland/0"
"Kaufland Dresden-Naußlitz","Kesselsdorfer Str. 81","01159","Dresden-Naußlitz","https://www.meinprospekt.de/filialen/kaufland/0"
"Kaufland Dresden-Neu-Omsewitz","Harthaer Str. 3","01169","Dresden Gorbitz-Nord/Neu-Omsewitz","https://www.meinprospekt.de/filialen/kaufland/0"
"Kaufland Pirna-Sonnenstein","Struppener Str. 11 A","01796","Pirna","https://www.meinprospekt.de/filialen/kaufland/0"
"Kaufland Dresden-Strehlen, O.D.C.","Reicker Str. 60","01219","Dresden-Strehlen","https://www.meinprospekt.de/filialen/kaufland/0"
"Kaufland Leipzig-Schönau","Kiewer Str. 30","04205","Leipzig","https://www.meinprospekt.de/filialen/kaufland/0"
"Kaufland Pirna-Zatzschke","Lohmener Str. 12 c","01796","Pirna","https://www.meinprospekt.de/filialen/kaufland/0"
"Kaufland Leipzig-Altlindenau","Lindenauer Markt 2","04177","Leipzig","https://www.meinprospekt.de/filialen/kaufland/0"
"Kaufland Dresden-Striesen-West","Borsbergstr. 35","01309","Dresden-Striesen-West","https://www.meinprospekt.de/filialen/kaufland/0"
"Kaufland Leipzig-Reudnitz-Thonberg","Dresdner Str. 80","04317","Leipzig-Reudnitz-Thonberg","https://www.meinprospekt.de/filialen/kaufland/0"
"Kaufland Merseburg","Querfurter Str. 16","06217","Merseburg","https://www.meinprospekt.de/filialen/kaufland/0"
"Kaufland Meißen Schützestr.","Schützestr. 1","01662","Meißen","https://www.meinprospekt.de/filialen/kaufland/0"
"Kaufland Dresden-Kaditz, Elbepark","Peschelstr. 33","01139","Dresden","https://www.meinprospekt.de/filialen/kaufland/0"
"Kaufland Radebeul","Weintraubenstr. 31","01445","Radebeul","https://www.meinprospekt.de/filialen/kaufland/0"
"Kaufland Leipzig-Paunsdorf","Paunsdorfer Allee 1","04329","Leipzig-Engelsdorf","https://www.meinprospekt.de/filialen/kaufland/0"
"Kaufland Leipzig-Gohlis-Süd","Georg-Schumann-Str. 105","04155","Leipzig-Gohlis-Süd","https://www.meinprospekt.de/filialen/kaufland/0"
"Kaufland Coswig","Salzstr. 16 A","01640","Coswig","https://www.meinprospekt.de/filialen/kaufland/0"
"Kaufland Leipzig-Möckern","Georg-Schumann-Str. 290","04159","Leipzig","https://www.meinprospekt.de/filialen/kaufland/0"
"Kaufland Meißen, Elbe Center","Niederauer Str. 43","01662","Meißen","https://www.meinprospekt.de/filialen/kaufland/0"
"Kaufland Leipzig-Heiterblick","Torgauer Str. 279","04347","Leipzig","https://www.meinprospekt.de/filialen/kaufland/0"
"Kaufland Dresden-Weißig","An der Prießnitzaue 3","01328","Dresden-Weißig","https://www.meinprospekt.de/filialen/kaufland/0"
"Kaufland Taucha","Portitzer Str. 34","04425","Taucha","https://www.meinprospekt.de/filialen/kaufland/0"
"Kaufland Halle (Saale)-Südst, Cent.","Südstadtring 90","06128","Halle (Saale)","https://www.meinprospekt.de/filialen/kaufland/0"
"Kaufland Wurzen","Collmener Str. 12","04808","Wurzen","https://www.meinprospekt.de/filialen/kaufland/0"
"Kaufland Dresden-Weixdorf","Hohenbusch-Markt 1","01108","Dresden","https://www.meinprospekt.de/filialen/kaufland/0"
"Kaufland Sangerhausen","Schützenplatz 2","06526","Sangerhausen","https://www.meinprospekt.de/filialen/kaufland/0"
"Kaufland Halle (Saale)-Süd. Neust.","Zollrain 9","06124","Halle (Saale)","https://www.meinprospekt.de/filialen/kaufland/0"
"Kaufland Riesa, Elbgalerie Riesa","Hauptstr. 74-78","01587","Riesa-Mergendorf","https://www.meinprospekt.de/filialen/kaufland/0"
"Kaufland Neustadt in Sachsen","Wilhelm-Kaulisch-Str. 26","01844","Neustadt in Sachsen","https://www.meinprospekt.de/filialen/kaufland/0"
"Kaufland Großenhain","Riesaer Str. 54","01558","Großenhain","https://www.meinprospekt.de/filialen/kaufland/0"
"Kaufland Lutherstadt Eisleben","Hallesche Str. 77","06295","Lutherstadt Eisleben","https://www.meinprospekt.de/filialen/kaufland/0"
"Kaufland Halle (Saale)-Industriegeb","Magdeburger Chaussee 23","06118","Halle (Saale)-Trotha","https://www.meinprospekt.de/filialen/kaufland/0"
"Kaufland Großröhrsdorf","Pulsnitzer Str. 16","01900","Großröhrsdorf","https://www.meinprospekt.de/filialen/kaufland/0"
"Kaufland Delitzsch","Sachsenstr. 8","04509","Delitzsch","https://www.meinprospekt.de/filialen/kaufland/0"
"Kaufland Brehna","Thiemendorfer Mark 3","06796","Sandersdorf-Brehna","https://www.meinprospekt.de/filialen/kaufland/0"
"Kaufland Zittau Äußere Weberstr.","Äußere Weberstr. 87","02763","Zittau","https://www.meinprospekt.de/filialen/kaufland/0"
"Kaufland Zittau, Chr.-Keimann-Str.","Christian-Keimann-Str. 44","02763","Zittau","https://www.meinprospekt.de/filialen/kaufland/0"
"Kaufland Ebersbach-Neugersdorf","Johann-Andreas-Schubert-Str. 11","02730","Ebersbach-Neugersdorf","https://www.meinprospekt.de/filialen/kaufland/0"
"Kaufland Bitterfeld-Wolfen","Bismarckstr. 39","06749","Bitterfeld-Wolfen","https://www.meinprospekt.de/filialen/kaufland/0"
"Kaufland Torgau, Turnierplatzweg","Turnierplatzweg 1","04860","Torgau","https://www.meinprospekt.de/filialen/kaufland/0"
"Kaufland Kamenz, Willy-Muhle-Str.","Willy-Muhle-Str. 25","01917","Kamenz","https://www.meinprospekt.de/filialen/kaufland/0"
"Kaufland Torgau, Außenring","Außenring 1","04860","Torgau","https://www.meinprospekt.de/filialen/kaufland/0"
"Kaufland Kamenz, An der Windmühle","An der Windmühle 2","01917","Kamenz","https://www.meinprospekt.de/filialen/kaufland/0"
"Kaufland Löbau","Rumburger Str. 9","02708","Löbau","https://www.meinprospekt.de/filialen/kaufland/0"
"Kaufland Bautzen","Gesundbrunnenring 62","02625","Bautzen","https://www.meinprospekt.de/filialen/kaufland/0"
"Kaufland Bitterfeld-Wolfen","Wittener Str. 28","06766","Bitterfeld-Wolfen-Wolfen","https://www.meinprospekt.de/filialen/kaufland/0"
"Kaufland Aschersleben","Hoymer Chaussee 108","06449","Aschersleben","https://www.meinprospekt.de/filialen/kaufland/0"
"Kaufland Köthen","Merziener Str. 20","06366","Köthen","https://www.meinprospekt.de/filialen/kaufland/0"
"Kaufland Bernburg","Zepziger Weg 6","06406","Bernburg","https://www.meinprospekt.de/filialen/kaufland/0"
"Kaufland Quedlinburg","Badeborner Weg 2","06484","Quedlinburg","https://www.meinprospekt.de/filialen/kaufland/0"
"Kaufland Dessau-Roßlau","Zunftstr. 15","06847","Dessau-Roßlau","https://www.meinprospekt.de/filialen/kaufland/0"
"Kaufland Senftenberg","Briesker Str. 4","01968","Senftenberg","https://www.meinprospekt.de/filialen/kaufland/0"
"Kaufland Dessau-Roßlau, Mildensee","Am Eichengarten 2","06842","Dessau-Roßlau","https://www.meinprospekt.de/filialen/kaufland/0"
"Kaufland Görlitz-Weinhübel","Zittauer Str. 120","02827","Görlitz-Weinhübel","https://www.meinprospekt.de/filialen/kaufland/0"
"Kaufland Herzberg (Elster)","Osterodaer Str. 12","04916","Herzberg (Elster)","https://www.meinprospekt.de/filialen/kaufland/0"
"Kaufland Dessau-Roßlau, Wolfgangstr","Wolfgangstr. 14","06844","Dessau-Roßlau","https://www.meinprospekt.de/filialen/kaufland/0"
"Kaufland Hoyerswerda","Str. E 9","02977","Hoyerswerda","https://www.meinprospekt.de/filialen/kaufland/0"
"Kaufland Görlitz-Königshufen","Scultetusstr. 24","02828","Görlitz-Königshufen","https://www.meinprospekt.de/filialen/kaufland/0"
"Kaufland Finsterwalde","Sonnewalder Str. 100","03238","Finsterwalde","https://www.meinprospekt.de/filialen/kaufland/0"
"Kaufland Lutherstadt Wittenberg","Lerchenbergstr. 112-113","06886","Lutherstadt Wittenberg","https://www.meinprospekt.de/filialen/kaufland/0"
"Kaufland Spremberg","An der Lusatia 1","03130","Spremberg","https://www.meinprospekt.de/filialen/kaufland/0"
"Kaufland Weißwasser","Sachsendamm 30","02943","Weißwasser","https://www.meinprospekt.de/filialen/kaufland/0"
"Kaufland Cottbus-Madlow","Hardenbergstr. 5","03050","Cottbus-Madlow","https://www.meinprospekt.de/filialen/kaufland/0"
"Kaufland Lübbenau","Am Kaufland 2","03222","Lübbenau Spreewald","https://www.meinprospekt.de/filialen/kaufland/0"
"Kaufland Cottbus-Schmellwitz","Sielower Chaussee 38","03044","Cottbus","https://www.meinprospekt.de/filialen/kaufland/0"
"Kaufland Forst","Promenade 2","03149","Forst","https://www.meinprospekt.de/filialen/kaufland/0"
"Kaufland Guben, Kaltenborner Str.","Kaltenborner Str. 68","03172","Guben","https://www.meinprospekt.de/filialen/kaufland/0"
"Kaufland Guben, Fried.-Schiller-Str","Friedrich-Schiller-Str. 5 b","03172","Guben","https://www.meinprospekt.de/filialen/kaufland/0"
"Kaufland Luckenwalde","Burg 22","14943","Luckenwalde","https://www.meinprospekt.de/filialen/kaufland/1"
"Kaufland Linthe","Dorfstr. 29","14822","Linthe","https://www.meinprospekt.de/filialen/kaufland/1"
"Kaufland Zossen","Stubenrauchstr. 60a","15806","Zossen","https://www.meinprospekt.de/filialen/kaufland/1"
"Kaufland Ludwigsfelde","Potsdamer Str. 51-53","14974","Ludwigsfelde","https://www.meinprospekt.de/filialen/kaufland/1"
"Kaufland Werder (Havel), Werderpark","Auf dem Strengfeld 6","14542","Werder (Havel)","https://www.meinprospekt.de/filialen/kaufland/1"
"Kaufland Brandenburg, EKZ Wust","An Der Bundesstr. 1","14776","Brandenburg/Havel","https://www.meinprospekt.de/filialen/kaufland/1"
"Kaufland Potsdam-Waldstadt","Am Moosfenn 1","14478","Potsdam","https://www.meinprospekt.de/filialen/kaufland/1"
"Kaufland Potsdam-West","Zeppelinstr. 132","14471","Potsdam-West","https://www.meinprospekt.de/filialen/kaufland/1"
"Kaufland Königs Wusterhausen","Wiesenstr. 7","15711","Königs Wusterhausen","https://www.meinprospekt.de/filialen/kaufland/1"
"Kaufland Potsdam-Innenstadt","Babelsberger Str. 16","14473","Potsdam","https://www.meinprospekt.de/filialen/kaufland/1"
"Kaufland Blankenfelde-Mahlow","Am Lückefeld 97","15831","Blankenfelde-Mahlow","https://www.meinprospekt.de/filialen/kaufland/1"
"Kaufland Teltow","Potsdamer Str. 6-8","14513","Teltow","https://www.meinprospekt.de/filialen/kaufland/1"
"Kaufland Berlin Goerzallee","Goerzallee 195","14167","Berlin-Lichterfelde","https://www.meinprospekt.de/filialen/kaufland/1"
"Kaufland Berlin-Marienfelde","Buckower Chaussee 100-102","12277","Berlin-Marienfelde","https://www.meinprospekt.de/filialen/kaufland/1"
"Kaufland Berlin Ostpreußendamm","Ostpreußendamm 60","12207","Berlin-Lichterfelde","https://www.meinprospekt.de/filialen/kaufland/1"
"Kaufland Berlin Gropius Passagen","Johannisthaler Chaussee 295-327","12351","Berlin-Gropiusstadt","https://www.meinprospekt.de/filialen/kaufland/1"
"Kaufland Berlin-Britz","Gutschmidtstr. 19","12359","Berlin-Britz","https://www.meinprospekt.de/filialen/kaufland/1"
"Kaufland Eisenhüttenstadt","Fährstr. 35","15890","Eisenhüttenstadt","https://www.meinprospekt.de/filialen/kaufland/1"
"Kaufland Berlin-Schöneberg","Bessemerstr. 57-75","12103","Berlin-Schöneberg","https://www.meinprospekt.de/filialen/kaufland/1"
"Kaufland Berlin-Adlershof","Rudower Chaussee 12","12489","Berlin-Adlershof","https://www.meinprospekt.de/filialen/kaufland/1"
"Kaufland Rathenow, Milower Landstr.","Milower Landstr. 6 a","14712","Rathenow","https://www.meinprospekt.de/filialen/kaufland/1"
"Kaufland Berlin-Tempelhof","Schöneberger Str. 7","12103","Berlin-Tempelhof","https://www.meinprospekt.de/filialen/kaufland/1"
"Kaufland Berlin-Niederschöneweide","Schnellerstr. 21","12439","Berlin","https://www.meinprospekt.de/filialen/kaufland/1"
"Kaufland Fürstenwalde, Alte Langew.","Alte Langewahler Chaussee 11","15517","Fürstenwalde","https://www.meinprospekt.de/filialen/kaufland/1"
"Kaufland Rathenow, Schwedendamm","Schwedendamm 3","14712","Rathenow","https://www.meinprospekt.de/filialen/kaufland/1"
"Kaufland Dallgow-Döberitz","Döberitzer Weg 3","14624","Dallgow","https://www.meinprospekt.de/filialen/kaufland/1"
"Kaufland Berlin-Köpenick","Friedrichshagener Str. 38-42","12555","Berlin-Köpenick","https://www.meinprospekt.de/filialen/kaufland/1"
"Kaufland Berlin-Wilhelmstadt","Wilhelmstr. 21-25","13593","Berlin-Wilhelmstadt","https://www.meinprospekt.de/filialen/kaufland/1"
"Kaufland Berlin-Neukölln, Arcaden","Karl-Marx-Str. 66","12043","Berlin","https://www.meinprospekt.de/filialen/kaufland/1"
"Kaufland Erkner","Friedrichstr. 13","15537","Erkner","https://www.meinprospekt.de/filialen/kaufland/1"
"Kaufland Berlin-Spandau","Grünhofer Weg 9","13581","Berlin-Spandau","https://www.meinprospekt.de/filialen/kaufland/1"
"Kaufland Berlin-Haselhorst","Am Juliusturm 40-46","13599","Berlin-Haselhorst","https://www.meinprospekt.de/filialen/kaufland/1"
"Kaufland Berlin-Friedrichsfelde","Sewanstr. 4, 6","10319","Berlin-Friedrichsfelde","https://www.meinprospekt.de/filialen/kaufland/1"
"Kaufland Berlin Victoria Center","Marktstr. 6","10317","Berlin-Rummelsberg","https://www.meinprospekt.de/filialen/kaufland/1"
"Kaufland Fürstenwalde, Juri-Gagarin","Juri-Gagarin-Str. 32","15517","Fürstenwalde","https://www.meinprospekt.de/filialen/kaufland/1"
"Kaufland Berlin-Moabit","Perleberger Str. 42 A","10559","Berlin-Moabit","https://www.meinprospekt.de/filialen/kaufland/1"
"Kaufland Berlin-Mitte","Karl-Liebknecht-Str. 13","10178","Berlin","https://www.meinprospekt.de/filialen/kaufland/1"
"Kaufland Berlin H.-Blankenstein-Str","Hermann-Blankenstein-Str. 38","10249","Berlin-Prenzlauer Berg","https://www.meinprospekt.de/filialen/kaufland/1"
"Kaufland Berlin-Biesdorf","Weißenhöher Str. 88-108","12683","Berlin","https://www.meinprospekt.de/filialen/kaufland/1"
"Kaufland Berlin Storkower Str.","Storkower Str. 139","10407","Berlin-Prenzlauer Berg","https://www.meinprospekt.de/filialen/kaufland/1"
"Kaufland Berlin-Wedding","Müllerstr. 123-125","13349","Berlin-Wedding","https://www.meinprospekt.de/filialen/kaufland/1"
"Kaufland Berlin Brunnenstr.","Brunnenstr. 105-109","13355","Berlin-Gesundbrunnen","https://www.meinprospekt.de/filialen/kaufland/1"
"Kaufland Berlin, Residenzstr.","Residenzstr. 85","13409","Berlin-Gesundbrunnen","https://www.meinprospekt.de/filialen/kaufland/1"
"Kaufland Berlin-Reinickendorf","Ollenhauerstr. 122","13403","Berlin-Reinickendorf","https://www.meinprospekt.de/filialen/kaufland/1"
"Kaufland Berlin-Marzahn","Märkische Allee 166 168, 172","12681","Berlin-Marzahn","https://www.meinprospekt.de/filialen/kaufland/1"
"Kaufland Vogelsdorf","Frankfurter Chaussee 48","15370","Fredersdorf-Vogelsdorf","https://www.meinprospekt.de/filialen/kaufland/1"
"Kaufland Berlin-Alt-Hohenschönhaus.","Hauptstr. 9-10","13055","Berlin-Alt-Hohenschönhausen","https://www.meinprospekt.de/filialen/kaufland/1"
"Kaufland Berlin-Pankow","Breite Str. 19-21 A","13187","Berlin-Pankow","https://www.meinprospekt.de/filialen/kaufland/1"
"Kaufland Berlin-Heinersdorf","Romain-Rolland-Str. 13","13089","Berlin-Heinersdorf","https://www.meinprospekt.de/filialen/kaufland/1"
"Kaufland Eiche, Kaufpark","Landsberger Chaussee 17","16356","Eiche","https://www.meinprospekt.de/filialen/kaufland/1"
"Kaufland Berlin-Märkisches Viertel","Senftenberger Ring 15-17","13439","Berlin-Märkisches Viertel","https://www.meinprospekt.de/filialen/kaufland/1"
"Kaufland Berlin-Wittenau","Eichhorster Weg 96","13435","Berlin-Wittenau","https://www.meinprospekt.de/filialen/kaufland/1"
"Kaufland Frankfurt (Oder), Josef-Ge","Josef-Gesing-Str. 6","15234","Frankfurt (Oder)","https://www.meinprospekt.de/filialen/kaufland/1"
"Kaufland Frankfurt (Oder), Heilbron","Heilbronner Str. 30","15230","Frankfurt (Oder)","https://www.meinprospekt.de/filialen/kaufland/1"
"Kaufland Hennigsdorf","Postplatz 4-4c","16761","Hennigsdorf","https://www.meinprospekt.de/filialen/kaufland/1"
"Kaufland Frankfurt (Oder), Spitzkru","Spitzkrugring 1 A","15234","Frankfurt (Oder)","https://www.meinprospekt.de/filialen/kaufland/1"
"Kaufland Berlin-Buch","Walter-Friedrich-Str. 4","13125","Berlin-Buch","https://www.meinprospekt.de/filialen/kaufland/1"
"Kaufland Hohen Neuendorf","Schönfließer Str. 66","16540","Hohen Neuendorf","https://www.meinprospekt.de/filialen/kaufland/1"
"Kaufland Strausberg","Otto-Grotewohl-Ring 72","15344","Strausberg","https://www.meinprospekt.de/filialen/kaufland/1"
"Kaufland Oranienburg","Friedensstr. 8","16515","Oranienburg","https://www.meinprospekt.de/filialen/kaufland/1"
"Kaufland Seelow","Diedersdorfer Str. 12 a","15306","Seelow","https://www.meinprospekt.de/filialen/kaufland/1"
"Kaufland Neuruppin","Junckerstr. 26","16816","Neuruppin","https://www.meinprospekt.de/filialen/kaufland/1"
"Kaufland Wittenberge","Wahrenberger Str. 67","19322","Wittenberge","https://www.meinprospekt.de/filialen/kaufland/1"
"Kaufland Eberswalde, Eberswalder St","Eberswalder Str. 87","16227","Eberswalde-Finow","https://www.meinprospekt.de/filialen/kaufland/1"
"Kaufland Bad Freienwalde","Eduardshof 3","16259","Bad Freienwalde","https://www.meinprospekt.de/filialen/kaufland/1"
"Kaufland Eberswalde, Angermünder","Angermünder Str. 66","16225","Eberswalde","https://www.meinprospekt.de/filialen/kaufland/1"
"Kaufland Wittstock","Meyenburger Chaussee 36","16909","Wittstock","https://www.meinprospekt.de/filialen/kaufland/1"
"Kaufland Schwedt","Platz der Befreiung 6","16303","Schwedt","https://www.meinprospekt.de/filialen/kaufland/1"
"Kaufland Neustrelitz","Strelitzer Str. 24","17235","Neustrelitz","https://www.meinprospekt.de/filialen/kaufland/1"
"Kaufland Prenzlau","Georg-Dreke-Ring 60","17291","Prenzlau","https://www.meinprospekt.de/filialen/kaufland/1"
"Kaufland Schwerin","Hamburger Allee 140 d","19063","Schwerin-Mueßer Holz","https://www.meinprospekt.de/filialen/kaufland/1"
"Kaufland Neubrandenburg, Torfsteg","Torfsteg 11","17033","Neubrandenburg-Am Oberbach","https://www.meinprospekt.de/filialen/kaufland/1"
"Kaufland Neubrandenburg, J.-Gagarin","Juri-Gagarin-Ring 40","17036","Neubrandenburg-Oststadt","https://www.meinprospekt.de/filialen/kaufland/1"
"Kaufland Pasewalk","Stettiner Chaussee 1-3","17309","Pasewalk","https://www.meinprospekt.de/filialen/kaufland/1"
"Kaufland Demmin","Drönnewitzer Str. 1","17109","Demmin","https://www.meinprospekt.de/filialen/kaufland/1"
"Kaufland Rostock-Südstadt","Pütterweg 1","18059","Rostock-Südstadt","https://www.meinprospekt.de/filialen/kaufland/1"
"Kaufland Bentwisch, Hanse Center","Hansestr. 37","18182","Bentwisch","https://www.meinprospekt.de/filialen/kaufland/1"
"Kaufland Rostock-Schmarl","Handwerkstr. 1","18069","Rostock","https://www.meinprospekt.de/filialen/kaufland/1"
"Kaufland Salzwedel","Karl-Marx-Str. 13","29410","Salzwedel","https://www.meinprospekt.de/filialen/kaufland/2"
"Kaufland Bergen","Celler Str. 55","29303","Bergen","https://www.meinprospekt.de/filialen/kaufland/2"
"Kaufland Uelzen","Bahnhofstr. 2-4","29525","Uelzen","https://www.meinprospekt.de/filialen/kaufland/2"
"Kaufland Walsrode","Heinrich-Hertz-Str. 9","29664","Walsrode","https://www.meinprospekt.de/filialen/kaufland/2"
"Kaufland Verden","Schulstr. 22","27283","Verden (Aller)","https://www.meinprospekt.de/filialen/kaufland/2"
"Kaufland Lüneburg, Am Alten Eisenw.","Am Alten Eisenwerk 2","21339","Lüneburg-Goseburg-Zeltberg","https://www.meinprospekt.de/filialen/kaufland/2"
"Kaufland Lüneburg, Boecklerstr.","Boecklerstr. 7","21339","Lüneburg-Goseburg-Zeltberg","https://www.meinprospekt.de/filialen/kaufland/2"
"Kaufland Bremen-Sebaldsbrück","Sebaldsbrücker Heerstr. 155","28309","Bremen-Sebaldsbrück","https://www.meinprospekt.de/filialen/kaufland/2"
"Kaufland Delmenhorst-Annenriede","Reinersweg 2","27751","Delmenhorst-Annenriede","https://www.meinprospekt.de/filialen/kaufland/2"
"Kaufland Delmenhorst-Ströhen","Stedinger Str. 101","27753","Delmenhorst-Ströhen","https://www.meinprospekt.de/filialen/kaufland/2"
"Kaufland Bremen-Vegesack","Zum Alten Speicher 1","28759","Bremen","https://www.meinprospekt.de/filialen/kaufland/2"
"Kaufland Hamburg-Bergedorf","Bergedorfer Str. 106","21029","Hamburg-Bergedorf","https://www.meinprospekt.de/filialen/kaufland/2"
"Kaufland Hamburg-Neugraben-Fischbek","Marktpassage 5","21149","Hamburg-Neugraben-Fischbek","https://www.meinprospekt.de/filialen/kaufland/2"
"Kaufland Hamburg-Bahrenfeld","Stresemannstr. 300","22761","Hamburg-Bahrenfeld","https://www.meinprospekt.de/filialen/kaufland/2"
"Kaufland Hamburg-Wandsbek","Helbingtwiete 7/9","22047","Hamburg-Wandsbek","https://www.meinprospekt.de/filialen/kaufland/2"
"Kaufland Hamburg-Bramfeld","Bramfelder Dorfplatz 18","22179","Hamburg-Bramfeld","https://www.meinprospekt.de/filialen/kaufland/2"
"Kaufland Hamburg Nedderfeld-Center","Nedderfeld 70","22529","Hamburg-Eppendorf","https://www.meinprospekt.de/filialen/kaufland/2"
"Kaufland Hamburg-Altona, Lurup-Cent","Eckhoffplatz 1","22547","Hamburg","https://www.meinprospekt.de/filialen/kaufland/2"
"Kaufland Hamburg-Nord, Krohnstieg","Krohnstieg 4","22415","Hamburg-Langenhorn","https://www.meinprospekt.de/filialen/kaufland/2"
"Kaufland Papenburg, Dever Park","Deverweg 39-45","26871","Papenburg","https://www.meinprospekt.de/filialen/kaufland/2"
"Kaufland Stade","Freiburger Str. 2","21682","Stade","https://www.meinprospekt.de/filialen/kaufland/2"
"Kaufland Bremerhaven","Bohmsiel 1","27572","Bremerhaven","https://www.meinprospekt.de/filialen/kaufland/2"
"Kaufland Bad Oldesloe","Ratzeburger Str. 15,17,19","23843","Bad Oldesloe","https://www.meinprospekt.de/filialen/kaufland/2"
"Kaufland Henstedt-Ulzburg","Hamburger Str. 8","24558","Henstedt-Ulzburg","https://www.meinprospekt.de/filialen/kaufland/2"
"Kaufland Leer","Nüttermoorer Str. 2","26789","Leer","https://www.meinprospekt.de/filialen/kaufland/2"
"Kaufland Gägelow","Marktstr. 1","23968","Gägelow","https://www.meinprospekt.de/filialen/kaufland/2"
"Kaufland Wilhelmshaven","Friedenstr. 70","26386","Wilhelmshaven","https://www.meinprospekt.de/filialen/kaufland/2"
"Kaufland Bad Segeberg","Bahnhofstr. 7","23795","Bad Segeberg","https://www.meinprospekt.de/filialen/kaufland/2"
"Kaufland Itzehoe","Rudolf-Diesel-Str. 1","25524","Itzehoe","https://www.meinprospekt.de/filialen/kaufland/2"
"Kaufland Norden","Bahnhofstr. 1 a","26506","Norden","https://www.meinprospekt.de/filialen/kaufland/2"
"Kaufland Heide","Marschstr. 1","25746","Heide","https://www.meinprospekt.de/filialen/kaufland/2"
"Kaufland Kiel","Skandinaviendamm 299","24109","Kiel","https://www.meinprospekt.de/filialen/kaufland/2"
"Kaufland Fulda","Am Rosengarten 7","36037","Fulda","https://www.meinprospekt.de/filialen/kaufland/3"
"Kaufland Bad Salzungen","Bahnhofstr. 10","36433","Bad Salzungen","https://www.meinprospekt.de/filialen/kaufland/3"
"Kaufland Linden (b. Gießen)","Tannenweg 97","35440","Linden","https://www.meinprospekt.de/filialen/kaufland/3"
"Kaufland Lollar","Rothweg 4","35457","Lollar","https://www.meinprospekt.de/filialen/kaufland/3"
"Kaufland Wetzlar, Forum","Am Forum 1","35576","Wetzlar","https://www.meinprospekt.de/filialen/kaufland/3"
"Kaufland Schwalmstadt","Osttangente 6","34613","Schwalmstadt","https://www.meinprospekt.de/filialen/kaufland/3"
"Kaufland Eschwege","Thüringer Str. 28","37269","Eschwege","https://www.meinprospekt.de/filialen/kaufland/3"
"Kaufland Leinefelde","Bahnhofstr. 48","37327","Leinefelde-Worbis","https://www.meinprospekt.de/filialen/kaufland/3"
"Kaufland Biedenkopf","Auf der Breitenwiese 28","35216","Biedenkopf","https://www.meinprospekt.de/filialen/kaufland/3"
"Kaufland Göttingen-Innenstadt","Kurze-Geismar-Str. 26 28, 30","37073","Göttingen","https://www.meinprospekt.de/filialen/kaufland/3"
"Kaufland Göttingen-Weststadt","Elliehäuser Weg 23","37079","Göttingen","https://www.meinprospekt.de/filialen/kaufland/3"
"Kaufland Korbach","Flechtdorfer Str. 5","34497","Korbach","https://www.meinprospekt.de/filialen/kaufland/3"
"Kaufland Thale","Blankenburger Str. 37","06502","Thale","https://www.meinprospekt.de/filialen/kaufland/3"
"Kaufland Osterode","Herzberger Landstr. 8","37520","Osterode","https://www.meinprospekt.de/filialen/kaufland/3"
"Kaufland Northeim","Rückingsallee 2","37154","Northeim","https://www.meinprospekt.de/filialen/kaufland/3"
"Kaufland Staßfurt","Hecklinger Str. 50","39418","Staßfurt","https://www.meinprospekt.de/filialen/kaufland/3"
"Kaufland Wernigerode","Am Schreiberteich 3","38855","Wernigerode","https://www.meinprospekt.de/filialen/kaufland/3"
"Kaufland Halberstadt","Braunschweiger Str. 83-88","38820","Halberstadt","https://www.meinprospekt.de/filialen/kaufland/3"
"Kaufland Zerbst","Alte Brücke 3","39261","Zerbst","https://www.meinprospekt.de/filialen/kaufland/3"
"Kaufland Einbeck","Walter-Poser-Str. 2","37574","Einbeck","https://www.meinprospekt.de/filialen/kaufland/3"
"Kaufland Goslar","Hildesheimer Str. 52 A","38640","Goslar","https://www.meinprospekt.de/filialen/kaufland/3"
"Kaufland Schönebeck","Calbesche Str. 31","39218","Schönebeck","https://www.meinprospekt.de/filialen/kaufland/3"
"Kaufland Oschersleben","Lüneburger Str. 1","39387","Oschersleben","https://www.meinprospekt.de/filialen/kaufland/3"
"Kaufland Höxter","Brenkhäuser Str. 14","37671","Höxter","https://www.meinprospekt.de/filialen/kaufland/3"
"Kaufland Holzminden","Bülte 4","37603","Holzminden","https://www.meinprospekt.de/filialen/kaufland/3"
"Kaufland Magdeburg-Sudenburg","Halberstädter Str. 182-186","39112","Magdeburg","https://www.meinprospekt.de/filialen/kaufland/3"
"Kaufland Magdeburg-Stadtfeld Ost","Zum Handelshof 1","39108","Magdeburg","https://www.meinprospekt.de/filialen/kaufland/3"
"Kaufland Magdeburg City Carré","Kantstr. 5a","39104","Magdeburg","https://www.meinprospekt.de/filialen/kaufland/3"
"Kaufland Alfeld (Leine)","Sedanstr. 16-18","31061","Alfeld (Leine)","https://www.meinprospekt.de/filialen/kaufland/3"
"Kaufland Magdeburg-Neue Neustadt","Lübecker Str. 122","39124","Magdeburg-Neue Neustadt","https://www.meinprospekt.de/filialen/kaufland/3"
"Kaufland Paderborn-Kernstadt","Riemekestr. 37","33102","Paderborn-Kernstadt","https://www.meinprospekt.de/filialen/kaufland/3"
"Kaufland Paderborn-Schloß Neuhaus","Bentelerstr. 4","33104","Paderborn-Schloß Neuhaus-","https://www.meinprospekt.de/filialen/kaufland/3"
"Kaufland Salzgitter, City Carree","Albert-Schweitzer-Str. 1","38226","Salzgitter-Lebenstedt","https://www.meinprospekt.de/filialen/kaufland/3"
"Kaufland Helmstedt","Magdeburger Berg 5","38350","Helmstedt","https://www.meinprospekt.de/filialen/kaufland/3"
"Kaufland Braunschweig","Senefelderstr. 5","38124","Braunschweig","https://www.meinprospekt.de/filialen/kaufland/3"
"Kaufland Haldensleben","Friedrich-Schmelzer-Str. 2","39340","Haldensleben","https://www.meinprospekt.de/filialen/kaufland/3"
"Kaufland Hildesheim","Römerring 8-10","31137","Hildesheim","https://www.meinprospekt.de/filialen/kaufland/3"
"Kaufland Detmold","Ernst-Hilker-Str. 15","32758","Detmold","https://www.meinprospekt.de/filialen/kaufland/3"
"Kaufland Hameln, Multimarkt","Werkstr. 17","31789","Hameln","https://www.meinprospekt.de/filialen/kaufland/3"
"Kaufland Rheda-Wiedenbrück","Bahnhofstr. 36","33378","Rheda-Wiedenbrück","https://www.meinprospekt.de/filialen/kaufland/3"
"Kaufland Peine","Heinrich-Hertz-Str. 12","31228","Peine","https://www.meinprospekt.de/filialen/kaufland/3"
"Kaufland Genthin","Am Legefeld 4","39307","Genthin","https://www.meinprospekt.de/filialen/kaufland/3"
"Kaufland Laatzen","Münchener Str. 3","30880","Laatzen","https://www.meinprospekt.de/filialen/kaufland/3"
"Kaufland Gardelegen","Buschhorstweg 2","39638","Gardelegen","https://www.meinprospekt.de/filialen/kaufland/3"
"Kaufland Barsinghausen","Ladestr. 1","30890","Barsinghausen","https://www.meinprospekt.de/filialen/kaufland/3"
"Kaufland Hannover-Bornum","Bornumer Str. 141","30453","Hannover","https://www.meinprospekt.de/filialen/kaufland/3"
"Kaufland Herford","Werrestr. 69","32049","Herford","https://www.meinprospekt.de/filialen/kaufland/3"
"Kaufland Hannover-Mitte","Rundestr. 5","30161","Hannover-Mitte","https://www.meinprospekt.de/filialen/kaufland/3"
"Kaufland Bückeburg","Hannoversche Str. 15","31675","Bückeburg","https://www.meinprospekt.de/filialen/kaufland/3"
"Kaufland Hannover-Hainholz","Krepenstr. 5","30165","Hannover-Hainholz","https://www.meinprospekt.de/filialen/kaufland/3"
"Kaufland Stadthagen","Am Helweg 4","31655","Stadthagen-Probsthagen","https://www.meinprospekt.de/filialen/kaufland/3"
"Kaufland Stendal","Dr.-Kurt-Schumacher-Str. 1","39576","Stendal","https://www.meinprospekt.de/filialen/kaufland/3"
"Kaufland Remscheid, Brücken Center","Presover Str. 20","42859","Remscheid","https://www.meinprospekt.de/filialen/kaufland/4"
"Kaufland Solingen-Aufderhöhe","Friedenstr. 64","42699","Solingen","https://www.meinprospekt.de/filialen/kaufland/4"
"Kaufland Solingen-Wald","Stresemannstr. 37","42719","Solingen","https://www.meinprospekt.de/filialen/kaufland/4"
"Kaufland Monheim am Rhein","Friedrichstr. 20","40789","Monheim am Rhein","https://www.meinprospekt.de/filialen/kaufland/4"
"Kaufland Dortmund-Aplerbeck","Aplerbecker Marktplatz 7-10","44287","Dortmund-Aplerbeck","https://www.meinprospekt.de/filialen/kaufland/4"
"Kaufland Wuppertal","Kaiserstr. 39-41","42329","Wuppertal","https://www.meinprospekt.de/filialen/kaufland/4"
"Kaufland Dortmund-Hombruch","Luisenglück 43","44225","Dortmund-Hombruch","https://www.meinprospekt.de/filialen/kaufland/4"
"Kaufland Dortmund-Innenstadt-Ost","Körner Hellweg 142","44143","Dortmund-Körne","https://www.meinprospekt.de/filialen/kaufland/4"
"Kaufland Dortmund-Innenstadt-Nord","Bornstr. 160 a","44145","Dortmund","https://www.meinprospekt.de/filialen/kaufland/4"
"Kaufland Hattingen","Große Weilstr. 18-20","45525","Hattingen","https://www.meinprospekt.de/filialen/kaufland/4"
"Kaufland Bochum-Langendreer","Ümminger Str. 90","44892","Bochum-Langendreer","https://www.meinprospekt.de/filialen/kaufland/4"
"Kaufland Velbert","Friedrichstr. 262","42551","Velbert","https://www.meinprospekt.de/filialen/kaufland/4"
"Kaufland Lünen","Merschstr. 19","44534","Lünen","https://www.meinprospekt.de/filialen/kaufland/4"
"Kaufland Bochum-Harpen/Rosenb.","Am Einkaufszentrum 2","44791","Bochum-Harpen","https://www.meinprospekt.de/filialen/kaufland/4"
"Kaufland Dortmund-Mengede","Heimbrügge 5-7","44359","Dortmund-Mengede","https://www.meinprospekt.de/filialen/kaufland/4"
"Kaufland Grevenbroich, Montanushof","Ostwall 31","41515","Grevenbroich","https://www.meinprospekt.de/filialen/kaufland/4"
"Kaufland Castrop-Rauxel","Widumer Tor 1","44575","Castrop-Rauxel","https://www.meinprospekt.de/filialen/kaufland/4"
"Kaufland Bochum-Hofstede","Speicherstr. 2","44809","Bochum","https://www.meinprospekt.de/filialen/kaufland/4"
"Kaufland Düsseldorf","Professor-Neyses-Platz 5","40476","Düsseldorf-Derendorf","https://www.meinprospekt.de/filialen/kaufland/4"
"Kaufland Bochum-Wattenscheid","Alter Markt 1","44866","Bochum","https://www.meinprospekt.de/filialen/kaufland/4"
"Kaufland Neuss","Römerstr. 120","41462","Neuss","https://www.meinprospekt.de/filialen/kaufland/4"
"Kaufland Herne","Hauptstr. 211","44649","Herne","https://www.meinprospekt.de/filialen/kaufland/4"
"Kaufland Essen-Nordviertel","Berthold-Beitz-Boulevard 500","45141","Essen","https://www.meinprospekt.de/filialen/kaufland/4"
"Kaufland Essen-Altenessen-Nord","Altenessener Str. 411","45329","Essen","https://www.meinprospekt.de/filialen/kaufland/4"
"Kaufland Oer-Erkenschwick","Berliner Platz 14","45739","Oer-Erkenschwick","https://www.meinprospekt.de/filialen/kaufland/4"
"Kaufland Recklinghausen","Löhrhof 1","45657","Recklinghausen","https://www.meinprospekt.de/filialen/kaufland/4"
"Kaufland Essen-Borbeck-Mitte","Gerichtsstr. 25","45355","Essen-Borbeck-Mitte","https://www.meinprospekt.de/filialen/kaufland/4"
"Kaufland Herten, Rathaus Galerie","Kurt-Schumacher-Str. 3","45699","Herten","https://www.meinprospekt.de/filialen/kaufland/4"
"Kaufland Erkelenz","Antwerpener Str. 4","41812","Erkelenz","https://www.meinprospekt.de/filialen/kaufland/4"
"Kaufland Bottrop","Berliner Platz 8","46236","Bottrop","https://www.meinprospekt.de/filialen/kaufland/4"
"Kaufland Mönchengladbach","Aachener Str. 387","41069","Mönchengladbach","https://www.meinprospekt.de/filialen/kaufland/4"
"Kaufland Oberhausen-Alt-Oberhausen","Concordiastr. 32","46049","Oberhausen","https://www.meinprospekt.de/filialen/kaufland/4"
"Kaufland Hückelhoven","Am Landabsatz 7","41836","Hückelhoven","https://www.meinprospekt.de/filialen/kaufland/4"
"Kaufland Duisburg-Kaßlerfeld","Auf der Höhe 20","47059","Duisburg-Kaßlerfeld","https://www.meinprospekt.de/filialen/kaufland/4"
"Kaufland Marl, Lipper Weg","Lipper Weg 4","45770","Marl-Hüls","https://www.meinprospekt.de/filialen/kaufland/4"
"Kaufland Oberhausen-Sterkrade","Bahnhofstr. 57","46145","Oberhausen","https://www.meinprospekt.de/filialen/kaufland/4"
"Kaufland Duisburg-Ruhrort","Friedrich-Ebert-Str. 2","47119","Duisburg-Ruhrort","https://www.meinprospekt.de/filialen/kaufland/4"
"Kaufland Duisburg-Alt-Hamborn","Duisburger Str. 303","47166","Duisburg","https://www.meinprospekt.de/filialen/kaufland/4"
"Kaufland Duisburg-Hochheide","Kirchstr. 96","47198","Duisburg-Hochheide","https://www.meinprospekt.de/filialen/kaufland/4"
"Kaufland Duisburg-Aldenrade","Kometenplatz 10","47179","Duisburg-Aldenrade","https://www.meinprospekt.de/filialen/kaufland/4"
"Kaufland Viersen","Bruchweg 27","41751","Viersen-Dülken","https://www.meinprospekt.de/filialen/kaufland/4"
"Kaufland Dorsten, Mercaden","Westwall 61","46282","Dorsten","https://www.meinprospekt.de/filialen/kaufland/4"
"Kaufland Nettetal, Ludbach Passage","Johannes-Cleven-Str. 4","41334","Nettetal","https://www.meinprospekt.de/filialen/kaufland/4"
"Kaufland Kamp-Lintfort","Moerser Str. 290","47475","Kamp-Lintfort","https://www.meinprospekt.de/filialen/kaufland/4"
"Kaufland Lengerich","Ringeler Str. 24-26","49525","Lengerich","https://www.meinprospekt.de/filialen/kaufland/4"
"Kaufland Osnabrück","Kurt-Schumacher-Damm 52-54","49078","Osnabrück","https://www.meinprospekt.de/filialen/kaufland/4"
"Kaufland Coesfeld","Hansestr. 2 (gegenüber Bahnhof) 8","48653","Coesfeld","https://www.meinprospekt.de/filialen/kaufland/4"
"Kaufland Straelen","Beginenpad 5","47638","Straelen","https://www.meinprospekt.de/filialen/kaufland/4"
"Kaufland Geldern","Westwall 8","47608","Geldern","https://www.meinprospekt.de/filialen/kaufland/4"
"Kaufland Borken","Heidener Str. 32","46325","Borken","https://www.meinprospekt.de/filialen/kaufland/4"
"Kaufland Emsdetten","Katthagen 6-8","48282","Emsdetten","https://www.meinprospekt.de/filialen/kaufland/4"
"Kaufland Ahaus","Andreasstr. 3-5","48683","Ahaus","https://www.meinprospekt.de/filialen/kaufland/4"
"Kaufland Goch","Auf dem Wall 15","47574","Goch","https://www.meinprospekt.de/filialen/kaufland/4"
"Kaufland Bersenbrück","Robert-Bosch-Str. 4","49593","Bersenbrück","https://www.meinprospekt.de/filialen/kaufland/4"
"Kaufland Emmerich am Rhein","Normannstr. 31","46446","Emmerich am Rhein","https://www.meinprospekt.de/filialen/kaufland/4"
"Kaufland Kleve, Olmerstr.","Olmerstr. 1","47533","Kleve","https://www.meinprospekt.de/filialen/kaufland/4"
"Kaufland Kleve, Flutstr.","Flutstr. 81","47533","Kleve","https://www.meinprospekt.de/filialen/kaufland/4"
"Kaufland Nordhorn","Bentheimer Str. 118 B","48529","Nordhorn","https://www.meinprospekt.de/filialen/kaufland/4"
"Kaufland Cloppenburg","Soestenstr. 11","49661","Cloppenburg","https://www.meinprospekt.de/filialen/kaufland/4"
"Kaufland Meppen","Am Neuen Markt 1","49716","Meppen","https://www.meinprospekt.de/filialen/kaufland/4"
"Kaufland Oppenheim","Am Hohen Brückenweg 3","55276","Oppenheim","https://www.meinprospekt.de/filialen/kaufland/5"
"Kaufland Bad Kreuznach","Schwabenheimer Weg 5","55543","Bad Kreuznach","https://www.meinprospekt.de/filialen/kaufland/5"
"Kaufland Westerburg","Poststr. 7","56457","Westerburg","https://www.meinprospekt.de/filialen/kaufland/5"
"Kaufland Hermeskeil","An der Römerstr. 1","54411","Hermeskeil","https://www.meinprospekt.de/filialen/kaufland/5"
"Kaufland Bendorf","Hauptstr. 131","56170","Bendorf","https://www.meinprospekt.de/filialen/kaufland/5"
"Kaufland Neuwied, Galerie","Heddesdorfer Str. 11","56564","Neuwied","https://www.meinprospekt.de/filialen/kaufland/5"
"Kaufland Andernach, Einkaufswelt A.","Koblenzer Str. 51","56626","Andernach","https://www.meinprospekt.de/filialen/kaufland/5"
"Kaufland Siegen, Fludersbach","Fludersbach 126","57074","Siegen","https://www.meinprospekt.de/filialen/kaufland/5"
"Kaufland Mayen","Koblenzer Str. 174 A","56727","Mayen","https://www.meinprospekt.de/filialen/kaufland/5"
"Kaufland Kirchen","Siegstr. 14","57548","Kirchen","https://www.meinprospekt.de/filialen/kaufland/5"
"Kaufland Siegen, Hagener Str.","Hagener Str. 133","57072","Siegen","https://www.meinprospekt.de/filialen/kaufland/5"
"Kaufland Trier, Alleen Center","Ostallee 3-7","54290","Trier","https://www.meinprospekt.de/filialen/kaufland/5"
"Kaufland Trier, Aachener Str.","Aachener Str. 58","54294","Trier","https://www.meinprospekt.de/filialen/kaufland/5"
"Kaufland Konz","Saar-Mosel-Platz 2","54329","Konz","https://www.meinprospekt.de/filialen/kaufland/5"
"Kaufland Kreuztal","Marburger Str. 41","57223","Kreuztal/Westf.","https://www.meinprospekt.de/filialen/kaufland/5"
"Kaufland Sinzig","Industriestr. 10","53489","Sinzig","https://www.meinprospekt.de/filialen/kaufland/5"
"Kaufland Olpe","Martinstr. 36","57462","Olpe","https://www.meinprospekt.de/filialen/kaufland/5"
"Kaufland Bitburg","Kölner Str. 11","54634","Bitburg","https://www.meinprospekt.de/filialen/kaufland/5"
"Kaufland Gummersbach","Dieringhauser Str. 16","51645","Gummersbach","https://www.meinprospekt.de/filialen/kaufland/5"
"Kaufland Siegburg","Wilhelm-Ostwald-Str. 1 F","53721","Siegburg","https://www.meinprospekt.de/filialen/kaufland/5"
"Kaufland Lohmar","Walterscheid-Müller-Str. 14","53797","Lohmar","https://www.meinprospekt.de/filialen/kaufland/5"
"Kaufland Troisdorf","Theodor-Heuss-Ring 55","53840","Troisdorf","https://www.meinprospekt.de/filialen/kaufland/5"
"Kaufland Bonn","Oppelner Str. 128","53119","Bonn","https://www.meinprospekt.de/filialen/kaufland/5"
"Kaufland Arnsberg-Bruchhausen","Westring 10","59759","Arnsberg-Bruchhausen","https://www.meinprospekt.de/filialen/kaufland/5"
"Kaufland Halver","Bahnhofstr. 26","58553","Halver","https://www.meinprospekt.de/filialen/kaufland/5"
"Kaufland Bergisch Gladbach","Refrather Weg 1","51465","Bergisch Gladbach","https://www.meinprospekt.de/filialen/kaufland/5"
"Kaufland Köln-Merheim","Ostmerheimer Str. 198","51109","Köln-Merheim","https://www.meinprospekt.de/filialen/kaufland/5"
"Kaufland Köln-Kalk","Kalker Hauptstr. 112","51103","Köln","https://www.meinprospekt.de/filialen/kaufland/5"
"Kaufland Lippstadt","Planckstr. 1","59557","Lippstadt","https://www.meinprospekt.de/filialen/kaufland/5"
"Kaufland Köln-Mülheim","Frankfurter Str. 87 a","51065","Köln-Mülheim","https://www.meinprospekt.de/filialen/kaufland/5"
"Kaufland Iserlohn-Innenstadt","Theodor-Heuss-Ring 11","58636","Iserlohn","https://www.meinprospekt.de/filialen/kaufland/5"
"Kaufland Soest","Senator-Schwartz-Ring 24","59494","Soest","https://www.meinprospekt.de/filialen/kaufland/5"
"Kaufland Iserlohn","Raiffeisenstr. 5","58638","Iserlohn","https://www.meinprospekt.de/filialen/kaufland/5"
"Kaufland Köln-Niehl","Boltensternstr. 104-112","50735","Köln-Niehl","https://www.meinprospekt.de/filialen/kaufland/5"
"Kaufland Köln-Ehrenfeld","Thebäerstr. 9","50823","Köln-Ehrenfeld","https://www.meinprospekt.de/filialen/kaufland/5"
"Kaufland Menden","Holzener Str. 1-13","58708","Menden","https://www.meinprospekt.de/filialen/kaufland/5"
"Kaufland Hagen-Hohenlimburg","Auf dem Lölfert 50","58119","Hagen-Hohenlimburg","https://www.meinprospekt.de/filialen/kaufland/5"
"Kaufland Werl","Soester Str. 26","59457","Werl","https://www.meinprospekt.de/filialen/kaufland/5"
"Kaufland Hagen-Nord","Freiligrathstr. 51","58099","Hagen-Boele","https://www.meinprospekt.de/filialen/kaufland/5"
"Kaufland Kerpen","Sindorfer Str. 65-69","50171","Kerpen","https://www.meinprospekt.de/filialen/kaufland/5"
"Kaufland Gevelsberg","Großer Markt 7","58285","Gevelsberg","https://www.meinprospekt.de/filialen/kaufland/5"
"Kaufland Schwerte","Am Dohrbaum 6-8","58239","Schwerte","https://www.meinprospekt.de/filialen/kaufland/5"
"Kaufland Pulheim","Farehamstr. 1","50259","Pulheim","https://www.meinprospekt.de/filialen/kaufland/5"
"Kaufland Wetter (Ruhr), Ruhrtal C.","Carl-Bönnhoff-Str. 1","58300","Wetter","https://www.meinprospekt.de/filialen/kaufland/5"
"Kaufland Monschau","Auf Beuel 19","52156","Monschau","https://www.meinprospekt.de/filialen/kaufland/5"
"Kaufland Kamen","Zollpost 15","59174","Kamen","https://www.meinprospekt.de/filialen/kaufland/5"
"Kaufland Bergheim","Hauptstr. 23","50126","Bergheim","https://www.meinprospekt.de/filialen/kaufland/5"
"Kaufland Hamm-Mitte","Ökonomierat-Peitzmeier-Platz 2-4","59063","Hamm","https://www.meinprospekt.de/filialen/kaufland/5"
"Kaufland Beckum","Grevenbrede 10","59269","Beckum","https://www.meinprospekt.de/filialen/kaufland/5"
"Kaufland Hamm-Mitte, Wilhelmstr.","Wilhelmstr. 197","59067","Hamm","https://www.meinprospekt.de/filialen/kaufland/5"
"Kaufland Witten","Breite Str. 23","58452","Witten","https://www.meinprospekt.de/filialen/kaufland/5"
"Kaufland Bergkamen-Mitte","Töddinghauser Str. 150","59192","Bergkamen","https://www.meinprospekt.de/filialen/kaufland/5"
"Kaufland Hamm-Bockum-Hövel","Römerstr. 16","59075","Hamm-Bockum-Hövel","https://www.meinprospekt.de/filialen/kaufland/5"
"Kaufland Ahlen","Kleiwellenfeld 16","59229","Ahlen","https://www.meinprospekt.de/filialen/kaufland/5"
"Kaufland Bergkamen-Rünthe","An der Bummannsburg 1","59192","Bergkamen-Rünthe","https://www.meinprospekt.de/filialen/kaufland/5"
"Kaufland Stolberg (Rhld.)","Zweifaller Str. 68","52222","Stolberg (Rhld.)","https://www.meinprospekt.de/filialen/kaufland/5"
"Kaufland Würselen","Schumanstr. 4","52146","Würselen","https://www.meinprospekt.de/filialen/kaufland/5"
"Kaufland Aachen","Vaalser Str. 242-246","52074","Aachen","https://www.meinprospekt.de/filialen/kaufland/5"
"Kaufland Alsdorf","Bahnhofstr. 37","52477","Alsdorf","https://www.meinprospekt.de/filialen/kaufland/5"
"Kaufland Herzogenrath","Bahnhofstr. 25","52134","Herzogenrath","https://www.meinprospekt.de/filialen/kaufland/5"
"Kaufland Geilenkirchen","Herzog-Wilhelm-Str. 17-39","52511","Geilenkirchen","https://www.meinprospekt.de/filialen/kaufland/5"
"Kaufland Eberbach","Neuer Weg-Nord 47","69412","Eberbach","https://www.meinprospekt.de/filialen/kaufland/6"
"Kaufland Heidelberg-Rohrbach","Hertzstr. 1","69126","Heidelberg","https://www.meinprospekt.de/filialen/kaufland/6"
"Kaufland Michelstadt","Friedrich-Ebert-Str. 15-17","64720","Michelstadt","https://www.meinprospekt.de/filialen/kaufland/6"
"Kaufland Heidelberg-Weststadt","Kurfürsten-Anlage 61","69115","Heidelberg","https://www.meinprospekt.de/filialen/kaufland/6"
"Kaufland Heidelberg-Pfaffengrund","Eppelheimer Str. 78","69123","Heidelberg","https://www.meinprospekt.de/filialen/kaufland/6"
"Kaufland Dossenheim","Gewerbestr. 19","69221","Dossenheim","https://www.meinprospekt.de/filialen/kaufland/6"
"Kaufland Schwetzingen","Carl-Theodor-Str. 33","68723","Schwetzingen","https://www.meinprospekt.de/filialen/kaufland/6"
"Kaufland Speyer","Auestr. 22","67346","Speyer","https://www.meinprospekt.de/filialen/kaufland/6"
"Kaufland Aschaffenburg","Würzburger Str. 144-148","63743","Aschaffenburg","https://www.meinprospekt.de/filialen/kaufland/6"
"Kaufland Schifferstadt","Waldspitzweg 1","67105","Schifferstadt","https://www.meinprospekt.de/filialen/kaufland/6"
"Kaufland Mannheim","Maybachstr. 28","68169","Mannheim","https://www.meinprospekt.de/filialen/kaufland/6"
"Kaufland Dieburg","Im Flürchen 3","64807","Dieburg","https://www.meinprospekt.de/filialen/kaufland/6"
"Kaufland Frankenthal","Wormser Str. 109","67227","Frankenthal","https://www.meinprospekt.de/filialen/kaufland/6"
"Kaufland Pfungstadt","Eberstädter Str. 200","64319","Pfungstadt","https://www.meinprospekt.de/filialen/kaufland/6"
"Kaufland Gelnhausen","Weißkirchenweg 11","63571","Gelnhausen","https://www.meinprospekt.de/filialen/kaufland/6"
"Kaufland Rödermark","Ober-Rodener Str. 13 15, 17","63322","Rödermark","https://www.meinprospekt.de/filialen/kaufland/6"
"Kaufland Worms, Schönauer Str.","Schönauer Str. 8","67547","Worms","https://www.meinprospekt.de/filialen/kaufland/6"
"Kaufland Worms, Mainzer Str.","Mainzer Str. 150","67547","Worms","https://www.meinprospekt.de/filialen/kaufland/6"
"Kaufland Weiterstadt","Rudolf-Diesel-Str. 26 A","64331","Weiterstadt","https://www.meinprospekt.de/filialen/kaufland/6"
"Kaufland Hanau","Am Steinheimer Tor 3","63450","Hanau","https://www.meinprospekt.de/filialen/kaufland/6"
"Kaufland Grünstadt","Kirchheimer Str. 39","67269","Grünstadt","https://www.meinprospekt.de/filialen/kaufland/6"
"Kaufland Frankfurt am Main","Wächtersbacher Str. 75","60386","Frankfurt am Main","https://www.meinprospekt.de/filialen/kaufland/6"
"Kaufland Raunheim, EKZ Mainspitze","Flörsheimer Str. 3","65479","Raunheim","https://www.meinprospekt.de/filialen/kaufland/6"
"Kaufland Rüsselsheim","Alzeyer Str. 11","65428","Rüsselsheim","https://www.meinprospekt.de/filialen/kaufland/6"
"Kaufland Pirmasens-Innenstadt","Wiesenstr. 5","66954","Pirmasens","https://www.meinprospekt.de/filialen/kaufland/6"
"Kaufland Kaiserslautern","Pariser Str. 123","67655","Kaiserslautern","https://www.meinprospekt.de/filialen/kaufland/6"
"Kaufland Pirmasens-Fehrbach","Zweibrücker Str. 230","66954","Pirmasens-Fehrbach","https://www.meinprospekt.de/filialen/kaufland/6"
"Kaufland Bad Nauheim","Kettelerstr. 10","61231","Bad Nauheim","https://www.meinprospekt.de/filialen/kaufland/6"
"Kaufland Landstuhl","Torfstr. 10","66849","Landstuhl","https://www.meinprospekt.de/filialen/kaufland/6"
"Kaufland Neunkirchen","Kirkeler Str. 50","66538","Neunkirchen","https://www.meinprospekt.de/filialen/kaufland/6"
"Kaufland St. Ingbert","Grubenweg 7","66386","St. Ingbert","https://www.meinprospekt.de/filialen/kaufland/6"
"Kaufland Limburg","Westerwaldstr. 111-113","65549","Limburg","https://www.meinprospekt.de/filialen/kaufland/6"
"Kaufland Riegelsberg","Saarbrücker Str. 262","66292","Riegelsberg","https://www.meinprospekt.de/filialen/kaufland/6"
"Kaufland Völklingen","Hallerstr. 21","66333","Völklingen","https://www.meinprospekt.de/filialen/kaufland/6"
"Kaufland Lebach","Poststr. 9","66822","Lebach","https://www.meinprospekt.de/filialen/kaufland/6"
"Kaufland Schmelz","Franz-Birringer-Str. 27","66839","Schmelz","https://www.meinprospekt.de/filialen/kaufland/6"
"Kaufland Dillingen/Saar","Daimlerstr. 4","66763","Dillingen","https://www.meinprospekt.de/filialen/kaufland/6"
"Kaufland Merzig","Rieffstr. 8-12","66663","Merzig","https://www.meinprospekt.de/filialen/kaufland/6"
,,,,"https://www.meinprospekt.de/filialen/kaufland/7"
"Kaufland München-Berg am Laim","Berg-am-Laim-Str. 117","81673","München","https://www.meinprospekt.de/filialen/kaufland/8"
"Kaufland München-Moosach","Bunzlauer Platz 5-7","80992","München-Moosach","https://www.meinprospekt.de/filialen/kaufland/8"
"Kaufland München-Neuperlach, PEP","Ollenhauerstr. 4","81737","München","https://www.meinprospekt.de/filialen/kaufland/8"
"Kaufland Gröbenzell","Danziger Str. 17","82194","Gröbenzell","https://www.meinprospekt.de/filialen/kaufland/8"
"Kaufland Dachau","Danziger Str. 1","85221","Dachau","https://www.meinprospekt.de/filialen/kaufland/8"
"Kaufland Unterschleißheim","Andreas-Danzer-Weg 2","85716","Unterschleißheim","https://www.meinprospekt.de/filialen/kaufland/8"
"Kaufland Markt Schwaben","Burgerfeld 8","85570","Markt Schwaben","https://www.meinprospekt.de/filialen/kaufland/8"
"Kaufland Erding","Dachauer Str. 61","85435","Erding","https://www.meinprospekt.de/filialen/kaufland/8"
"Kaufland Freising, FMZ Freising","Raiffeisenstr. 25","85356","Freising","https://www.meinprospekt.de/filialen/kaufland/8"
"Kaufland Geretsried","Bayerwaldstr. 2","82538","Geretsried","https://www.meinprospekt.de/filialen/kaufland/8"
"Kaufland Pfaffenhofen, Max-Weinb.","Max-Weinberger-Str. 9","85276","Pfaffenhofen","https://www.meinprospekt.de/filialen/kaufland/8"
"Kaufland Bad Aibling","Grassinger Str. 16","83043","Bad Aibling","https://www.meinprospekt.de/filialen/kaufland/8"
"Kaufland Bad Tölz","Lenggrieser Str. 47","83646","Bad Tölz","https://www.meinprospekt.de/filialen/kaufland/8"
"Kaufland Pfaffenhofen, J.-Fraunhof.","Joseph-Fraunhofer-Str. 31","85276","Pfaffenhofen","https://www.meinprospekt.de/filialen/kaufland/8"
"Kaufland Moosburg","Degernpoint M1","85368","Moosburg","https://www.meinprospekt.de/filialen/kaufland/8"
"Kaufland Friedberg","Marquardtstr. 1","86316","Friedberg","https://www.meinprospekt.de/filialen/kaufland/8"
"Kaufland Rosenheim","Äußere Münchener Str. 100","83026","Rosenheim","https://www.meinprospekt.de/filialen/kaufland/8"
"Kaufland Schrobenhausen","Augsburger Str. 43","86529","Schrobenhausen","https://www.meinprospekt.de/filialen/kaufland/8"
"Kaufland Landsberg, Am Penz. Feld","Am Penzinger Feld 21","86899","Landsberg Am Lech","https://www.meinprospekt.de/filialen/kaufland/8"
"Kaufland Königsbrunn","Germanenstr. 16","86343","Königsbrunn","https://www.meinprospekt.de/filialen/kaufland/8"
"Kaufland Augsburg-Lechhausen, EGM","Meraner Str. 6","86165","Augsburg","https://www.meinprospekt.de/filialen/kaufland/8"
"Kaufland Peißenberg","Schongauer Str. 20","82380","Peißenberg","https://www.meinprospekt.de/filialen/kaufland/8"
"Kaufland Augsburg-Göggingen","Gögginger Str. 119","86199","Augsburg","https://www.meinprospekt.de/filialen/kaufland/8"
"Kaufland Landshut","Ludwig-Erhard-Str. 9","84034","Landshut","https://www.meinprospekt.de/filialen/kaufland/8"
"Kaufland Augsburg-Oberhausen","Biberbachstr. 10","86154","Augsburg","https://www.meinprospekt.de/filialen/kaufland/8"
"Kaufland Waldkraiburg","Teplitzer Str. 12-14","84478","Waldkraiburg","https://www.meinprospekt.de/filialen/kaufland/8"
"Kaufland Neusäß","Daimlerstr. 18","86356","Neusäß","https://www.meinprospekt.de/filialen/kaufland/8"
"Kaufland Ingolstadt, Münchener Str.","Münchener Str. 146","85051","Ingolstadt","https://www.meinprospekt.de/filialen/kaufland/8"
"Kaufland Ingolstadt-Nordwest","Richard-Wagner-Str. 40","85057","Ingolstadt","https://www.meinprospekt.de/filialen/kaufland/8"
"Kaufland Kaufbeuren","Augsburger Str. 28","87600","Kaufbeuren","https://www.meinprospekt.de/filialen/kaufland/8"
"Kaufland Traunreut","Trostberger Str. 23","83301","Traunreut","https://www.meinprospekt.de/filialen/kaufland/8"
"Kaufland Neuötting","Nagelschmiedstr. 6","84524","Neuötting","https://www.meinprospekt.de/filialen/kaufland/8"
"Kaufland Traunstein","Theresienstr. 2","83278","Traunstein","https://www.meinprospekt.de/filialen/kaufland/8"
"Kaufland Dingolfing","Frontenhausener Str. 1","84130","Dingolfing","https://www.meinprospekt.de/filialen/kaufland/8"
"Kaufland Donauwörth","Neurieder Weg 33","86609","Donauwörth","https://www.meinprospekt.de/filialen/kaufland/8"
"Kaufland Burghausen","Lindach 10","84489","Burghausen","https://www.meinprospekt.de/filialen/kaufland/8"
"Kaufland Krumbach","Brühlstr. 4","86381","Krumbach","https://www.meinprospekt.de/filialen/kaufland/8"
"Kaufland Eggenfelden","Lindhofstr. 10","84307","Eggenfelden","https://www.meinprospekt.de/filialen/kaufland/8"
"Kaufland Dillingen a.d.Donau","Johannes-Scheiffele-Str. 3-7","89407","Dillingen a.d.Donau","https://www.meinprospekt.de/filialen/kaufland/8"
"Kaufland Freilassing","Verdistr. 15","83395","Freilassing","https://www.meinprospekt.de/filialen/kaufland/8"
"Kaufland Giengen an der Brenz","Marktstr. 86","89537","Giengen an der Brenz","https://www.meinprospekt.de/filialen/kaufland/8"
"Kaufland Vöhringen","Industriestr. 37","89269","Vöhringen","https://www.meinprospekt.de/filialen/kaufland/8"
"Kaufland Nördlingen, EGM","Raiffeisenstr. 4","86720","Nördlingen","https://www.meinprospekt.de/filialen/kaufland/8"
"Kaufland Langenau","Olgastr. 4","89129","Langenau","https://www.meinprospekt.de/filialen/kaufland/8"
"Kaufland Neu-Ulm, Memminger Str.","Memminger Str. 54","89231","Neu-Ulm","https://www.meinprospekt.de/filialen/kaufland/8"
"Kaufland Ulm","Blaubeurer Str. 29","89077","Ulm","https://www.meinprospekt.de/filialen/kaufland/8"
"Kaufland Heidenheim, Aalener Str.","Aalener Str. 20","89520","Heidenheim an der Brenz","https://www.meinprospekt.de/filialen/kaufland/8"
"Kaufland Heidenheim, Wilhelmstr.","Wilhelmstr. 148","89518","Heidenheim an der Brenz","https://www.meinprospekt.de/filialen/kaufland/8"
"Kaufland Erbach","Heinrich-Hammer-Str. 6","89155","Erbach","https://www.meinprospekt.de/filialen/kaufland/8"
"Kaufland Laupheim","Ulmer Str. 13","88471","Laupheim","https://www.meinprospekt.de/filialen/kaufland/8"
"Kaufland Biberach an der Riß","Obere Stegwiesen 10","88400","Biberach an der Riß","https://www.meinprospekt.de/filialen/kaufland/8"
"Kaufland Ehingen","Biberacher Str. 69","89584","Ehingen","https://www.meinprospekt.de/filialen/kaufland/8"
"Kaufland Weingarten","Karlstr. 21","88250","Weingarten","https://www.meinprospekt.de/filialen/kaufland/8"
"Kaufland Ravensburg","Weißenauer Str. 15","88214","Ravensburg","https://www.meinprospekt.de/filialen/kaufland/8"
"Kaufland Bad Saulgau","Platzstr. 24","88348","Bad Saulgau","https://www.meinprospekt.de/filialen/kaufland/8"
"Kaufland Tettnang","Klausenburger Str. 12","88069","Tettnang","https://www.meinprospekt.de/filialen/kaufland/8"
"Kaufland Eriskirch","Friedrichshafener Str. 39","88097","Eriskirch","https://www.meinprospekt.de/filialen/kaufland/8"
"Kaufland Friedrichshafen","Ailinger Str. 109","88046","Friedrichshafen","https://www.meinprospekt.de/filialen/kaufland/8"
"Kaufland Friedrichshafen, Stockerh.","Stockerholzstr. 12","88048","Friedrichshafen","https://www.meinprospekt.de/filialen/kaufland/8"
"Kaufland Überlingen","Nußdorfer Str. 101","88662","Überlingen am Bodensee","https://www.meinprospekt.de/filialen/kaufland/8"
"Kaufland Neustadt a.d.Donau","Gewerbepark 48","93333","Neustadt a.d.Donau","https://www.meinprospekt.de/filialen/kaufland/9"
"Kaufland Landau a.d.Isar","Straubinger Str. 64","94405","Landau a.d.Isar","https://www.meinprospekt.de/filialen/kaufland/9"
"Kaufland Regensburg-Innenstadt","Friedenstr. 23","93053","Regensburg","https://www.meinprospekt.de/filialen/kaufland/9"
"Kaufland Regensburg-Reinhausen","Hans-Hayder-Str. 2","93059","Regensburg","https://www.meinprospekt.de/filialen/kaufland/9"
"Kaufland Weißenburg","Eichstätter Str. 29","91781","Weißenburg","https://www.meinprospekt.de/filialen/kaufland/9"
"Kaufland Straubing, Hebbelstr.","Hebbelstr. 6","94315","Straubing","https://www.meinprospekt.de/filialen/kaufland/9"
"Kaufland Gunzenhausen","Ansbacher Str. 11","91710","Gunzenhausen","https://www.meinprospekt.de/filialen/kaufland/9"
"Kaufland Neumarkt i.d.OPf.","Altdorfer Str. 63","92318","Neumarkt i.d.OPf.","https://www.meinprospekt.de/filialen/kaufland/9"
"Kaufland Roth","Friedrich-Wambsganz-Str. 1","91154","Roth","https://www.meinprospekt.de/filialen/kaufland/9"
"Kaufland Vilshofen an der Donau","Hösamer Feld 7","94474","Vilshofen an der Donau","https://www.meinprospekt.de/filialen/kaufland/9"
"Kaufland Burgthann","Espenpark 30","90559","Burgthann","https://www.meinprospekt.de/filialen/kaufland/9"
"Kaufland Pocking","Passauer Str. 160","94060","Pocking","https://www.meinprospekt.de/filialen/kaufland/9"
"Kaufland Wendelstein","Rother Str. 1 B","90530","Wendelstein","https://www.meinprospekt.de/filialen/kaufland/9"
"Kaufland Cham","Rodinger Str. 22","93413","Cham","https://www.meinprospekt.de/filialen/kaufland/9"
"Kaufland Passau","Neuburger Str. 128","94036","Passau","https://www.meinprospekt.de/filialen/kaufland/9"
"Kaufland Nürnberg-Langwasser","Oppelner Str. 223","90473","Nürnberg-Langwasser","https://www.meinprospekt.de/filialen/kaufland/9"
"Kaufland Amberg","Am Bergsteig 1","92224","Amberg","https://www.meinprospekt.de/filialen/kaufland/9"
"Kaufland Feuchtwangen","Dinkelsbühler Str. 34","91555","Feuchtwangen","https://www.meinprospekt.de/filialen/kaufland/9"
"Kaufland Nürnberg-Gibitzenhof","Dianaplatz 23-25","90443","Nürnberg","https://www.meinprospekt.de/filialen/kaufland/9"
"Kaufland Ansbach","Ritter-von-Lang-Allee 7","91522","Ansbach","https://www.meinprospekt.de/filialen/kaufland/9"
"Kaufland Nürnberg-St. Leonhard","Schwabacher Str. 99","90439","Nürnberg","https://www.meinprospekt.de/filialen/kaufland/9"
"Kaufland Oberasbach","Rothenburger Str. 70","90522","Oberasbach","https://www.meinprospekt.de/filialen/kaufland/9"
"Kaufland Sulzbach-Rosenberg","Krötenseestr. 1","92237","Sulzbach-Rosenberg","https://www.meinprospekt.de/filialen/kaufland/9"
"Kaufland Nürnberg-Eberhardshof","Fürther Str. 187","90429","Nürnberg","https://www.meinprospekt.de/filialen/kaufland/9"
"Kaufland Hauzenberg","Florianstr. 1","94051","Hauzenberg","https://www.meinprospekt.de/filialen/kaufland/9"
"Kaufland Erlangen-Röthelheimpark","Carl-Thiersch-Str. 4","91052","Erlangen","https://www.meinprospekt.de/filialen/kaufland/9"
"Kaufland Erlangen-Altstadt","Westl. Stadtmauerstr. 27","91054","Erlangen","https://www.meinprospekt.de/filialen/kaufland/9"
"Kaufland Rothenburg ob der Tauber","Bahnhofstr. 15","91541","Rothenburg","https://www.meinprospekt.de/filialen/kaufland/9"
"Kaufland Bad Windsheim","Rothenburger Str. 47","91438","Bad Windsheim","https://www.meinprospekt.de/filialen/kaufland/9"
"Kaufland Weiden in der Oberpfalz","Untere Bauscherstr. 25","92637","Weiden in der Oberpfalz","https://www.meinprospekt.de/filialen/kaufland/9"
"Kaufland Neustadt an der Aisch","Robert-Bosch-Str. 2","91413","Neustadt an der Aisch","https://www.meinprospekt.de/filialen/kaufland/9"
"Kaufland Pegnitz, Admira Center","Nürnberger Str. 22","91257","Pegnitz","https://www.meinprospekt.de/filialen/kaufland/9"
"Kaufland Höchstadt","Rothenburger Str. 19","91315","Höchstadt","https://www.meinprospekt.de/filialen/kaufland/9"
"Kaufland Igersheim","Hermann-von-Mittnacht-Str. 10","97999","Igersheim","https://www.meinprospekt.de/filialen/kaufland/9"
"Kaufland Bamberg","Forchheimer Str. 15","96050","Bamberg","https://www.meinprospekt.de/filialen/kaufland/9"
"Kaufland Bayreuth","Weiherstr. 27","95448","Bayreuth","https://www.meinprospekt.de/filialen/kaufland/9"
"Kaufland Bischberg","Industriestr. 9","96120","Bischberg-Trosdorf","https://www.meinprospekt.de/filialen/kaufland/9"
"Kaufland Kitzingen","Am Dreistock 12","97318","Kitzingen","https://www.meinprospekt.de/filialen/kaufland/9"
"Kaufland Marktredwitz","Leopoldstr. 30","95615","Marktredwitz","https://www.meinprospekt.de/filialen/kaufland/9"
"Kaufland Lichtenfels","Robert-Koch-Str. 5","96215","Lichtenfels","https://www.meinprospekt.de/filialen/kaufland/9"
"Kaufland Münchberg","Stammbacher Str. 3","95213","Münchberg","https://www.meinprospekt.de/filialen/kaufland/9"
"Kaufland Schweinfurt","Hauptbahnhofstr. 4","97424","Schweinfurt","https://www.meinprospekt.de/filialen/kaufland/9"
"Kaufland Wertheim","Bismarckstr. 26","97877","Wertheim a. Main","https://www.meinprospekt.de/filialen/kaufland/9"
"Kaufland Hof, Hans-Böckler-Str.","Hans-Böckler-Str. 19","95032","Hof","https://www.meinprospekt.de/filialen/kaufland/9"
"Kaufland Naila","Dr.-Hans-Künzel-Str. 1","95119","Naila","https://www.meinprospekt.de/filialen/kaufland/9"
"Kaufland Sonneberg","Bettelhecker Str. 155","96515","Sonneberg","https://www.meinprospekt.de/filialen/kaufland/9"
"Kaufland Bad Kissingen","Steubenstr. 1","97688","Bad Kissingen","https://www.meinprospekt.de/filialen/kaufland/9"
"Kaufland Hildburghausen","Eisfelder Str. 60","98646","Hildburghausen","https://www.meinprospekt.de/filialen/kaufland/9"
"Kaufland Bad Neustadt a.d.Saale","Meininger Str. 10","97616","Bad Neustadt a.d.Saale","https://www.meinprospekt.de/filialen/kaufland/9"
"Kaufland Suhl","Würzburger Str. 1","98529","Suhl","https://www.meinprospekt.de/filialen/kaufland/9"
"Kaufland Meiningen","Werrastr. 14","98617","Obermaßfeld-Grimmenthal","https://www.meinprospekt.de/filialen/kaufland/9"
"Kaufland Ilmenau","Mühltor 1","98693","Ilmenau","https://www.meinprospekt.de/filialen/kaufland/9"
"Kaufland Schmalkalden","Steinerne Wiese 39","98574","Schmalkalden","https://www.meinprospekt.de/filialen/kaufland/9"
"Kaufland Arnstadt","Alfred-Ley-Str. 12","99310","Arnstadt","https://www.meinprospekt.de/filialen/kaufland/9"
"Kaufland Weimar","Humboldtstr. 90","99425","Weimar","https://www.meinprospekt.de/filialen/kaufland/9"
"Kaufland Erfurt-Herrenberg","Kranichfelder Str. 103","99097","Erfurt-Melchendorf","https://www.meinprospekt.de/filialen/kaufland/9"
"Kaufland Gotha","Bürgeraue 2","99867","Gotha","https://www.meinprospekt.de/filialen/kaufland/9"
"Kaufland Erfurt-Krämpfervorstadt","Leipziger Str. 78a","99085","Erfurt","https://www.meinprospekt.de/filialen/kaufland/9"
"Kaufland Apolda","Bernhard-Prager-Gasse 1-7","99510","Apolda","https://www.meinprospekt.de/filialen/kaufland/9"
"Kaufland Erfurt-Gispersleben","Nordhäuser Str. 73t","99091","Erfurt-Moskauer Platz","https://www.meinprospekt.de/filialen/kaufland/9"
"Kaufland Eisenach, PEP","Neue Wiese 1","99817","Eisenach-Hötzelsroda","https://www.meinprospekt.de/filialen/kaufland/9"
"Kaufland Bad Langensalza","Lindenbühl 11","99947","Bad Langensalza","https://www.meinprospekt.de/filialen/kaufland/9"
"Kaufland Sömmerda","Mainzer Str. 20","99610","Sömmerda","https://www.meinprospekt.de/filialen/kaufland/9"
"Kaufland Mühlhausen","Papiermühlenweg 18","99974","Mühlhausen","https://www.meinprospekt.de/filialen/kaufland/9"
"Kaufland Sondershausen","Frankenhäuser Str. 1 A-D 1A","99706","Sondershausen","https://www.meinprospekt.de/filialen/kaufland/9"
