"nameCompany","streetAddress","postalCode","addressLocality"
"Lidl","Adorfer Str. 49","08258","Markneukirchen-Siebenbrunn"
"Lidl","Holzhofstr. 4","08248","Klingenthal"
"Lidl","Schleizer Str. 49","07926","Gefell"
"Lidl","Zum Tännig 2","07356","Bad Lobenstein"
"Lidl","Plauensche Str. 67","08606","Oelsnitz/Vogtl."
"Lidl","Hofer Str. 21","08527","Plauen"
"Lidl","Göltzschtalstr. 47","08209","Auerbach"
"Lidl","Geraer Str. 21","07907","Schleiz"
"Lidl","Lengenfelder Str. 3","08228","Rodewisch"
"Lidl","Oststr. 96","08233","Treuen"
"Lidl","Melanchthonstr. 34","07318","Saalfeld/Saale"
"Lidl","Fingersteinstr. 22","07318","Saalfeld/Saale"
"Lidl","Karlsbader Str. 42","08340","Schwarzenberg"
"Lidl","Schopperstr. 32c","07937","Zeulenroda"
"Lidl","Zwickauer Str. 97","08468","Reichenbach"
"Lidl","August-Bebel-Str. 21","07973","Greiz-Irchwitz"
"Lidl","Kobaltstr. 2 a","08289","Schneeberg"
"Lidl","Neustädter Str. 149","07381","Pößneck"
"Lidl","Dr.-Otto-Nuschke-Str. 9","08280","Aue"
"Lidl","Schwarzburger Chaussee 59-61","07407","Rudolstadt-Volkstedt"
"Lidl","Frenzelstr. 2","07407","Rudolstadt-Volkstedt"
"Lidl","Schleizer Str. 10","07806","Neustadt/Orla"
"Lidl","Zwickauer Str. 39","08112","Wilkau-Haßlau"
"Lidl","Chemnitzer Str. 42","09456","Annaberg-Buchholz"
"Lidl","Am Fuchsgraben 21","08056","Zwickau-Schedewitz"
"Lidl","Marienthaler Str. 53","08060","Zwickau"
"Lidl","Crimmitschauer Str. 8","08412","Werdau"
"Lidl","Christian-Eckhardt-Str. 40","07768","Kahla"
"Lidl","Leipziger Str. 168","08058","Zwickau"
"Lidl","Stollberger Str. 7","09399","Niederwürschnitz"
"Lidl","Chemnitzer Str. 27","09366","Stollberg-Hoheneck"
"Lidl","Amselstr. 2","08451","Crimmitschau"
"Lidl","Str. des Friedens 32/34","07548","Gera"
"Lidl","Hans-Lorenz-Str. 1","08371","Glauchau"
"Lidl","Äußere Crimmitschauer Str. 86","08393","Meerane-Waldsachsen"
"Lidl","Rudolstädter Str. 31","07743","Jena"
"Lidl","Langenberger Str. 21","07552","Gera-Langenberg"
"Lidl Vertriebs GmbH & Co. KG","Am Flugplatz 5","07546","Gera-Trebnitz"
"Lidl","Dresdner Str. 122","09337","Hohenstein-Ernstthal"
"Lidl","Eisenberger Str. 120","07629","Hermsdorf"
"Lidl","Str. des Bergmanns 10","07545","Gera"
"Lidl","Paul-Bertz-Str. 14","09120","Chemnitz-Helbersdorf"
"Lidl","Ronneburger Str. 118 A","04626","Schmölln"
"Lidl","Camburger Str. 26","07743","Jena"
"Lidl","Zwickauer Str. 391 - 393","09117","Chemnitz-Siegmar"
"Lidl","Zwickauer Str. 160","09116","Chemnitz-Kappel"
"Lidl","Wilhelm-Raabe-Str. 52","09120","Chemnitz-Altchemnitz"
"Lidl","Limbacher Str. 208","09116","Chemnitz-Altendorf"
"Lidl","Zschopauer Str. 184","09126","Chemnitz-Gablenz"
"Lidl","Chemnitzer Str. 40","09212","Limbach-Oberfrohna"
"Lidl","Limbacher Str. 31","09116","Chemnitz"
"Lidl","Fürstenstr. 5","09130","Chemnitz-Zentrum"
"Lidl","Jenaer Str. 1-5","07607","Eisenberg"
"Lidl","Eckstr. 4","09111","Chemnitz-Zentrum"
"Lidl","Augustusburger Str. 92 - 94","09557","Flöha"
"Lidl","Chemnitzer Str. 98a","09322","Penig-Tauscha"
"Lidl","Lödlaer Chaussee 2","04617","Lödla"
"Lidl","Kauerndorfer Allee 10","04600","Altenburg"
"Lidl","Geußnitzer Straße","06712","Zeitz"
"Lidl","Chemnitzer Str. 59","09669","Frankenberg"
"Lidl","Friedensstr. 27","06712","Zeitz"
"Lidl","Baderdamm 17","04610","Meuselwitz"
"Lidl","Wiesenmühlenweg 1","04654","Frohburg"
"Lidl","Bahnhofstr. 8-10","09648","Mittweida"
"Lidl","Olbernhauer Str. 45-47","09599","Freiberg"
"Lidl","August-Bebel-Str. 1","09661","Hainichen"
"Lidl","Salinenstr. 8","06628","Bad Kösen (Saale)"
"Lidl","Grimmaische Str. 37 - 39","04643","Geithain"
"Lidl","Rosa-Luxemburg-Str. 30","06618","Naumburg (Saale)"
"Lidl","Lobstädter Str. 17","04552","Borna"
"Lidl","Groitzscher Fußweg 1","04523","Pegau"
"Lidl","Alte Altenberger Str. 36","01744","Dippoldiswalde"
"Lidl","Hauptstr. 5","04736","Waldheim"
"Lidl","Merseburger Str. 72","06667","Weißenfels-Borau"
"Lidl","Trageser Str. 36","04567","Kitzscher"
"Lidl","Wassergasse 1","04680","Colditz"
"Lidl","Pegauer Str. 141","04442","Zwenkau"
"Lidl","Döbelner Str. 71","04741","Roßwein"
"Lidl","Röthaer Str. 30c","04564","Böhlen"
"Lidl","Freiberger Str. 56","01723","Wilsdruff"
"Lidl","Schlachthofstr. 2","04720","Döbeln"
"Lidl","Dresdner Str. 30 V","04720","Döbeln"
"Lidl","Merseburger Str. 79","06242","Braunsbedra"
"Lidl","Friedenstr. 7","06571","Roßleben"
"Lidl","Dresdner Str. 112","01705","Freital"
"Lidl","Hauptstr. 55/56","06577","Heldrungen"
"Lidl","Breite Str. 58","06231","Bad Dürrenberg-Lennewitz"
"Lidl","Bahnhofstr. 12","04668","Grimma"
"Lidl","Koburger Str. 45","04416","Markkleeberg"
"Lidl","Gabelsbergerstr. 8","01809","Heidenau"
"Lidl","Leipziger Str. 67","04420","Markranstädt-Kulkwitz"
"Lidl","Dieskaustr. 175","04249","Leipzig"
"Lidl","Südhöhe 38","01217","Dresden"
"Lidl","Dresdner Str. 9","01796","Pirna"
"Lidl","Georg-Palitzsch-Str. 16","01239","Dresden"
"Lidl","Chemnitzer Str. 68","01187","Dresden"
"Lidl","Großmiltitzer Str. 45","04205","Leipzig"
"Lidl","Stuttgarter Allee 2","04207","Leipzig"
"Lidl","Omsewitzer Ring 45","01169","Dresden"
"Lidl","Str. des Friedens 2","06217","Merseburg"
"Lidl","Rudolf-Renner-Str. 10","01796","Pirna"
"Lidl","Zwickauer Str. 66","04277","Leipzig-Marienbrunn"
"Lidl","Brandiser Str. 88","04683","Naunhof"
"Lidl","Windscheidstr. 1","04277","Leipzig-Connewitz"
"Lidl","Budapester Str. 26 a","01069","Dresden"
"Lidl","Lützner Str. 396","04205","Leipzig"
"Lidl","Strehlener Platz 1","01219","Dresden"
"Lidl","Wiener Platz 4","01069","Dresden"
"Lidl","Pirnaer Landstr. 183 a","01257","Dresden"
"Lidl","Cossebauder Str. 6","01157","Dresden"
"Lidl","Zschochersche Str. 79","04229","Leipzig-Plagwitz"
"Lidl","Löbtauer Str. 26","01159","Dresden"
"Lidl","Bodenbacher Str. 62 a","01277","Dresden"
"Lidl","Holzhäuser Str. 104","04299","Leipzig"
"Lidl","Kyffhäuserstr. 64","06567","Bad Frankenhausen"
"Lidl","König-Heinrich-Str. 13","06217","Merseburg"
"Lidl","Comeniusplatz 2","01307","Dresden"
"Lidl","Grunaer Str. 5","01069","Dresden"
"Lidl","Hauschildstr. 1","04177","Leipzig-Neulindenau"
"Lidl","Schandauer Str. 22 a","01309","Dresden"
"Lidl","Österreicher Str. 2","01279","Dresden"
"Lidl","Petersstr. 36+44","04109","Leipzig"
"Lidl","Kachstedter Str. 4","06556","Artern"
"Lidl","Dresdner Str. 15","01814","Bad Schandau"
"Lidl","Merseburger Str. 67","06268","Querfurt"
"Lidl","Schlesischer Platz 1","01097","Dresden"
"Lidl","Leipziger Str. 76","01127","Dresden"
"Lidl","Hansastr. 50","01097","Dresden"
"Lidl","Meißner Str. 252","01445","Radebeul"
"Lidl","Torgauer Str. 74","04318","Leipzig-Volkmarsdorf"
"Lidl","Riesaer Str. 75","04328","Leipzig-Paunsdorf"
"Lidl","Meißner Str. 41","01445","Radebeul"
"Lidl","Theresienstr. 5","04129","Leipzig-Eutritzsch"
"Lidl","Großenhainer Str. 156","01129","Dresden"
"Lidl","Fabrikstr. 11","01662","Meißen"
"Lidl","Poststr. 11","01662","Meißen"
"Lidl","Bautzner Landstr. 112","01324","Dresden"
"Lidl","Max-Liebermann-Str. 99","04157","Leipzig-Gohlis-Nord"
"Lidl","Dresdner Str. 16","01689","Weinböhla"
"Lidl","Hallesche Str. 64","04435","Schkeuditz"
"Lidl","Theklaer Str. 150","04349","Leipzig-Thekla"
"Lidl","Leipziger Str. 117","04425","Taucha"
"Lidl","Ludwig-Kossuth-Str. 49","01109","Dresden"
"Lidl","Karl-Marx-Str. 20","01109","Dresden"
"Lidl","Broihanstr. 2","06132","Halle (Saale)"
"Lidl","Altmarkt 17-18","04758","Oschatz-Altoschatz"
"Lidl","Dresdener Str. 7","04808","Wurzen"
"Lidl","Südstadtring 70","06128","Halle (Saale)"
"Lidl","Weinbergstr. 2","06526","Sangerhausen"
"Lidl","Merseburger Str. 221","06130","Halle (Saale)"
"Lidl","Gartenstr. 1","01855","Sebnitz-Hertigswalde"
"Lidl","Königsbrücker Landstr. 303","01108","Dresden"
"Lidl","Böllberger Weg 26 a","06110","Halle (Saale)-Gesundbrunnen"
"Lidl","Oberstr. 10","01454","Radeberg"
"Lidl","Stolpener Str. 14","01477","Arnsdorf-Fischbach"
"Lidl","Nietlebener Str. 3","06126","Halle (Saale)"
"Lidl","Lange Str. 46","01587","Riesa"
"Lidl","August-Bebel-Str. 2","01587","Riesa-Mergendorf"
"Lidl","Wilhelm-Kaulisch-Str. 29","01844","Neustadt"
"Lidl","Krausenstr. 9","06112","Halle (Saale)"
"Lidl Vertriebs GmbH & Co. KG","An der Autobahn 1","01471","Radeburg"
"Lidl","Meißner Str. 2 d","01612","Nünchritz"
"Lidl","Lindenweg 1","01471","Radeburg"
"Lidl","Hallesche Str. 88","06295","Eisleben"
"Lidl","Trothaer Str. 62","06118","Halle (Saale)-Trotha"
"Lidl","Ziegelstr. 4","04838","Eilenburg"
"Lidl","Pulsnitzer Str. 13","01900","Großröhrsdorf"
"Lidl","Radeburger Str. 5","01558","Großenhain"
"Lidl","R.-Wagner-Str. 9 a","04509","Delitzsch"
"Lidl","Friedrich-List-Str. 2","01877","Bischofswerda"
"Lidl","Kamenzer Str. 23","01896","Pulsnitz"
"Lidl","Am Mart 1","01561","Lampertswalde"
"Lidl","Am Ostbahnhof 5","01904","Neukirch"
"Lidl","Kantstr. 31","02763","Zittau"
"Lidl","Klausstr. 1a","06343","Mansfeld"
"Lidl","Weißbacher Str. 28","01936","Königsbrück"
"Lidl","Bautzner Str. 27","02730","Ebersbach"
"Lidl","Bahnhofstr. 10 a","04874","Belgern"
"Lidl","Hauptstr. 77 c","01609","Gröditz"
"Lidl","Doktorsteg 2","06333","Hettstedt"
"Lidl","Schmiedeberger Str. 56 B","04849","Bad Düben"
"Lidl","Friedensstr. 5-7","06749","Bitterfeld-Wolfen"
"Lidl","Fichtestr. 2","01917","Kamenz"
"Lidl","Warschauer Str. 9 b","04860","Torgau"
"Lidl","Neusalzaer Str. 39 a","02625","Bautzen"
"Lidl","Leipziger Str. 83-89","06766","Bitterfeld-Wolfen"
"Lidl","Schillerstr. 41","04910","Elsterwerda"
"Lidl","Steinstr. 36","02625","Bautzen"
"Lidl","Poststr. 7","02708","Löbau"
"Lidl","Dresdener Str. 29","04924","Bad Liebenwerda"
"Lidl","Felsenkellerweg 21","06493","Ballenstedt"
"Lidl","Am Ankerglasplatz 8","02994","Bernsdorf"
"Lidl","Leipziger Str. 36i","06366","Köthen"
"Lidl","Geschwister-Scholl-Str. 55","06449","Aschersleben"
"Lidl","Musestieg 5","06502","Thale"
"Lidl","Bahnhofstr. 2","06773","Gräfenhainichen"
"Lidl","Berliner Str. 1","01945","Ruhland"
"Lidl","Gerhart-Hauptmann-Str. 6 a","01979","Lauchhammer"
"Lidl","Parkstr. /Mauerstr. 1","06406","Bernburg (Saale)"
"Lidl","Oeringer Str. 20","06484","Quedlinburg-Quarmbeck"
"Lidl","Am Platz der Jugend 1a","06406","Bernburg (Saale)"
"Lidl Vertriebs GmbH & Co. KG","Claude-Breda-Str. 7","06406","Bernburg"
"Lidl","Senftenberger Str. 1","02991","Lauta-Torno"
"Lidl","Köthener Str. 70 a","06847","Dessau-Roßlau"
"Lidl","Bahnhofsallee 10","03253","Doberlug"
"Lidl","Askanische Str. 115","06846","Dessau-Roßlau"
"Lidl","Berliner Str. 1","04916","Herzberg"
"Lidl","Briesker Str. 50","01968","Senftenberg"
"Lidl","Reichenbacher Str. 53 b","02827","Görlitz"
"Lidl","Schulstr. 2 a","02977","Hoyerswerda"
"Lidl","Kaiserstr. 48","06385","Aken"
"Lidl","Christoph-Lüders-Str. 32","02826","Görlitz"
"Lidl","Langer Damm 6","03238","Finsterwalde"
"Lidl","Rosa-Luxemburg-str. 70","06917","Jessen"
"Lidl","Freienhufener Str. 21A","01983","Großräschen"
"Lidl","Dessauer Str. 279","06886","Wittenberg"
"Lidl","Friedensstr. 77","02943","Boxberg"
"Lidl","Berliner Chaussee 13","06886","Wittenberg"
"Lidl","Heinrichstr. 17","03130","Spremberg"
"Lidl","Bautzener Str. 31","02943","Weißwasser"
"Lidl","Gewerbepark Nord 1","03205","Calau"
"Lidl","Aufbaustr. 17","03159","Döbern"
"Lidl","Otto-Grotewohl-Str. 19","03222","Lübbenau"
"Lidl","Karl-Liebknecht-Str. 47A","03046","Cottbus"
"Lidl","Uhlandstr. 12","03050","Cottbus-Sachsendorf"
"Lidl","Dissenchener Str. 16","03042","Cottbus-Sandow"
"Lidl","Sielower Landstr. 21","03044","Cottbus-Schmellwitz"
"Lidl","Spremberger Str. 10","03149","Forst"
"Lidl","Cottbuser Str. 7A","03185","Peitz"
"Lidl","Sprucker Str. 36","03172","Guben"
"Lidl","Hauptstr. 67","15936","Dahme"
"Lidl","Südpromenade 6","15926","Luckau"
"Lidl","Vorstadt Neumarkt 5-7","14913","Jüterbog"
"Lidl","Brücker Landstr. 5","14806","Bad Belzig"
"Lidl","Berliner Chaussee 23","15907","Lübben"
"Lidl","Schützenstr. 46","14943","Luckenwalde"
"Lidl","Clara-Zetkin-Str. 37","14547","Beelitz"
"Lidl","Berliner Tor 3","14959","Trebbin"
"Lidl","Emstaler Landstr. 40","14797","Kloster-Lehnin"
"Lidl","Stubenrauchstr. 25a","15806","Zossen"
"Lidl","Am Bahnhof 2 A","14974","Ludwigsfelde"
"Lidl","Potsdamer Str. 23","14776","Brandenburg an der Havel-Neustadt"
"Lidl","Friedrich-Franz-Str. 4","14770","Brandenburg an der Havel"
"Lidl","Berliner Str. 88","14542","Werder"
"Lidl","Upstallstr. 22","14772","Brandenburg an der Havel"
"Lidl","Zum Kirchsteigfeld 12","14480","Potsdam-Drewitz"
"Lidl","Luckenwalder Str. 68","15711","Königs Wusterhausen"
"Lidl","Horstweg 98","14478","Potsdam-Schlaatz"
"Lidl","Zeppelinstr. 56","14471","Potsdam-Potsdam West"
"Lidl","Großbeerenstr. 265","14480","Potsdam"
"Lidl Vertriebs-GmbH & Co. KG","An der Anhalter Bahn 4","14979","Großbeeren"
"Lidl","Berliner Damm 159-161","15831","Mahlow"
"Lidl","Berliner Str. 121","14467","Potsdam-Berliner Vorstadt"
"Lidl","Potsdamer Str. 41-42","14469","Potsdam-Bornim"
"Lidl","Wannseestr. 17","14532","Stahnsdorf"
"Lidl","Schloßstr. 5","15859","Storkow"
"Lidl","Dorfaue 33","15745","Wildau"
"Lidl","Fürstenwalder Str. 9","15848","Beeskow"
"Lidl","Elbestr. 1","14513","Teltow"
"Lidl","Teltower Damm 295","14167","Berlin-Zehlendorf"
"Lidl","Karl-Marx-Str. 38-42","14532","Kleinmachnow"
"Lidl","Lichtenrader Damm 219","12305","Berlin-Lichtenrade"
"Lidl","Nauener Str. 9","14669","Ketzin"
"Lidl","Marienfelder Allee 202","12279","Berlin-Marienfelde"
"Lidl","Ernst-Thälmann-Str. 2","14727","Premnitz"
"Lidl","Wismarer Str. 35","12207","Berlin-Lichterfelde"
"Lidl","Mühlenstr. 2","14167","Berlin-Zehlendorf"
"Lidl","August-Bebel-Allee 38-44","15732","Eichwalde"
"Lidl","Malteserstr. 162-164","12277","Berlin-Marienfelde"
"Lidl","Kladower Damm 363-365","14089","Berlin-Kladow"
"Lidl","Säntisstr. 49","12277","Berlin-Marienfelde"
"Lidl","Kaiser-Wilhelm-Str. 6","12247","Berlin-Lankwitz"
"Lidl","Warmensteinacher Str. 57","12349","Berlin-Buckow"
"Lidl","Clayallee 278","14169","Berlin-Zehlendorf"
"Lidl","Altglienicker Chaussee 13","12529","Schönefeld"
"Lidl","Curtiusstr. 36-38","12205","Berlin-Lichterfelde"
"Lidl","Hindenburgdamm 94","12203","Berlin-Lichterfelde"
"Lidl","Buckower Damm 194","12349","Berlin-Buckow"
"Lidl","Kaiser-Wilhelm-Str. 127","12247","Berlin-Lankwitz"
"Lidl","Birkbuschstr. 54","12167","Berlin-Lankwitz"
"Lidl","Hüttenweg 50","14195","Berlin-Dahlem"
"Lidl","Großbeerenstr. 2","12107","Berlin-Mariendorf"
"Lidl","Lipschitzallee 50","12353","Berlin-Gropiusstadt"
"Lidl","Neuköllner Str. 236-238","12357","Berlin-Rudow"
"Lidl","Steglitzer Damm 95","12169","Berlin-Steglitz"
"Lidl","Bruno-Taut-Str. 4","12524","Berlin-Bohnsdorf"
"Lidl","Rothenburgstr. 38a","12163","Berlin-Steglitz"
"Lidl","Karl-Marx-Str. 35","15890","Eisenhüttenstadt"
"Lidl","Gutschmidtstr. 101","12359","Berlin-Britz"
"Lidl","Bergstr. 86","12169","Berlin-Steglitz"
"Lidl","Semmelweisstr. 106","12524","Berlin-Altglienicke"
"Lidl","Schlossstr. 1","12163","Berlin"
"Lidl","Tempelhofer Damm 215-219","12099","Berlin-Tempelhof"
"Lidl","Manteuffelstr. 24-25","12103","Berlin-Tempelhof"
"Lidl","Adlergestell 291","12489","Berlin-Adlershof"
"Lidl","Vorarlberger Damm 24","12157","Berlin"
"Lidl","Tempelhofer Weg 14","12347","Berlin-Britz"
"Lidl","Späthstr. 162","12359","Berlin-Britz"
"Lidl","Nuthestr. 5","12307","Berlin-Lichtenrade"
"Lidl","Tempelhofer Damm 130","12099","Berlin-Tempelhof"
"Lidl","Oberlandstr. 17","12099","Berlin-Tempelhof"
"Lidl","Grünauer Str. 118","12557","Berlin"
"Lidl","Innsbrucker Platz (im U-Bahnhof)","10827","Berlin"
"Lidl","Glasower Str. 42","12051","Berlin"
"Lidl","Berliner Str. 26/27","10715","Berlin-Wilmersdorf"
"Lidl","Hauptstr. 122","10827","Berlin"
"Lidl","Seesener Str. 10-13","10709","Berlin"
"Lidl","Lahnstr. 61","12055","Berlin"
"Lidl","Bruno-Baum-Ring 11a","14712","Rathenow"
"Lidl","August-Bebel-Str. 65A","15517","Fürstenwalde"
"Lidl","Kiefholzstr. 189","12437","Berlin-Baumschulenweg"
"Lidl","Dudenstr. 90","10965","Berlin-Kreuzberg"
"Lidl","Hermannstr. 55","12049","Berlin"
"Lidl","Wendenschloßstr. 9","12559","Berlin"
"Lidl","Wilhelminenhofstr. 83-85","12459","Berlin"
"Lidl","Am Omnibushof 13","13593","Berlin-Wilhelmstadt"
"Lidl","Hohenbinder Weg 2","15537","Erkner"
"Lidl","Sonnenallee 192","12059","Berlin"
"Lidl","Heerstr. 640","13591","Berlin-Staaken"
"Lidl","Potsdamer Str. 203","10783","Berlin"
"Lidl","Kreuzbergstr. 40","10965","Berlin-Kreuzberg"
"Lidl","Gervinusstr. 30","10629","Berlin-Charlottenburg"
"Lidl","Knesebeckstr. 47/48","10719","Berlin-Charlottenburg"
"Lidl","Flughafenstr. 1","12053","Berlin"
"Lidl","Donaustr. 96","12043","Berlin"
"Lidl","Meinekestr. 22","10719","Berlin-Charlottenburg"
"Lidl","Wilmsstr. 57","14624","Dallgow-Döberitz"
"Lidl","Kleiststr. 3-6","10787","Berlin"
"Lidl","Wilmersdorfer Str. 126","10627","Berlin-Charlottenburg"
"Lidl","Seeburger Str. 18","13581","Berlin-Wilhelmstadt"
"Lidl","Kiefholzstr. 386","12435","Berlin"
"Lidl","Fürstenwalder Damm 425","12587","Berlin-Friedrichshagen"
"Lidl","Sophie-Charlotten-Str. 31","14059","Berlin-Charlottenburg"
"Lidl","Maybachufer 32-33","12047","Berlin"
"Lidl","Kottbusser Str. 16a","10999","Berlin-Kreuzberg"
"Lidl","Stresemannstr. 68-78","10963","Berlin-Kreuzberg"
"Lidl","Fürstenbrunner Weg 14-16","14059","Berlin-Westend"
"Lidl","Charlottenburger Chaussee 18","13597","Berlin-Spandau"
"Lidl","Charlottenstr. 2","10969","Berlin-Kreuzberg"
"Lidl","Oranienplatz 4","10999","Berlin-Kreuzberg"
"Lidl","Seegefelder Weg 391","13591","Berlin-Spandau"
"Lidl","Zeughofstr. 23A","10997","Berlin-Kreuzberg"
"Lidl","Heinrich-Heine-Str. 30","10179","Berlin-Mitte"
"Lidl","Leipziger Str. 42","10117","Berlin-Mitte"
"Lidl","Falkenseer Damm 19","13585","Berlin-Spandau"
"Lidl","Markgrafendamm 25c","10245","Berlin-Friedrichshain"
"Lidl","Lise-Meitner-Str. 6","10589","Berlin-Charlottenburg"
"Lidl","Nonnendammallee 175","13599","Berlin-Haselhorst"
"Lidl","Warschauer Platz 14","10245","Berlin-Friedrichshain"
"Lidl","August-Bebel-Str. 4-5","15569","Woltersdorf"
"Lidl","Wustermarker Allee 16","14656","Brieselang"
"Lidl","Ontarioseestr. 17","10319","Berlin-Friedrichsfelde"
"Lidl","Neuendorfer Str. 30","13585","Berlin-Spandau"
"Lidl","Boxhagener Str. 76-78","10245","Berlin-Friedrichshain"
"Lidl","Luisenstr. 52","10117","Berlin-Mitte"
"Lidl","Falkenhagener Str. 86","14612","Falkensee"
"Lidl","Rigaer Str. 36-38","10247","Berlin-Friedrichshain"
"Lidl","Frankfurter Allee 212","10365","Berlin-Lichtenberg"
"Lidl","Quitzowstr. 23","10559","Berlin-Moabit"
"Lidl","Friedenstr. 94 a","10249","Berlin-Friedrichshain"
"Lidl","Einbecker Str. 57","10315","Berlin-Friedrichsfelde"
"Lidl","Berliner Str. 38+40+42","14641","Nauen"
"Lidl","Eldenaer Str. 34A","10247","Berlin-Friedrichshain"
"Lidl","Chemnitzer Str. 174","12621","Berlin-Kaulsdorf"
"Lidl","Choriner Str. 64/64a","10435","Berlin-Mitte"
"Lidl","Möllendorffstr. 75A","10367","Berlin-Lichtenberg"
"Lidl","Ruschestr. 64-70","10365","Berlin-Lichtenberg"
"Lidl","Greifswalder Str. 33a","10405","Berlin-Prenzlauer Berg"
"Lidl","Alt-Kaulsdorf 56","12621","Berlin-Kaulsdorf"
"Lidl","Prenzlauer Allee 44","10405","Berlin-Prenzlauer Berg"
"Lidl","Kniprodestr. 26","10407","Berlin-Prenzlauer Berg"
"Lidl","Brunnenstr. 87","13355","Berlin"
"Lidl","Müllerstr. 48/48a","13349","Berlin-Wedding"
"Lidl","Reinickendorfer Str. 41","13347","Berlin-Wedding"
"Lidl","Marzahner Chaussee 189","12681","Berlin-Friedrichsfelde"
"Lidl","Badstr. 60","13357","Berlin"
"Lidl","Prenzlauer Allee 93","10409","Berlin-Prenzlauer Berg"
"Lidl","Prinzenallee 75","13357","Berlin"
"Lidl","Ollenhauerstr. 7","13403","Berlin-Reinickendorf"
"Lidl","Bornholmer Str. 65","10439","Berlin-Prenzlauer Berg"
"Lidl","Märkische Allee 140A","12681","Berlin-Marzahn"
"Lidl","Markstr. 39-42","13409","Berlin-Reinickendorf"
"Lidl","Wisbyer Str. 16","10439","Berlin-Prenzlauer Berg"
"Lidl","Roelckestr. 172","13086","Berlin"
"Lidl","Allee der Kosmonauten 141A","12683","Berlin-Marzahn"
"Lidl","Indira-Gandhi-Straße 101","13053","Berlin-Hohenschönhausen"
"Lidl","Cecilienstr. 161","12683","Berlin-Biesdorf"
"Lidl","Große-Leege-Straße 95","13055","Berlin"
"Lidl","Pistoriusstr. 66-67","13086","Berlin"
"Lidl","Feldberger Ring 1","12619","Berlin-Hellersdorf"
"Lidl","Provinzstr. 30","13409","Berlin"
"Lidl","Waldstr. 14-21","13403","Berlin-Reinickendorf"
"Lidl","Berliner Str. 27-28","13189","Berlin-Pankow"
"Lidl","Mark-Twain-Str. 2","12627","Berlin-Hellersdorf"
"Lidl","Gothaer Str. 49","12629","Berlin-Hellersdorf"
"Lidl","Prenzlauer Promenade 65-67","13089","Berlin-Pankow"
"Lidl","Holzhauser Str. 168.17","13509","Berlin-Reinickendorf"
"Lidl","Grabbeallee 27/29","13156","Berlin"
"Lidl","Gehrenseestr. 11","13053","Berlin"
"Lidl","Karolinenstr. 1-2","13507","Berlin-Tegel"
"Lidl","Roedernallee 45-50","13407","Berlin-Wittenau"
"Lidl","Prötzeler Ring 8","12685","Berlin-Marzahn"
"Lidl","Berliner Allee 300","13088","Berlin"
"Lidl","Ernst-Thälmann-Str. 28C","15370","Fredersdorf"
"Lidl","Blankenburger Str. 17a","13089","Berlin-Heinersdorf"
"Lidl","Malchower Weg 134","13053","Berlin"
"Lidl","Zossener Str. 121","12629","Berlin-Hellersdorf"
"Lidl","Mahlsdorfer Str. 82","15366","Hönow"
"Lidl","Märkische Allee 276","12679","Berlin-Marzahn"
"Lidl","Weinbergweg 36","15232","Frankfurt (Oder)"
"Lidl","Dietzgenstr. 102","13158","Berlin-Rosenthal"
"Lidl","Ruppiner Chaussee 401","13503","Berlin-Heiligensee"
"Lidl","Quickborner Str. 66-70","13439","Berlin"
"Lidl","Rathenaustr. 4","15234","Frankfurt (Oder)"
"Lidl","Pasewalker Str. 77","13127","Berlin"
"Lidl","Berliner Str. 141","13467","Berlin-Hermsdorf"
"Lidl","Havemannstr. 1","12689","Berlin-Marzahn"
"Lidl","Rosa-Luxemburg-Platz 1","16761","Hennigsdorf"
"Lidl","Blankenburger Chaussee 10","13125","Berlin-Karow"
"Lidl","Ernst-Thälmann-Str. 22","15374","Müncheberg"
"Lidl","Poststr. 20","16727","Velten"
"Lidl","Backofenweg 13","16540","Hohen Neuendorf"
"Lidl","Berliner Str. 93-94","15344","Strausberg"
"Lidl","Hauptstr. 100","16547","Birkenwerder"
"Lidl","Birkholzer Str. 1","16341","Panketal-Zepernick"
"Lidl","Freienwalder Str. 33","16356","Werneuchen"
"Lidl","Eichenallee 41","16767","Leegebruch"
"Lidl","Hauptstr. 63","16348","Wandlitz"
"Lidl Vertriebs GmbH & Co. KG","Am Elsholz 1","16766","Kremmen"
"Lidl","Schwanebecker Chaussee 84","16321","Bernau"
"Lidl","Ruppiner Str. 57","16766","Kremmen"
"Lidl","Berliner Str. 49","16515","Oranienburg"
"Lidl","Berliner Allee 30c","16833","Fehrbellin"
"Lidl","Wiesbadener Straße 1","16515","Oranienburg"
"Lidl","Diedersdorfer Str. 1","15306","Seelow"
"Lidl","Ihlenweg 2","16845","Neustadt/Dosse"
"Lidl","Bernauer Chaussee 70","16348","Wandlitz"
"Lidl","Bahnhofstr. 152a","16359","Biesenthal"
"Lidl","Perleberger Str. 55","16866","Kyritz"
"Lidl","Neustädter Str. 53","16816","Neuruppin"
"Lidl","Frankfurter Str. 11","16269","Wriezen"
"Lidl","Lenzener Str. 61","19322","Wittenberge"
"Lidl","Hammerallee 5","16559","Liebenwalde"
"Lidl","Wulkower Chaussee 5","16827","Neuruppin"
"Lidl","Bentwischer Weg 56","19322","Wittenberge"
"Lidl","Schloßgutsiedlung 1","16244","Finowfurt"
"Lidl","Altranfter Str. 4-8","16259","Bad Freienwalde"
"Lidl","Heegermühler Str. 1","16225","Eberswalde"
"Lidl","Freienwalder Str. 30a","16225","Eberswalde"
"Lidl","Berliner Str. 35","19348","Perleberg"
"Lidl","Bahnhofstr. 45","16792","Zehdenick"
"Lidl","Berliner Str. 41","16831","Rheinsberg"
"Lidl","Rostocker Str. 3","16928","Pritzwalk"
"Lidl","Perleberger Str. 42","16909","Wittstock"
"Lidl","Kaltenkirchener Siedlung 3","16949","Putlitz"
"Lidl","Schwedter Str. 36","16278","Angermünde"
"Lidl","Prokopiusstr. 6","17268","Templin"
"Lidl","Neu Karstädter Weg 13","19300","Grabow"
"Lidl","Grüner Weg 1","19249","Lübtheen"
"Lidl","Bäckerstr. 1A","16303","Schwedt/Oder-Talsand"
"Lidl","Berliner Str. 60f","16303","Schwedt/Oder-Zentrum"
"Lidl","Ludwigsluster Str. 2","19306","Neustadt-Glewe"
"Lidl","Am Keesboom 4","19258","Boizenburg"
"Lidl","Warener Chaussee 6","17207","Röbel"
"Lidl","Ludwigsluster Chaussee 30","19370","Parchim"
"Lidl","Schweriner Chaussee 27","19370","Parchim"
"Lidl","straßeelitzer Str. 2-4","17235","Neustrelitz"
"Lidl","Strelitzer Str. 2-4","17235","Neustrelitz-Zierke"
"Lidl","Luzinweg 4","17258","Feldberg"
"Lidl","Werderstr. 21b","19386","Lübz"
"Lidl","Quetziner Str. 19a","19395","Plau am See"
"Lidl","Rostocker Str. 11","17213","Malchow"
"Lidl","Wölzower Weg 1","19243","Wittenburg"
"Lidl","Stettiner Str. 47","17291","Prenzlau"
"Lidl","Strelitzer Str. 38","17192","Waren"
"Lidl","Am Bahnhof 1","19246","Zarrentin"
"Lidl","Weinbergstr. 14","19089","Crivitz"
"Lidl","Schweriner Str. 3b","19061","Schwerin"
"Lidl","Plauer Chaussee 5","19399","Goldberg"
"Lidl","An der Crivitzer Chaussee 16","19061","Schwerin"
"Lidl","Carl-Stolte-Str. 21","17094","Burg Stargard"
"Lidl","Grüne Str. 23","19055","Schwerin-Altstadt"
"Lidl","Lübecker Str. 225","19059","Schwerin-Weststadt"
"Lidl","Greifswalder Str. 1","19057","Schwerin-Sacktannen"
"Lidl","Kruseshofer Str. 1","17036","Neubrandenburg-Fritscheshof"
"Lidl","Demminer Str. 49","17034","Neubrandenburg-Ihlenfelder Vorstadt"
"Lidl","Jüteritzer Str. 16","17335","Strasburg"
"Lidl","Ratzeburger Chaussee 25","19205","Gadebusch"
"Lidl","Lindenstr. 21","17309","Pasewalk"
"Lidl","Platz der Freundschaft 14","18273","Güstrow"
"Lidl","Stavenhagener Str. 11","17139","Malchin"
"Lidl","Gletzower Str. 29","19217","Rehna"
"Lidl","Fritz-Reuter-Str. 16","17087","Altentreptow"
"Lidl","Neubrandenburger Str. 16a","17098","Friedland"
"Lidl","Bützower Str. 2-4","19417","Warin"
"Lidl","Bahnhofstr. 14","17166","Teterow"
"Lidl","Rostocker Chaussee 3","18273","Güstrow"
"Lidl","Pasewalker Str. 6","17358","Torgelow"
"Lidl","Bahnhofstr. 23/25","18246","Bützow-Wolken"
"Lidl","Chausseestr. 4c","17373","Ueckermünde"
"Lidl","Doberaner Str. 30c","18258","Schwaan"
"Lidl","Treptower Str. 1","17109","Demmin"
"Lidl","Pasewalker Allee 84","17389","Anklam"
"Lidl","Tessiner Str. 1","17179","Gnoien"
"Lidl","Greifswalder Str. 1","17506","Gützkow"
"Lidl","Schulstr. 9","18236","Kröpelin"
"Lidl","Satower Str. 7","18059","Rostock"
"Lidl","Neubrandenburger Str. 10-11","18055","Rostock-Kassebohm"
"Lidl","Tschaikowskistr. 39","18069","Rostock-Hansaviertel"
"Lidl","Am Erlenhain 2","18190","Sanitz"
"Lidl","Doberaner Str. 144","18057","Rostock"
"Lidl","Gaffelschoner Weg 15","18055","Rostock-Stadtmitte"
"Lidl","Rostocker Str. 2-4","18209","Bad Doberan"
"Lidl","Am Fischereihafen 3","18069","Rostock-Schmarl"
"Lidl","Hinrichsdorfer Str. 13a","18146","Rostock-Dierkow-West"
"Lidl","Maxim-Gorki-Str. 66/67","18106","Rostock-Evershagen"
"Lidl","Sülzer Chaussee 15a","18465","Tribsees"
"Lidl","Stephan-Jantzen-Ring 50a","18106","Rostock-Schmarl"
"Lidl Vertriebs-GmbH & Co. KG","Swienskuhlenstr. 6","18147","Rostock-Hinrichsdorf"
"Lidl","Warnowallee 20a","18107","Rostock"
"Lidl","Hermannstr. 24","18225","Kühlungsborn"
"Lidl","Schiffbauerring 1","18109","Rostock"
"Lidl","Güstrower Str. 8","18109","Rostock-Lichtenhagen"
"Lidl","Ahlbecker Chaussee 9","17429","Bansin"
"Lidl","Stralsunder Str. 8","18507","Grimmen"
"Lidl","Gützkower Landstr. 12","17489","Greifswald-Industriegebiet"
"Lidl","Hasenwinkel 36","17491","Greifswald"
"Lidl","Anklamer Str. 30","17489","Greifswald"
"Lidl","Chausseestr. 17","17438","Wolgast"
"Lidl","Salzhorstweg 9b","17454","Zinnowitz"
"Lidl","Feldstr. 1","18437","Stralsund-Tribseer Wiesen"
"Lidl","Am Langendorfer Berg 1","18442","Langendorf"
"Lidl","Ernst-Thälmann-Str. 41e","18347","Wustrow"
"Lidl","Heinrich-von-Stephan-Str. 6","18435","Stralsund-Knieper West"
"Lidl","Am Mastweg 1","18356","Barth-Tannenheim"
"Lidl","Göhrener Chaussee 1a","18586","Baabe/Rügen"
"Lidl","Proraer Chaussee 3","18609","Binz"
"Lidl","Gingster Chaussee 7","18528","Bergen"
"Lidl","Am Lanckener Gutshof 38","18546","Sassnitz-Lancken"
"Lidl","Glower Str. 31","18551","Sagard"
,,,
,,,
"Lidl","Poststr. 2","42477","Radevormwald"
"Lidl","Thomas-Mann-Str. 41","42929","Wermelskirchen"
"Lidl","Franz-Vogt-Str. 1","42897","Remscheid"
"Lidl","Neuenkamper Str. 26","42855","Remscheid"
"Lidl","Am Schützenplatz 18","42899","Remscheid"
"Lidl","Schüttendelle 49","42857","Remscheid"
"Lidl","Königstr. 201","42853","Remscheid"
"Lidl","Neukirchener Str. 76","42799","Leichlingen"
"Lidl","Elbestr. 4","51371","Leverkusen-Rheindorf"
"Lidl","Lüttringhauser Str. 54","42369","Wuppertal"
"Lidl","Zietenstr. 1","42651","Solingen-Solingen-Mitte"
"Lidl","Grünewalder Str. 85","42657","Solingen"
"Lidl","Hahnerberger Str. 99-101","42349","Wuppertal"
"Lidl","Weberstr. 3","40764","Langenfeld-Immigrath"
"Lidl","Höfen 32-56","42277","Wuppertal"
"Lidl","Scheidter Str. 1","42653","Solingen"
"Lidl","Beethovenstr. 129-141","42655","Solingen-Solingen-Mitte"
"Lidl","Am Diek 105","42277","Wuppertal"
"Lidl","Rauer Werth 4","42275","Wuppertal"
"Lidl","Wittensteinstr. 261","42283","Wuppertal"
"Lidl","Merscheider Str. 215","42699","Solingen"
"Lidl","Nümmener Feld 1","42719","Solingen"
"Lidl","Sölder Str. 143","44289","Dortmund"
"Lidl","Märkische Str. 43","42281","Wuppertal"
"Lidl","Am Wald 21","40789","Monheim"
"Lidl","Weyerstr. 269-277","42719","Solingen-Wald"
"Lidl","Hofkamp 113-119","42103","Wuppertal"
"Lidl","Viehhofstr. 35-37","42117","Wuppertal"
"Lidl","Hatzfelder Str. 10","42281","Wuppertal"
"Lidl","Hildener Str. 36","42697","Solingen"
"Lidl","Bissingstr. 5","42329","Wuppertal"
"Lidl","Eichwaldstr. 5","44319","Dortmund"
"Lidl","Landstr. 13","42781","Haan"
"Lidl","Otto-Hausmann-Ring 116","42115","Wuppertal"
"Lidl","Düsseldorfer Str. 76-84","42781","Haan"
"Lidl","Walder Str. 103","40724","Hilden"
"Lidl","Walhovener Str. 30","41539","Dormagen"
"Lidl","Brackeler Hellweg 154-156","44309","Dortmund"
"Lidl","Hagener Str. 16","44225","Dortmund"
"Lidl","Beisenbruchstr. 10","45549","Sprockhövel"
"Lidl","Düsseldorfer Str. 59","40721","Hilden"
"Lidl","Kieferstr. 19-21","44225","Dortmund"
"Lidl","Husener Str. 48","44319","Dortmund"
"Lidl","Kaiserstr. 182-190","44143","Dortmund"
"Lidl","Mariannenpark 1","41569","Rommerskirchen"
"Lidl","Droote 2","44328","Dortmund"
"Lidl","Elberfelder Str. 103","42553","Velbert"
"Lidl","Hasselsstr. 1","40597","Düsseldorf-Benrath"
"Lidl","Tremoniastr. 26","44137","Dortmund"
"Lidl","Röntgenstr. 10","40699","Erkrath"
"Lidl","Borsigstr. 6","44145","Dortmund"
"Lidl","Münsterstr. 51","44145","Dortmund"
"Lidl","Friedensreich-Hundertwasser-Weg 2","42489","Wülfrath"
"Lidl","Vogelpothsweg 6","44149","Dortmund"
"Lidl","Zum Ludwigstal 60","45527","Hattingen-Holthausen"
"Lidl","Seibelstr. 2","40822","Mettmann-Metzkausen"
"Lidl","Am weißen Stein 3","41541","Dormagen"
"Lidl","Schützenstr. 126","44147","Dortmund"
"Lidl","Arminiusstr. 51","44149","Dortmund"
"Lidl","Stephanstr. 5","40599","Düsseldorf"
"Lidl","Niederadener Str. 29","44532","Lünen-Horstmar"
"Lidl","Bonsfelder Str. 1","42555","Velbert"
"Lidl","Deutsche Str. 22","44339","Dortmund"
"Lidl","Kölner Landstr. 435","40589","Düsseldorf"
"Lidl","Kreisstr. 43a","45525","Hattingen"
"Lidl","Ümminger Str. 10-14","44892","Bochum-Langendreer"
"Lidl","Huckarder Allee 27","44369","Dortmund"
"Lidl","Kirchlinder Str. 1","44379","Dortmund-Huckarde"
"Lidl","Güterstr. 11","42551","Velbert"
"Lidl","Darmstädter Str. 2","40229","Düsseldorf"
"Lidl","Sudbeckenpfad 1","44803","Bochum-Laer"
"Lidl","Bergstr. 3","44532","Lünen"
"Lidl","Heiligenhauserstr. 81","42549","Velbert"
"Lidl","Welper Str. 2-4","44879","Bochum-Linden"
"Lidl","Schützenstr. 8","44534","Lünen"
"Lidl","Am Einkaufszentrum","44791","Bochum"
"Lidl","Ruhrstr. 42","41469","Neuss"
"Lidl Vertriebs GmbH & Co. KG","Lise-Meitner-Str. 4","41515","Grevenbroich-Gewerbegebiet Ost"
"Lidl","Bodelschwingher Str. 144","44357","Dortmund"
"Lidl","Dr.-C.-Otto-Str. 141","44879","Bochum-Dahlhausen"
"Lidl","Am Hummelbach 40","41469","Neuss"
"Lidl","Fichtenstr. 4","40233","Düsseldorf"
"Lidl","Bruchstr. 94a","40235","Düsseldorf"
"Lidl","Oberbilker Allee 61","40223","Düsseldorf"
"Lidl","Aachener Str. 152","40223","Düsseldorf"
"Lidl","Brüsseler Str. 2","42579","Heiligenhaus"
"Lidl","Konrad-Adenauer-Platz 5-6","44787","Bochum-Innenstadt"
"Lidl","Grafenberger Allee 289 c","40235","Düsseldorf-Flingern Nord"
"Lidl","Dortmunder Str. 185","44577","Castrop-Rauxel"
"Lidl","Mengeder Str. 53-55","44536","Lünen-Brambauer"
"Lidl","Königshalt 36","44357","Dortmund"
"Lidl","Amtmann-Ibing-Str. 7","44805","Bochum-Gerthe"
"Lidl","Alstedder Str. 169-171","44534","Lünen-Alstedde"
"Lidl","Kolpingstr. 89","41515","Grevenbroich"
"Lidl","Königsallee 63-65","40215","Düsseldorf-Friedrichstadt"
"Lidl","Wittener Str. 92","44575","Castrop-Rauxel"
"Lidl","Kohlenstr. 190","44793","Bochum-Weitmar"
"Lidl","Heidhauser Str. 135-137","45239","Essen"
"Lidl","Vierhausstr. 110","44807","Bochum-Grumme"
"Lidl","Am Hammerwerk 31","41515","Grevenbroich-Laach"
"Lidl","Buscherstr. 3,5,5a","40239","Düsseldorf"
"Lidl","Langenberger Str. 427","45277","Essen"
"Lidl","Heidestr. 99","44866","Bochum-Westenfeld"
"Lidl","Westring 206","44579","Castrop-Rauxel"
"Lidl","Poststr. 70-72","44809","Bochum-Hofstede"
"Lidl","Freudenbergstr. 6","44809","Bochum-Hamme"
"Lidl","Ruhrau 42","45279","Essen"
"Lidl","Zur Spiegelglasfabrik 1","40878","Ratingen-West"
"Lidl","Marler Str. 4","40472","Düsseldorf"
"Lidl","Hammer Landstr. 45","41460","Neuss-Hafengebiet"
"Lidl","Südstr. 75","44625","Herne"
"Lidl","Eisenbahnstr. 14","45134","Essen-Rellinghausen"
"Lidl","Leveringhäuser Str. 29","45731","Waltrop"
"Lidl Vertriebs GmbH & Co. KG","Südstr. 110","44625","Herne"
"Lidl","Sodinger Str. 14","44623","Herne"
"Lidl","Montebruchstr. 2","45219","Essen"
"Lidl","Siemensstr. 13","44579","Castrop-Rauxel"
"Lidl","Lyrenstr. 9","44866","Bochum-Wattenscheid"
"Lidl","Steeler Str. 487-489","45276","Essen"
"Lidl","Günnigfelder Str. 39","44866","Bochum-Wattenscheid"
"Lidl","Sendenhorster Str. 12","48317","Drensteinfurt"
"Lidl","Am Zehnthof 199","45307","Essen"
"Lidl","Holsterhauser Str. 59","44652","Herne"
"Lidl","Eleonorastr. 2","45136","Essen"
"Lidl","Wartburgstr. 217-219","44579","Castrop-Rauxel"
"Lidl","Hoetmarer Str. 12","48324","Sendenhorst"
"Lidl","Roonstr. 14","44629","Herne"
"Lidl","Normannenstr. 32-34","41462","Neuss"
"Lidl","Rotthauser Str. 50","45309","Essen"
"Lidl","Festweg 1a","45886","Gelsenkirchen"
"Lidl","Steeler Str. 199","45138","Essen"
"Lidl","Kölner Str. 29","41363","Jüchen"
"Lidl","Paul-Gerhardt-Str. 2","44628","Herne"
"Lidl","Karolinen Str. 8","44649","Herne"
"Lidl","Walter-Sauer-Str. 1","45711","Datteln-Meckinghoven"
"Lidl","Am Hauptbahnhof 5","45127","Essen"
"Lidl","Wanner Str. 155","45888","Gelsenkirchen"
"Lidl","Bokermühlstr. 9","45879","Gelsenkirchen"
"Lidl","Bochumer Str. 222","45661","Recklinghausen"
"Lidl","Hammerschmidt Str. 76","44649","Herne"
"Lidl","Essener Str. 71","45141","Essen"
"Lidl","Hausackerstr. 27","45147","Essen"
"Lidl","Sachsenstr. 101 b","45665","Recklinghausen-Suderwich"
"Lidl","Girmes-Kreuz-Str. 65","41564","Kaarst"
"Lidl","Katzenbruchstr. 5-7","45141","Essen"
"Lidl","Haedenkampstr. 81","45143","Essen"
"Lidl","Berghäuser Str. 1b","45663","Recklinghausen"
"Lidl","Pfarrer-Holl-Weg 21","40489","Düsseldorf"
"Lidl","Wiesenstr. 6a","45711","Datteln"
"Lidl","Katernberger Str. 76-78","45327","Essen"
"Lidl","Helenenstr. 66","45143","Essen"
"Lidl","Grimbergstr. 2","45889","Gelsenkirchen"
"Lidl","Hans-Böckler-Allee 100","45883","Gelsenkirchen"
"Lidl","Andreasstr. 22","48231","Warendorf"
"Lidl","Hingbergstr. 337","45472","Mülheim an der Ruhr"
"Lidl","Hövelstr. 175","45326","Essen"
"Lidl","Castroper Str. 136","45665","Recklinghausen"
"Lidl","Altenessener Str. 284","45326","Essen"
"Lidl","Schürenstr. 51","48336","Sassenberg"
"Lidl","Ludwigstr. 66","45739","Oer-Erkenschwick"
"Lidl","Essener Str. 44","45470","Mülheim an der Ruhr"
"Lidl","Püllenweg 11","41352","Korschenbroich"
"Lidl","Düsseldorferstr. 205","45481","Mülheim an der Ruhr-Saarn"
"Lidl","Uferstr. 3","45881","Gelsenkirchen"
"Lidl","Ewaldstr. 244","45699","Herten"
"Lidl","Wolfsbankring 20","45355","Essen"
"Lidl","Gladbecker Str. 163","46236","Bottrop-Stadtmitte"
"Lidl","An der Feuerwache 1","45739","Oer-Erkenschwick"
"Lidl","Stapper Weg 11","41199","Mönchengladbach-Geistenbeck"
"Lidl","Alte Bottroper Str. 3","45356","Essen-Bergeborbeck"
"Lidl","Großenbaumer Allee 61","47269","Duisburg"
"Lidl","Hertener Str. 100","45657","Recklinghausen"
"Lidl","Engelbertstr. 47","45892","Gelsenkirchen"
"Lidl","Kaiserstr. 223","45701","Herten"
"Lidl","Stockholtweg 100","41238","Mönchengladbach"
"Lidl","Karnaper Str. 139","45329","Essen"
"Lidl","Paschenbergstr. 1","45699","Herten"
"Lidl","Weseler Str. 64-66","45478","Mülheim an der Ruhr-Speldorf"
"Lidl","Heifeskamp 18","45475","Mülheim an der Ruhr"
"Lidl","Kärntener Ring 70","45899","Gelsenkirchen"
"Lidl","Oberhausener Str. 91-95","45476","Mülheim an der Ruhr-Styrum"
"Lidl","Mittelstr. 48","41236","Mönchengladbach-Geistenbeck"
"Lidl","Donnerstr. 201","45357","Essen"
"Lidl","Mündelheimer Str. 184","47259","Duisburg"
"Lidl","Breite Str. 120","41236","Mönchengladbach-Pesch"
"Lidl","Feldstr. 212","45701","Herten"
"Lidl","Mülheimer Str. 306-312","46045","Oberhausen"
"Lidl","Vinckestr. 19","45894","Gelsenkirchen-Buer"
"Lidl","Düsseldorfer Str. 438","47055","Duisburg"
"Lidl","Roßheidestr. 6","45968","Gladbeck"
"Lidl","Brammenring 1","46047","Oberhausen-Neue Mitte"
"Lidl","Neusser Str. 57","41065","Mönchengladbach-Pesch"
"Lidl","Hiltruper Str. 24","48167","Münster-Wolbeck"
"Lidl","Koloniestr. 78","47057","Duisburg"
"Lidl","Lindenstr. 108 a","45894","Gelsenkirchen"
"Lidl","Engelblecker Str. 73","41066","Mönchengladbach-Neuwerk"
"Lidl","Horster Str. 262","46238","Bottrop-Batenbrock"
"Lidl","Zum Güterbahnhof 6","47877","Willich"
"Lidl","Bebelstr. 102","46049","Oberhausen"
"Lidl","Peterstr. 25.27","46236","Bottrop-Stadtmitte"
"Lidl","Brückenstr. 60-62","47053","Duisburg-Hochfeld"
"Lidl","Gladbacher Str. 49","41179","Mönchengladbach"
"Lidl","Friedrich-Alfred-Str. 217 - 219","47226","Duisburg"
"Lidl","Spenger Str. 8","49328","Melle"
"Lidl","Duisburger Str. 263","46049","Oberhausen"
"Lidl","An der Kesselschmiede 2","47829","Krefeld-Uerdingen"
"Lidl","Monschauer Str. 31","41068","Mönchengladbach-Waldhausen"
"Lidl","Buersche Str. 85","45964","Gladbeck"
"Lidl","Bahnhofstr. 50","49214","Bad Rothenfelde"
"Lidl","Dießemer Bruch 87","47805","Krefeld"
"Lidl","Teutoburger Str. 313","46119","Oberhausen"
"Lidl","Max-Peters-Str. 8","47059","Duisburg"
"Lidl","Sandstr. 24","45964","Gladbeck"
"Lidl","Am Landabsatz 1","41836","Hückelhoven"
"Lidl","Lindnerstr. 63","46149","Oberhausen-Buschhausen"
"Lidl","Hornstr. 5","45964","Gladbeck"
"Lidl","Westfalenstr. 130a","48165","Münster-Hiltrup"
"Lidl","Gladbacher Str. 326","47805","Krefeld"
"Lidl","Victoriastr. 99","45772","Marl"
"Lidl","Scheideweg 65-69","45896","Gelsenkirchen"
"Lidl","Up de Heuchte 5","49196","Bad Laer"
"Lidl","Flutweg 120","47228","Duisburg"
"Lidl","Bahnhofstr. 60","47138","Duisburg"
"Lidl","Bergstr. 223-225","45770","Marl"
"Lidl","Rathausallee 37","47239","Duisburg"
"Lidl","Industriestr. 3","49324","Melle"
"Lidl","Dorstener Str. 290-292","46145","Oberhausen-Tackenberg"
"Lidl","Nauenweg 78-80","47804","Krefeld"
"Lidl","Orkotten 46/48","48291","Telgte"
"Lidl","Gahlingspfad 25","47803","Krefeld"
"Lidl","Bulderner Str. 8","48308","Senden"
"Lidl","Sudendorfer Esch 3","49219","Glandorf"
"Lidl","Alexstr. 89","47167","Duisburg"
"Lidl","Am Bahnhof 12","41844","Wegberg"
"Lidl","Dümmer Weg 201","45772","Marl"
"Lidl","Weierstr. 87","46149","Oberhausen-Schwarze Heide"
"Lidl","Robert-Bosch-Str. 2","48153","Münster-Berg Fidel"
"Lidl","Girmesgath 3","47803","Krefeld"
"Lidl","Maysweg 4","47918","Tönisvorst"
"Lidl","Oldendorfer Str. 44","49324","Melle"
"Lidl","Friedrich-Ebert-Str. 207","47139","Duisburg"
"Lidl","Duisburger Str. 247","47166","Duisburg"
"Lidl","Lauerstr. 70","47198","Duisburg"
"Lidl","Lorenkamp 1","45721","Haltern am See"
"Lidl","Hammer Str. 151","48153","Münster"
"Lidl","Friedrich-Ebert-Str. 17","48153","Münster"
"Lidl","Dingbängerweg 47","48163","Münster-Mecklenbeck"
"Lidl","Schulte-Marxloh-Str. 1","47169","Duisburg"
"Lidl","Römerstr. 446","47441","Moers"
"Lidl","Münsterstr. 77","45721","Haltern am See"
"Lidl","Marler Str. 137","46282","Dorsten"
"Lidl","Dorbaumstr. 108","48157","Münster-Handorf"
"Lidl","Franz-Haniel-Str. 22","47443","Moers"
"Lidl","Weilerstr. 51-53","41849","Wassenberg"
"Lidl","Holtener Str. 203","47179","Duisburg"
"Lidl","Klever Str. 46","47441","Moers"
"Lidl","York-Ring 22","48159","Münster"
"Lidl","Gewerbestr. 1","48249","Dülmen"
"Lidl","Tönisvorster Str. 65","41749","Viersen-Sittard"
"Lidl","Arnheimweg 9","48161","Münster-Gievenbeck"
"Lidl","Heiligenstr. 1","41751","Viersen"
"Lidl","Hüttenweg 4","48249","Dülmen"
"Lidl","Roermonder Str. 7","41366","Schwalmtal"
"Lidl","Hülsdonker Str. 110","47441","Moers"
"Lidl","Fresnostr. 16","48159","Münster"
"Lidl","Borkener Str. 43","46284","Dorsten"
"Lidl","Münsterstr. 150","48249","Dülmen"
"Lidl","Westhoffstr. 138","48159","Münster-Kinderhaus"
"Lidl","Am Brauturm 16","46286","Dorsten"
"Lidl","Gerhard-Malina-Str. 2a","46537","Dinslaken"
"Lidl","Niederrheinallee 293","47506","Neukirchen-Vluyn"
"Lidl","Kleinbahnstr. 20","47906","Kempen"
"Lidl","Hedwigstr. 18","46537","Dinslaken-Bruch"
"Lidl","Hauptstr. 48","47929","Grefrath"
"Lidl","Gewerbering 14","41372","Niederkrüchten"
"Lidl","Klöcknerstr. 27","49124","Georgsmarienhütte"
"Lidl","Appelhülsener Str. 3","48301","Nottuln"
"Lidl","Borner Str. 78","41379","Brüggen"
"Lidl","Niedieckstr. 58","41334","Nettetal"
"Lidl","Gartenstr. 74","49152","Bad Essen"
"Lidl","Bahnhofstr. 141","46562","Voerde (Niederrhein)"
"Lidl","Prinzenstr. 80-84","47475","Kamp-Lintfort"
"Lidl","Auf der Feuerwache 35","48329","Havixbeck"
"Lidl Vertriebs GmbH & Co. KG","Krummensteg 137","47475","Kamp-Lintfort"
"Lidl","Bahnhofstr. 85","47495","Rheinberg"
"Lidl","Im Loh 44","49124","Georgsmarienhütte"
"Lidl","Natruper Str. 62-64","49170","Hagen"
"Lidl","Iburger Str. 225","49082","Osnabrück-Nahne"
"Lidl","Fritz-Reuter-Str. 1-5","49525","Lengerich"
"Lidl","Mindener Str. 108","49084","Osnabrück-Schinkel"
"Lidl","Hannoversche Str. 19","49084","Osnabrück-Fledder"
"Lidl","Saerbecker Str. 10-12","48268","Greven"
"Lidl","An der alten Molkerei 13","48341","Altenberge"
"Lidl","Kölner Str. 85","47647","Kerken"
"Lidl","Bremer Str. 35","49163","Bohmte"
"Lidl","Bremer Str. 46","49179","Ostercappeln"
"Lidl","Weberstr. 3","49191","Belm"
"Lidl","Poststr. 67-73","41334","Nettetal-Kaldenkirchen"
"Lidl","Poststr. 6a","46562","Voerde (Niederrhein)-Friedrichsfeld"
"Lidl","Hans-Wunderlich-Str. 2","49078","Osnabrück-Weststadt"
"Lidl","Industriestr. 4","48727","Billerbeck"
"Lidl","Mönkedieckstr. 11-13","49088","Osnabrück-Dodesheide"
"Lidl","Pagenstecher Str. 96","49090","Osnabrück-Hafen"
"Lidl","Rudolf-Diesel-Str. 18","46485","Wesel"
"Lidl","Industriestr. 1","46359","Heiden"
"Lidl","Felix-Fraling-Straße 12","48356","Nordwalde"
"Lidl","Rekener Str. 67","48653","Coesfeld-Goxel"
"Lidl","Kanalstr. 2","48268","Greven-Reckenfeld"
"Lidl","Vogt-von-Belle-Platz 15","47661","Issum"
"Lidl Vertriebs GmbH & Co. KG","Am Velper Mühlenbach 6","49492","Westerkappeln-Velpe"
"Lidl","Bevergerner Damm 1","48369","Saerbeck"
"Lidl","Reeser Landstr. 66","46483","Wesel"
"Lidl","Alte Gärtnerei 5","46342","Velen"
"Lidl","Harttor 20-24","47608","Geldern"
"Lidl","Bahnhofstr. 38","48612","Horstmar"
"Lidl","Raiffeisenstr. 5","46325","Borken"
"Lidl","Altenberger Str. 5","48565","Steinfurt-Borghorst"
"Lidl","Borghorster Str. 15","48282","Emsdetten"
"Lidl","Gerhard-Hauptmann-Str. 38-40","47608","Geldern"
"Lidl","Heerstr. 2","49492","Westerkappeln"
"Lidl","Bahnhofstr. 52-54","48712","Gescher"
"Lidl","Sparkassenweg 7","49419","Wagenfeld"
"Lidl","Alpener Str. 13","47665","Sonsbeck"
"Lidl","Osnabrücker Str. 97","49477","Ibbenbüren"
"Lidl","Gravenhorster Str. 126","49477","Ibbenbüren"
"Lidl","Westerkappelner Str. 20","49497","Mettingen"
"Lidl","Hagdornstr. 1","46509","Xanten"
"Lidl","Baumgarten 1","48565","Steinfurt-Burgsteinfurt"
"Lidl","Molkereihof 10","46414","Rhede-Krechting"
"Lidl","Dechant-Römer-Str. 19","48432","Rheine"
"Lidl","Lindenstr. 62","49565","Bramsche"
"Lidl","Am Schleußgraben 10","47623","Kevelaer"
"Lidl","Bahnhofstr. 57","48477","Hörstel"
"Lidl","Grabenstr. 1-5","48703","Stadtlohn"
"Lidl","Friesenstr. 23","46395","Bocholt-Biemenhorst"
"Lidl","Hunteburger Str. 18-20","49401","Damme"
"Lidl","Elter Str. 234","48432","Rheine"
"Lidl","Klosterstr. 1","49509","Recke"
"Lidl","Gleisweg 3","48619","Heek"
"Lidl","Hakenstr. 2","49434","Neuenkirchen-Neuenkirchen"
"Lidl","Zum Thie 6","48485","Neuenkirchen"
"Lidl","Otto-Bergmeyer-Str. 1","48431","Rheine-Dorenkamp"
"Lidl","Wessumer Str. 67-69","48683","Ahaus"
"Lidl","Carl-Schwarze-Str. 1","49356","Diepholz"
"Lidl","Florastr. 3 a","46459","Rees"
"Lidl","Bonifatiusstr. 234a","48432","Rheine-Schotthock"
"Lidl","Lohner Str. 4","49439","Steinfeld"
"Lidl","Winterswijker Str. 17","48691","Vreden"
"Lidl","Laurenzstr. 9","48607","Ochtrup"
"Lidl","Bahnhofstr. 24-26","47546","Kalkar"
"Lidl","Schapener Str. 4","48496","Hopsten"
"Lidl","Weezer Str. 18","47574","Goch"
"Lidl","Linders Feld 1","46419","Isselburg-Anholt"
"Lidl","Niedersachsenweg 25","49406","Barnstorf"
"Lidl","Klever Str. 30","47574","Goch"
"Lidl","Ringstr. 37","48480","Spelle"
"Lidl","Freiherr-v.-Twickel-Str. 2","48499","Salzbergen"
"Lidl","Gronauer Str. 120","48599","Gronau (Westf.)"
"Lidl","Robert-Bosch-Str. 2a","49593","Bersenbrück"
"Lidl","Lindenstr. 1","49577","Ankum"
"Lidl","Vereinsstr. 177-185","48599","Gronau (Westf.)"
"Lidl","Keetstr. 24","49393","Lohne"
"Lidl","Königstr. 62 - 64","48599","Gronau (Westf.)"
"Lidl","Graf-Egbert-Str. 17","48465","Schüttorf"
"Lidl","Fröhlkingstr. 10","49584","Fürstenau"
"Lidl","Rheiner Str. 7a","48455","Bad Bentheim"
"Lidl","Quakenbrücker Str. 39","49413","Dinklage"
"Lidl","Eltenerstr. 17","46446","Emmerich"
"Lidl","Oldenburger Str. 19-21","49377","Vechta"
"Lidl","Neuer Markt 20","49832","Freren"
"Lidl","Materborner Allee 61-63","47533","Kleve"
"Lidl","Bahnhofstr. 25","48488","Emsbüren"
"Lidl","Hauptstr. 71","49424","Goldenstedt"
"Lidl","Südholter Str. 3","49456","Bakum"
"Lidl","Bürgerstr. 8","49610","Quakenbrück"
"Lidl","Cloppenburger Str. 2","49632","Essen i. O."
"Lidl","Am Laxtener Esch 1","49811","Lingen (Ems)-Laxten"
"Lidl","Lindenstr. 3-11","49808","Lingen (Ems)"
"Lidl","Heideweg 53","48529","Nordhorn"
"Lidl","Borkener Hof 6","48527","Nordhorn"
"Lidl","Am Hermelinghof 2","49835","Wietmarschen"
"Lidl","Meppener Str. 129","49808","Lingen (Ems)-Altenlingen"
"Lidl","Am Eichenhain 2","48531","Nordhorn"
"Lidl","Halener Str. 23","49685","Emstek"
"Lidl Vertriebs GmbH & Co. KG","Brookweg 90","49661","Cloppenburg"
"Lidl","Bahnhofsallee 6","49624","Löningen"
"Lidl","Emsteker Str. 63","49661","Cloppenburg"
"Lidl","Warthestr. 20-24","49661","Cloppenburg"
"Lidl","Ladestr. 1","49688","Lastrup"
"Lidl","Lähdener Str. 25","49740","Haselünne"
"Lidl","Meppener Str. 6a","49744","Geeste-Dalum"
"Lidl","Cloppenburger Str. 33","49696","Molbergen"
"Lidl","Weidenstr. 1","49828","Neuenhaus"
"Lidl","Nijenkamp 2","49843","Uelsen"
"Lidl","Fürstenbergstr. 54","49716","Meppen-Kuhweide"
"Lidl","Hauptstr. 96","49681","Garrel"
"Lidl","Versener Str. 48","49716","Meppen-Esterfeld"
"Lidl","Hauptstr. 63-65","49757","Werlte"
"Lidl","Schwarzer Weg 159","49767","Twist"
"Lidl","Südstr. 7","49751","Sögel"
"Lidl","Ringer Str. 13","49824","Emlichheim"
"Lidl","Papenwiese 2","49733","Haren"
"Lidl","Große Str. 15","49762","Lathen-Kathen-Frackel"
"Lidl","St.Ambrogio-Ring 1","55276","Oppenheim"
"Lidl","Bahnstr. 5","55239","Gau-Odernheim"
"Lidl","Lange Ruthe 7","55294","Bodenheim"
"Lidl","Galgenwiesenweg 4-6","55232","Alzey-Dautenheim"
"Lidl","Heiligkreuzweg 120a","55130","Mainz-Weisenau"
"Lidl","Gutenbergstr. 3","55286","Wörrstadt"
"Lidl","Am Giener 23","55268","Nieder-Olm"
"Lidl","Am Schleifweg 2","55128","Mainz-Bretzenheim"
"Lidl","Große Bleiche 41-45","55116","Mainz-Altstadt"
"Lidl","Hattenbergstr. 7","55122","Mainz-Neustadt"
"Lidl","Alte Markthalle 2","55120","Mainz-Mombach"
"Lidl Vertriebs GmbH & Co. KG","In der Rohrgewann 13","55597","Wöllstein"
"Lidl","In der Krummgewann 18","55597","Wöllstein"
"Lidl","Binger-Str. 210","55218","Ingelheim"
"Lidl","Mainzer Str. 1","55545","Bad Kreuznach-Planig"
"Lidl","Zur Alsenz 2","55583","Bad Kreuznach - Bad Münster"
"Lidl","Alzeyer Str. 1","55543","Bad Kreuznach-Winzenheim"
"Lidl","Am Kieselberg 8","55457","Gensingen"
"Lidl","Brückes 36-40","55545","Bad Kreuznach-Winzenheim"
"Lidl","Hitchinstr. 46","55411","Bingen-Büdesheim"
"Lidl","Monzinger Str. 91","55566","Bad Sobernheim"
"Lidl","Königsberger Str. 1","55442","Stromberg"
"Lidl","Jakob-Müller-Str. 2","55606","Kirn"
"Lidl","Rheinstr. 20-22","56368","Katzenelnbogen"
"Lidl","Im Tuchscheren 7","55430","Oberwesel"
"Lidl","Webergasse 13","56355","Nastätten"
"Lidl","Otto-Decker-Str. 5-7","55743","Idar-Oberstein"
"Lidl","Vollmersbachstr. 75","55743","Idar-Oberstein"
"Lidl","Wasserschiederstr. 44","55765","Birkenfeld"
"Lidl","Im Weihersweiler 1","55624","Rhaunen"
"Lidl","Auf den Gärten 1,3,5","56412","Görgeshausen"
"Lidl","Freiherr-von-Drais-Str. 1","55481","Kirchberg"
"Lidl","Am Stadion 3","56281","Emmelshausen"
"Lidl","Fordstr. 4","56288","Kastellaun"
"Lidl","Rheinuferstr. 1a","56341","Kamp-Bornhofen"
"Lidl","Im Schiffels 3","55491","Büchenbeuren"
"Lidl","Ernst-Born-Str. 4","56130","Bad Ems"
"Lidl","Industriestr. 28a","56412","Montabaur"
"Lidl","Mainzer-Str. 75","56321","Rhens"
"Lidl","Hauptstr. 1c","56477","Rennerod"
"Lidl","Am Dreieck 1","54497","Morbach"
"Lidl","Hergenrother Str. 2b","56457","Westerburg"
"Lidl","Koblenzer Str. 38","56112","Lahnstein-Niederlahnstein"
"Lidl","Koblenzer Str. 27-29","56112","Lahnstein-Niederlahnstein"
"Lidl","Auf der Klaus 10-12","56422","Wirges"
"Lidl","Im Teichert 115","56076","Koblenz"
"Lidl","Gusenburger Str. 1","54411","Hermeskeil"
"Lidl","Frankenstr. 1-3","56068","Koblenz"
"Lidl","Wallersheimer Weg 46-48","56070","Koblenz"
"Lidl","Schlachthofstr. 33","56073","Koblenz-Rauental"
"Lidl","Rudolf-Diesel-Str. 12","56203","Höhr-Grenzhausen"
"Lidl Vertriebs GmbH & Co. KG","Am Rübgarten 1","57299","Burbach"
"Lidl","Rheinstr. 105","56179","Vallendar"
"Lidl","Neue Str. 1","56841","Traben-Trarbach"
"Lidl","Jahnstr. 19","56470","Bad Marienberg"
"Lidl","Cusanusstr. 53","54470","Bernkastel-Kues"
"Lidl","Hammermühler Weg 5","56242","Selters"
"Lidl","Ernst-Abbe-Str. 1","56070","Koblenz"
"Lidl","Zur alten Schanze 7","56856","Zell-Barl"
"Lidl","Ludwig-Koch-Str. 7","57334","Bad Laasphe"
"Lidl Vertriebs-GmbH & Co. KG","Am Autobahnkreuz 8","56072","Koblenz"
"Lidl","Alter Weg 2","56170","Bendorf-Sayn"
"Lidl","Bahnhofstr. 5","56294","Münstermaifeld"
"Lidl","Industriestr. 30","56218","Mülheim-Kärlich"
"Lidl","Sayner Str. 60","56566","Neuwied"
"Lidl","Weidenstr. 3","57290","Neunkirchen"
"Lidl","Koblenzer Str. 8","57627","Hachenburg"
"Lidl","Michelsbergstr. 1-7","56299","Ochtendung"
"Lidl","Königsberger Str. 8","56269","Dierdorf"
"Lidl","Vor Geisenach 2","56751","Polch"
"Lidl","Stettiner Str. 3a","56564","Neuwied"
"Lidl","Am Heckbaum 2","56812","Cochem"
"Lidl","Am Rathaus 3","57562","Herdorf"
"Lidl","Aubachstr. 88","56567","Neuwied-Torney"
"Lidl","Koblenzer Str. 33","56626","Andernach"
"Lidl","Limburgstr. 26","57319","Bad Berleburg"
"Lidl","Urbacherstr. L 264","56305","Puderbach"
"Lidl","Eiserfelder Str. 342","57080","Siegen-Eiserfeld"
"Lidl","Siegener Str. 15","57339","Erndtebrück"
"Lidl","Robert-Bosch-Str. 2","56743","Mendig"
"Lidl","Wilhelm-Conrad-Röntgen-Str. 2","56759","Kaisersesch"
"Lidl","Frankfurter Str. 25","57074","Siegen"
"Lidl","Kölner Str. 4","57555","Mudersbach"
"Lidl","Hausener Str. 2-6","56727","Mayen"
"Lidl","Kurfürstenstr. 69","54516","Wittlich"
"Lidl","Hagener Str. 42","57072","Siegen"
"Lidl","Polcher-Str. 87","56727","Mayen"
"Lidl","Neuer Bahnhof 7","54528","Salmtal"
"Lidl","Wilhelmstr. 127-133","57518","Betzdorf"
"Lidl","In den Schlimmfuhren 7","54338","Schweich"
"Lidl","Siegstr. 87 a","57250","Netphen-Dreis-Tiefenbach"
"Lidl","Jungenthaler Str. 1","57548","Kirchen"
"Lidl","Robert-Schuman-Allee 31","54296","Trier"
"Lidl","Landblum 2","56593","Horhausen"
"Lidl","Wenschtstr. 1","57078","Siegen-Geisweid"
"Lidl","Kölner Str. 44-48","57610","Altenkirchen-Leuzbach"
"Lidl","Verteilerring 1","54292","Trier"
"Lidl","Im Hagen 27","54439","Saarburg-Niederleuken"
"Lidl","Matthiasstr. 7-9","54290","Trier"
"Lidl","Im Mühlengrund 1","59955","Winterberg"
"Lidl","Hornstr. 23","54294","Trier"
"Lidl","In der Deubach 2","57537","Wissen"
"Lidl","Wittgensteiner Str. 123","57271","Hilchenbach"
"Lidl","Roscheider Str. 1","54329","Konz"
"Lidl","Industriestr. 1","56598","Rheinbrohl"
"Lidl","Am Silberstern 12","57258","Freudenberg"
"Lidl","Kelberger Str. 12","56766","Ulmen"
"Lidl","Am Kesselberg 1","53498","Bad Breisig"
"Lidl","Bahnhofstr. 98","56745","Weibern"
"Lidl","Hagener Str. 204","57223","Kreuztal-Eichen"
"Lidl","Alte Post/Weststr. 2","57392","Schmallenberg"
"Lidl","Anton-Limbach-Str. 10","53567","Asbach"
"Lidl","Wisseraue 7","51597","Morsbach"
"Lidl","Wehrscheid 22","57392","Schmallenberg"
"Lidl","Rathausstr. 75","51570","Windeck"
"Lidl","Hauptstr. 8","57482","Wenden"
"Lidl","Zeppelinstr. 2","53424","Remagen"
"Lidl","Hauptstr. 4","53539","Kelberg"
"Lidl","Lennewiesen 2","57368","Lennestadt-Altenhundem"
"Lidl","Bitburger Str. 6","54550","Daun"
"Lidl","Carls-Aue-Str. 16","59939","Olsberg"
"Lidl","Rottbitzerstr. 36-40 (L247)","53604","Bad Honnef"
"Lidl","Hauptstr. 14-20","51545","Waldbröl-Hermesdorf"
"Lidl","Am Hohen Weg 26a","53572","Unkel"
"Lidl","Siegstr. 125","53783","Eitorf"
"Lidl","In der Ex 3","53518","Adenau"
"Lidl","Rathausstr. 28","53474","Bad Neuenahr-Ahrweiler"
"Lidl","Hugo-Ruegenberg-Str. 1","57462","Olpe"
"Lidl","Westerwaldstr. 207","53773","Hennef (Sieg)"
"Lidl","Hauptstr. 107","53619","Rheinbreitbach"
"Lidl","Ziegeleistr. 1","57462","Olpe"
"Lidl","Bademerstr. 73","54655","Kyllburg"
"Lidl","Ahrweiler Str. 50","53474","Bad Neuenahr-Ahrweiler"
"Lidl","Saarstr. 58","54634","Bitburg"
"Lidl","Brölstr. 2h","53809","Ruppichteroth"
"Lidl","Möhnestr. 26","59929","Brilon"
"Lidl","Hagener Str. 75","57489","Drolshagen"
"Lidl","In der Mähbach 2","51580","Reichshof-Eckenhagen"
"Lidl","Anselm-Dingerkus-Str. 4","57439","Attendorn"
"Lidl","Drachenburgstr. 7","53179","Bonn-Lannesdorf"
"Lidl","Bundesstr. 149","59909","Bestwig"
"Lidl","Emil-Langen-Str. 2","53773","Hennef (Sieg)"
"Lidl","Bernareggio Platz 8","53343","Wachtberg"
"Lidl","Sarresdorfer Str. 48","54568","Gerolstein"
"Lidl","Im Mühlenbruch 9","53639","Königswinter-Niederdollendorf"
"Lidl","Kölner Str. 30","51702","Bergneustadt-Leienbach"
"Lidl","Elsässer Str. 20","53175","Bonn"
"Lidl","Im Schwarzen Bruch 46","59872","Meschede"
"Lidl","Zum Kisseltal 2","53819","Neunkirchen-Seelscheid"
"Lidl","Hermann-Ehlers-Weg 7","53340","Meckenheim"
"Lidl","Kölner Str. 44","54576","Hillesheim"
"Lidl","Vollmerhauser Str. 70","51645","Gummersbach"
"Lidl","Ihnestr. 5","58540","Meinerzhagen"
"Lidl","Industriestr. 2","51643","Gummersbach"
"Lidl","Reinhold-Hagen-Str. 15","53229","Bonn-Beuel"
"Lidl","Herrenhofer Str. 1","51674","Wiehl"
"Lidl","Hausdorffstr. 190","53129","Bonn-Kessenich"
"Lidl","Hausener Str. 1","53819","Neunkirchen-Seelscheid"
"Lidl","Maarstr. 48","53227","Bonn"
"Lidl","Bonner Str. 137","53757","St. Augustin"
"Lidl","Grafweg 19","58840","Plettenberg"
"Lidl","Zum Hohen Ufer 2/Ecke Wilhelmstr.","53721","Siegburg"
"Lidl","An den Märkten 15","53359","Rheinbach"
"Lidl","Bahnhofstr. 80","59872","Meschede"
"Lidl","Basketsring 7","53123","Bonn-Duisdorf"
"Lidl","Siegstr. 2","53757","St. Augustin-Menden"
"Lidl","Endenicher Str. 116","53115","Bonn-Weststadt"
"Lidl","Alte Kreisstr. 11","59581","Warstein"
"Lidl","Breddestr. 1 b","58840","Plettenberg-Eiringhausen"
"Lidl","Aachener Str. 31","53359","Rheinbach"
"Lidl","Frankfurter Str. 93","53840","Troisdorf"
"Lidl","Schemmen 4","51709","Marienheide"
"Lidl","Am Bücking 2","58540","Meinerzhagen"
"Lidl","Kölnstr. 333-337","53117","Bonn-Nordstadt"
"Lidl","Kirchstr. 15","53797","Lohmar"
"Lidl","Olpener Str. 15","51766","Engelskirchen"
"Lidl","Justus-von-Liebig-Str. 8","53121","Bonn-Dransdorf"
"Lidl","Wahlscheider Str. 120","53797","Lohmar"
"Lidl","Settmecke Str. 35","59846","Sundern"
"Lidl","Im Zehntfeld 68","53844","Troisdorf-Rotter See"
"Lidl","Oeventroper Str. 5","59823","Arnsberg"
"Lidl","Kölner Str. 145 - 149","58566","Kierspe"
"Lidl","Kölner Str. 4","54673","Neuerburg"
"Lidl","Auf dem Werth 11","54584","Jünkerath"
"Lidl","Hauptstr. 77-79","53842","Troisdorf-Spich"
"Lidl","Havelstr. 4","53332","Bornheim"
"Lidl","Am Mürel 1 A","53945","Blankenheim"
"Lidl","Bahnhofstr. 32","54595","Prüm"
"Lidl","Bahnhofstr. 94","53859","Niederkassel-Rheidt"
"Lidl","Kirschbäumchen 49","51789","Lindlar"
"Lidl","Hauptstr. 100","51503","Rösrath"
"Lidl","Möhnestr. 142","59581","Warstein"
"Lidl","Ruhrstr. 68","59821","Arnsberg"
"Lidl","Fritz-Thomee-Platz 1","58791","Werdohl"
"Lidl","Heidestr. 38","51147","Köln-Wahn"
"Lidl","Mühlendorf 12","58809","Neuenrade"
"Lidl","Schulstr. 22","51491","Overath"
"Lidl","Bromberger Str. 1","58511","Lüdenscheid"
"Lidl","Hönnetalstr. 44","58802","Balve"
"Lidl","Porzer Str. 75","53859","Niederkassel"
"Lidl","Auf dem Knickert 2","53332","Bornheim"
"Lidl","Roitzheimer Str. 111a","53879","Euskirchen"
"Lidl","Altenaer Str. 57","58507","Lüdenscheid"
"Lidl","Eichholzer Str. 88","50389","Wesseling-Keldenich"
"Lidl","Kaiserstr. 99","51145","Köln-Porz"
"Lidl","Berger Str. 2","59609","Anröchte"
"Lidl","Flach-Fengler-Str. 48-54","50389","Wesseling"
"Lidl","Schumannstr. 2b","58509","Lüdenscheid"
"Lidl","Friedrich-Naumann-Str. 1","51149","Köln-Eil"
"Lidl","Heinrich-Lübke-Str. 3","59759","Arnsberg"
"Lidl","Paul-Ehrlich-Str. 9","53879","Euskirchen"
"Lidl","Volmestr. 125","58515","Lüdenscheid"
"Lidl","Störmeder Str. 40","59590","Geseke"
"Lidl","Kölner Str. 73","51429","Bergisch Gladbach"
"Lidl","Kölner Str. 8","51149","Köln-Ensen"
"Lidl","Feytalstr. 19","53894","Mechernich"
"Lidl","Werdohler Str. 5","58762","Altena"
"Lidl","Rudolf-Diesel-Str. 9-11","53919","Weilerswist"
"Lidl","Lenneper Str. 61","51688","Wipperfürth"
"Lidl","Hagener Str. 48 a","58553","Halver"
"Lidl","Lustheide 111","51427","Bergisch Gladbach-Lustheide"
"Lidl","Emil-Hoffmann-Str. 42","50996","Köln-Hahnwald"
"Lidl","Tappeweg 13","59755","Arnsberg"
"Lidl","Hauptstr. 393","51465","Bergisch Gladbach"
"Lidl","Ringstr. 48","50996","Köln-Rodenkirchen"
"Lidl","Mechernicher Weg 3","53894","Mechernich"
"Lidl","Hüttenstr. 98","53925","Kall"
"Lidl","Rösrather Str. 87","51107","Köln-Ostheim"
"Lidl","Steingasse 4","50321","Brühl-Badorf"
"Lidl","Köln Str. 108-110","50321","Brühl-Vochem"
"Lidl","Olpener Str. 401","51109","Köln-Merheim"
"Lidl","Mülheimer Str. 76","51469","Bergisch Gladbach"
"Lidl","Am Riesenberg 1a","59469","Ense"
"Lidl","Elsa-Brandström-Str. 11","58675","Hemer"
"Lidl","Gremberger Str. 132","51105","Köln"
"Lidl","Lendringser Hauptstr. 71","58710","Menden-Lendringsen"
"Lidl","Kasernenstr. 2","51103","Köln-Kalk"
"Lidl","Mendener Str. 46","58675","Hemer"
"Lidl","Siegburger Str. 120","50679","Köln-Poll"
"Lidl","Westfalenstr. 81","58636","Iserlohn"
"Lidl","Wasserwerkstr. 8","51067","Köln-Holweide"
"Lidl","Raderberger Str. 211","50968","Köln-Raderberg"
"Lidl","Bonner Str. 243","50968","Köln-Bayenthal"
"Lidl","An der Pulvermühle 2","51105","Köln"
"Lidl","Holzdamm 6","50374","Erftstadt"
"Lidl","Planckstr. 2","59557","Lippstadt"
"Lidl","Opmünder Weg 77","59494","Soest"
"Lidl","Bergisch Gladbacher Str. 190","51067","Köln-Buchheim"
"Lidl","Karlsruher Str. 21","51065","Köln-Buchheim"
"Lidl","Bonner Wall 114-116","50677","Köln"
"Lidl","Kölnstr. 110","50354","Hürth"
"Lidl","Höninger Weg 133","50969","Köln-Zollstock"
"Lidl","An der Olef 42+44","53937","Schleiden"
"Lidl","Deutz-Mülheimer-Str. 140-144","51063","Köln"
"Lidl","Wiener Platz 1","51065","Köln"
"Lidl","Römerallee 40-42","53909","Zülpich"
"Lidl","Luxemburger Str. 80","50354","Hürth-Efferen"
"Lidl","Rhöndorfer Str. 12","50939","Köln"
"Lidl","Berliner Str. 156","51063","Köln"
"Lidl","Karl-Arnold-Str. 14","58644","Iserlohn"
"Lidl","Am Bahnhof 2","59494","Soest"
"Lidl","Marienheider Str. 1","51069","Köln"
"Lidl","Neumarkt 8-10","50667","Köln-Altstadt-Nord"
"Lidl","Düsseldorfer Str. 177","51063","Köln"
"Lidl","Habsburgerring 2","50674","Köln"
"Lidl","Schapker Weg 2","58638","Iserlohn"
"Lidl","Zülpicher Str. 297","50937","Köln"
"Lidl","Herriger Str. 29","50374","Erftstadt"
"Lidl","Wiedenbrücker Str. 78","59555","Lippstadt"
"Lidl","Fröndenberger Str. 101","58706","Menden (Sauerland)"
"Lidl","Hornstr. 88","50823","Köln-Neuehrenfeld"
"Lidl","Hagener Str. 177","58642","Iserlohn"
"Lidl Vertriebs GmbH & Co. KG","Hornpottweg 11","51375","Leverkusen"
"Lidl","Heerstr. 507","50169","Kerpen"
"Lidl","Holzener Dorfstr. 8","58708","Menden (Sauerland)"
"Lidl","Carl-von-Ossietzky-Str. 1","51377","Leverkusen"
"Lidl","Sebastianstr. 28-32","50735","Köln-Niehl"
"Lidl","Stixchesstr. 133","51377","Leverkusen-Manfort"
"Lidl","Leyendeckerstr. 2a","50825","Köln-Ehrenfeld"
"Lidl","Horbeller Str. 2-4","50858","Köln"
"Lidl","Massiefen 1-5","51399","Burscheid"
"Lidl","Widdersdorfer Str. 254","50933","Köln"
"Lidl","Gotenweg 7-9","58119","Hagen"
"Lidl","Neusser Str. 774-776","50737","Köln-Weidenpesch"
"Lidl","Wilh.-Feuerhake-Str. 10","58730","Fröndenberg"
"Lidl","Longericher Str. 181-183","50739","Köln"
"Lidl","Rochusstr. 227-235","50827","Köln-Bickendorf"
"Lidl","Dr-Gottfried-Cremer-Allee 22","50226","Frechen"
"Lidl","Eilper Str. 42-44","58091","Hagen-Eilpe"
"Lidl","Unnaer Str. 43-45","59457","Werl"
"Lidl","Hardenbergstr. 80","51373","Leverkusen"
"Lidl","Zedernweg 3","50226","Frechen"
"Lidl","Heerstr. 1-9","50169","Kerpen"
"Lidl Vertriebs GmbH & Co. KG","Fraunhofer Str. 5","50169","Kerpen"
"Lidl","Dieselstr. 1-3","50859","Köln"
"Lidl","Am Mittelweg 1","52388","Nörvenich"
"Lidl","Bonner Str. 7","51379","Leverkusen-Opladen"
"Lidl","Elberfelder Str. 93-103","58095","Hagen"
"Lidl","Preußerstr. 6","58135","Hagen"
"Lidl","Kölner Str. 115","58256","Ennepetal"
"Lidl","Thumer Weg 52","52385","Nideggen"
"Lidl","Waffenschmidtstr. 9","50767","Köln-Pesch"
"Lidl","Marienstr. 2","50171","Kerpen"
"Lidl","Poßkamp 23","59329","Wadersloh"
"Lidl","Alexanderstr. 16","58097","Hagen-Altenhagen"
"Lidl","Oelkinghauser Str. 3","58332","Schwelm"
"Lidl","Hagener Str. 360","58285","Gevelsberg"
"Lidl","Elbeallee 11","50765","Köln-Chorweiler"
"Lidl","Schützenstr. 34a","58239","Schwerte"
"Lidl","Barmer Str. 61","58332","Schwelm"
"Lidl","Reichshofstr. 11-13","58239","Schwerte-Westhofen"
"Lidl","Schwerter Str. 22","58099","Hagen-Boele"
"Lidl","Schwerter Str. 173-175","58099","Hagen-Boele"
"Lidl","Rosendahler Str. 48","58285","Gevelsberg"
"Lidl","Rosenweg 25-27","58239","Schwerte"
"Lidl","Glessener Str. 2","50259","Pulheim"
"Lidl","Bertha-von Suttner-Allee 2","59423","Unna"
"Lidl","Hauptstr. 5","50169","Kerpen"
"Lidl","Windener Weg 10","52372","Kreuzau"
"Lidl","Mühlenstr. 1","58313","Herdecke"
"Lidl","Robert-Koch-Str. 39","52152","Simmerath"
"Lidl","Hansastr. 74","59425","Unna"
"Lidl","Kaiserstr. 18-22","58300","Wetter-Alt-Wetter"
"Lidl","Wilhelmstr. 2c","59439","Holzwickede"
"Lidl","Trierer Str. 224","52156","Monschau-Imgenbroich"
"Lidl","Nideggener Str. 215-217","52349","Düren"
"Lidl","Kamener Str. 37-39","59425","Unna"
"Lidl","Kölner Landstr. 265","52351","Düren"
"Lidl","Am Bahnhof 7","59199","Bönen"
"Lidl","Zum Steinbruch 2","52393","Hürtgenwald"
"Lidl","Monschauer Str. 10","52355","Düren"
"Lidl Vertriebs GmbH & Co. KG","Weetfelder Str. 38","59199","Bönen"
"Lidl","Malteserstr. 47","52349","Düren"
"Lidl","Peter-Achnitz-Str. 6","50129","Bergheim-Kenten"
"Lidl","Humboldt Str. 7-9","50126","Bergheim"
"Lidl","Ostwennemar Str.","59071","Hamm"
"Lidl","Ostwennemarstr. 100","59071","Hamm"
"Lidl","Sternstr. 9","59269","Beckum"
"Lidl","Westfalenstr. 110","58453","Witten-Annen"
"Lidl","Lünener Str. 59","59174","Kamen"
"Lidl","Kamener Str. 176","59077","Hamm-Pelkum"
"Lidl","Eifelstr. 4","50189","Elsdorf"
"Lidl","Lohauserholzstr. 2b","59067","Hamm-Hamm-Westen"
"Lidl","Industriestr. 11","52382","Niederzier"
"Lidl","Fischertalweg 18","58455","Witten-Heven"
"Lidl","Rhedaer Str. 3","59302","Oelde"
"Lidl","Ahlener Str. 75","59073","Hamm-Heessen"
"Lidl","Münsterstr. 77","59065","Hamm"
"Lidl","Parkstr. 23","59192","Bergkamen-Weddinghofen"
"Lidl","Dortmunder Allee 14","59174","Kamen"
"Lidl","Jahnstr. 24","59192","Bergkamen-Oberaden"
"Lidl","Mark I Nr. 2","59269","Beckum-Neubeckum"
"Lidl","Friedrich-Ebert-Str. 14","59075","Hamm"
"Lidl","Wiesenstr. 14","50181","Bedburg-Lipp"
"Lidl","Westenhellweg 2","59192","Bergkamen"
"Lidl","Werner Str. 20","59368","Werne"
"Lidl","Hammer Str. 10","59227","Ahlen"
"Lidl","Warendorfer Str. 120","59227","Ahlen"
"Lidl","Neubeckumer Str. 58","59320","Ennigerloh"
"Lidl","Dürener Str. 278","52249","Eschweiler"
"Lidl","Ardennenstr. 5","52223","Stolberg (Rhld.)-Liester"
"Lidl","Dürener Str. 33","52428","Jülich"
"Lidl","Prattelsackstr. 30a","52222","Stolberg (Rhld.)"
"Lidl","Werkstr. 29","52076","Aachen-Oberforstbach"
"Lidl","Auerbachstr. 17","52249","Eschweiler"
"Lidl","Trierer Str. 665","52078","Aachen-Brand"
"Lidl","Reinhardstr. 1 d","52078","Aachen"
"Lidl","Kapuziner Str. 25-27","52457","Aldenhoven"
"Lidl","Ferdinand-Spahn-Weg 1","59379","Selm"
"Lidl","Eschweiler Str. 1b","52477","Alsdorf-Begau"
"Lidl","Peliserkerstr. 69","52068","Aachen"
"Lidl","Jülicher Str. 358","52070","Aachen"
"Lidl","Am alten Kaninsberg 14","52146","Würselen"
"Lidl","Eynattener Str. 26","52064","Aachen"
"Lidl","Ludgeri Str. 2a","59379","Selm"
"Lidl","Weststr. 50","52074","Aachen"
"Lidl","Henricistr. 68","52072","Aachen"
"Lidl","Am Heggeströver 1b","52477","Alsdorf-Neuweiler"
"Lidl","Alte Bahn 9","52134","Herzogenrath"
"Lidl","Carlstr. 71","52499","Baesweiler"
"Lidl","Rue de Plèrin 1","52134","Herzogenrath"
"Lidl","Am Zollhaus 1","52134","Herzogenrath"
"Lidl","Valve 42","59348","Lüdinghausen"
"Lidl","Am Wasserturm 4","52531","Übach-Palenberg"
"Lidl","Grenzweg 3","52531","Übach-Palenberg"
"Lidl","Gutenbergstr. 3","52511","Geilenkirchen"
"Lidl","Karl-Arnold-Str. 53","52525","Heinsberg"
"Lidl","Unterbrucher Str. 1","52525","Heinsberg"
"Lidl","In der Fummer 2","52538","Selfkant"
,,,
,,,
"Lidl","Luisenstr. 51-53","80333","München"
"Lidl","Leopoldstr. 21","80804","München"
"Lidl","Leopoldstr. 21","80802","München"
"Lidl","Zweibrückenstr. 8","80331","München"
"Lidl","Elisenstr. 3","80335","München"
"Lidl","Dachauer Str. 92","80335","München"
"Lidl","Schwanthaler Str. 31","80336","München"
"Lidl","Schleißheimer Str. 85-87","80797","München"
"Lidl","Kirchenstr. 86","81675","München"
"Lidl","Hackerbrücke 4","80335","München"
"Lidl","Orleansplatz 7","81667","München"
"Lidl","Leopoldstr. 144","80804","München"
"Lidl","Theresienhöhe 5","80339","München"
"Lidl","Nymphenburger Str. 81","80636","München"
"Lidl","Grafinger Str. 29","81671","München"
"Lidl","Dreimühlenstr. 42","81371","München"
"Lidl","Westendstr. 100","80339","München"
"Lidl","Weihenstephaner Str. 32","81673","München"
"Lidl","Knorrstr. 57","80807","München"
"Lidl","Tübinger Str. 5","80686","München-Sendling"
"Lidl","Balanstr. 188","81549","München"
"Lidl","Frankfurter Ring 5","80807","München"
"Lidl","Albert-Roßhaupter-Str. 35-39","81369","München"
"Lidl","Hanauerstr. 2","80992","München"
"Lidl","Freischützstr. 46","81927","München"
"Lidl","Pelkovenstr. 152","80992","München"
"Lidl","Truderinger Str. 190","81825","München"
"Lidl","Nawiasky Str. 3","81735","München"
"Lidl","Mitterfeldallee 10","85774","Unterföhring"
"Lidl","Corinthstr. 3","81825","München"
"Lidl","Ingolstädter Str. 170","80939","München"
"Lidl","Hofmannstr. 16","81379","München"
"Lidl","Fürstenrieder Str. 220","81377","München"
"Lidl","Landsberger Str. 378","80687","München"
"Lidl","Schleißheimer Str. 466/468","80935","München"
"Lidl","Menzinger Str. 85","80992","München"
"Lidl","Nailastr. 21","81737","München"
"Lidl","Rainfarnstr. 50","80933","München"
"Lidl","Kistlerhofstr. 152","81379","München"
"Lidl","Ohmstr. 5","85609","Aschheim"
"Lidl","Dachauer Str. 380","80993","München"
"Lidl","Paul-Gerhardt-Allee 34-36","81245","München"
"Lidl","Oskar-Maria-Graf-Ring 17","81737","München"
"Lidl","Biberger Str. 64","82008","Unterhaching"
"Lidl","Grünwalder Weg 14","82008","Unterhaching"
"Lidl","Georg Reismüller Str. 28","80999","München"
"Lidl","Heimburgstr. 9 +15","81243","München"
"Lidl","Siemensstr. 2","85521","Ottobrunn"
"Lidl","Münchnerstr. 85","85640","Putzbrunn"
"Lidl","Sonnenstr. 13","85764","Oberschleißheim"
"Lidl","Am See 13","85540","Haar"
"Lidl","Brunhamstr. 18","81249","München"
"Lidl","Nibelungenstr. 4","85757","Karlsfeld"
"Lidl","Behringstr. 2b","82152","Planegg"
"Lidl","Bergsonstr. 147","81245","München"
"Lidl","Osterfeldstr. 39","85737","Ismaning"
"Lidl","Robert-Bürkle-Str. 16-18","85737","Ismaning"
"Lidl","Wolfratshauser Str. 110","82049","Pullach"
"Lidl","Zusestr. 5","85649","Brunnthal"
"Lidl","Freisinger Landstr. 45","85748","Garching"
"Lidl","Fraunhoferstr. 2","85551","Kirchheim"
"Lidl","Wettersteinring 7","85221","Dachau"
"Lidl","Olchinger Str. 62","82194","Gröbenzell"
"Lidl","Industriestr. 19","82110","Germering"
"Lidl","Keplerstr. 4","85221","Dachau"
"Lidl","Landshuter Str. 19 b","85716","Unterschleißheim-Lohhof"
"Lidl","Siemensstr. 2","82178","Puchheim"
"Lidl","Gruber Str. 59c","85586","Poing"
"Lidl","Ludwig Dill Str. 69","85221","Dachau"
"Lidl","Starnberger Str. 38","82131","Gauting"
"Lidl","Dieselstr. 35","85386","Eching"
"Lidl Vertriebs GmbH & Co. KG","Gewerbepark 1","85646","Anzing"
"Lidl","Erdinger Straße","85646","Anzing"
"Lidl","Ludwig-Bölkow-Str. 3","82054","Sauerlach"
"Lidl","Erdinger Str. 34","85646","Anzing"
"Lidl","Hermann-Böcker-Str. 2","82140","Olching-Neu-Esting"
"Lidl","Am Mitterfeld 1","85614","Kirchseeon"
"Lidl","Landsberger Str. 16","82205","Gilching"
"Lidl","Gautinger Str. 37","82319","Starnberg"
"Lidl","Maisacher Str. 61","82216","Maisach"
"Lidl","Maisacher Str. 122","82256","Fürstenfeldbruck"
"Lidl","Kurt-Huber-Ring 17","82256","Fürstenfeldbruck"
"Lidl","Gewerbestr. 1","85229","Markt Indersdorf"
"Lidl","Otto-Hahn-Str. 25","85435","Erding"
"Lidl","Margaritenstr. 2-8","82515","Wolfratshausen"
"Lidl","Clemensänger Ring 26","85356","Freising"
"Lidl","Anton-Huber-Str. 2","85435","Erding"
"Lidl","Altstadtpassage z. Zt. o. Nr.","85560","Ebersberg"
"Lidl","Haidling 19","85567","Grafing"
"Lidl","Industriestr. 31","83607","Holzkirchen"
"Lidl","Karwendelring 3","85354","Freising"
"Lidl","Rudolf-Diesel-Str. 9","85235","Odelzhausen"
"Lidl","Jeschkenstr. 17","82538","Geretsried"
"Lidl","Hauptstr. 109","82327","Tutzing"
"Lidl","Stumpfenbacher Str. 49","85250","Altomünster"
"Lidl","Gewerbepark BWB 1","83052","Bruckmühl"
"Lidl","Radlhöfe 3","85276","Pfaffenhofen/Ilm-Niederscheyern"
"Lidl","Gerberstr. 1","83527","Haag"
"Lidl","Wendelsteinstr. 5+7","83714","Miesbach"
"Lidl","Demmeljochstr. 7","83646","Bad Tölz"
"Lidl","Ellmosener Str. 22","83043","Bad Aibling"
"Lidl","Haager Str. 51","84405","Dorfen"
"Lidl","Grube 51","82377","Penzberg"
"Lidl","Degernpoint S 3","85368","Moosburg"
"Lidl","Töllernallee 2","82362","Weilheim"
"Lidl","Obere Tiefenbachstr. 9","83734","Hausham"
"Lidl","Landshuter Str. 46","84416","Taufkirchen/Vils"
"Lidl","Holzgartenstr. 15","86415","Mering-Sankt Afra"
"Lidl","Augsburger Str. 23","86551","Aichach"
"Lidl","Bernd-Motzkus-Str. 2","83512","Wasserburg am Inn"
"Lidl","Münchner Str. 14","86438","Kissing"
"Lidl","Rosenheimer Str. 60 b","83059","Kolbermoor-Grubholz"
"Lidl","Grubholzer Str. 3","83026","Rosenheim"
"Lidl","Pichlmayrstr. 13","83024","Rosenheim"
"Lidl","Augsburger Str. 8","86316","Friedberg"
"Lidl","Am Penzinger Feld 5","86899","Landsberg am Lech"
"Lidl","Schwaighofstr. 79","83684","Tegernsee"
"Lidl","Bürgermeister-Götz-Str. 22","86529","Schrobenhausen-Steingriff"
"Lidl","Chiemseestr. 37 a","83022","Rosenheim"
"Lidl","Guldenstr. 31 1/2","86343","Königsbrunn"
"Lidl","Kolpingstr. 10","86916","Kaufering"
"Lidl","Lechfeldstr. 122","86899","Landsberg am Lech"
"Lidl","Unterer Talweg 109","86179","Augsburg"
"Lidl","Donaustr. 6","86165","Augsburg-Lechhausen"
"Lidl","Reichenberger Str. 41","86161","Augsburg-Innenstadt"
"Lidl Vertriebs GmbH & Co. KG","Junkersstr. 1","86836","Graben"
"Lidl","Rosenheimer Str. 22","83064","Raubling-Redenfelden"
"Lidl","Eichleitnerstr. 10","86199","Augsburg"
"Lidl","Donauring 1","86836","Untermeitingen"
"Lidl","Ziegeleistr. 13","86399","Bobingen"
"Lidl","Neuburger Str. 227","86169","Augsburg"
"Lidl","Freisinger Str. 3","84048","Mainburg"
"Lidl","Wackerstr. 1","85084","Reichertshofen"
"Lidl","Heinrich-von-Buz-Str. 4","86153","Augsburg-Oberhausen"
"Lidl","Kristallstr. 2","84032","Altdorf"
"Lidl","Pearl.-S.-Buck-Str. 10","86157","Augsburg-Kriegshaber"
"Lidl","Schulstr. 1","84036","Kumhausen"
"Lidl","Auerstr. 57 a","86156","Augsburg-Oberhausen"
"Lidl","Chiemseestr. 13","83093","Bad Endorf-Hofham"
"Lidl","Schrobenhausener Str. 54","86554","Pöttmes"
"Lidl","Oberndorfer Str. 34A","84032","Landshut"
"Lidl","Rupprechtstr. 22","84034","Landshut"
"Lidl","Wankelstr. 12","86391","Stadtbergen"
"Lidl","Nöttinger Str. 21","85290","Geisenfeld"
"Lidl","Kaufbeurer Str. 53","86830","Schwabmünchen-Mittelstetten"
"Lidl","Stethaimer Str. 43","84034","Landshut-Nikola"
"Lidl","Teplitzer Str. 15","84478","Waldkraiburg"
"Lidl","Münchener Str. 66","86971","Peiting"
"Lidl","Senefelder Str. 14","86368","Gersthofen"
"Lidl","Industriestr. 13","84539","Ampfing"
"Lidl","Lohwaldstr. 60","86356","Neusäß"
"Lidl","Ritter-von-Schoch-Str. 20","84036","Landshut"
"Lidl","Bahnhofstr. 6","86956","Schongau"
"Lidl","Industriestr. 14b","84030","Ergolding"
"Lidl","Am Straßfeld 2","86420","Diedorf"
"Lidl","Ingolstädter Str. 57","85077","Manching"
"Lidl","Münchener Str. 45","86807","Buchloe"
"Lidl","Franziska-Hager-Str. 2","83209","Prien-Ernsdorf"
"Lidl","Elisabethstr. 15","85051","Ingolstadt"
"Lidl","Frontenhausener Str. 92","84137","Vilsbiburg"
"Lidl","Eriagstr. 3","85053","Ingolstadt"
"Lidl","Landshuter Str. 88","84056","Rottenburg a. d. Laaber"
"Lidl","Gewerbestr. 23","85088","Vohburg-Hartacker"
"Lidl","Felix-Gebhardt-Str. 2","84453","Mühldorf-Starkheim"
"Lidl","Strassacker 2","86850","Fischach"
"Lidl","Straubinger Str. 40","84051","Essenbach"
"Lidl","Goethestr. 61","85055","Ingolstadt"
"Lidl","Am Südpark 12","86633","Neuburg a.d.Donau-Feldkirchen"
"Lidl","Permoserstr. 81","85057","Ingolstadt"
"Lidl","Im Moos 2","86477","Adelsried"
"Lidl","Wörishofer Str. 28","86842","Türkheim"
"Lidl","Nördliche Grünauer Str. 19","86633","Neuburg a.d.Donau"
"Lidl","Zur Lok 6","82487","Oberammergau"
"Lidl","Landshuter Str. 5","84494","Neumarkt"
"Lidl","Traunsteiner Str. 19","83308","Trostberg"
"Lidl","Ingolstädter Str. 104","85092","Kösching"
"Lidl","Zubringer - Autobahn 31","83088","Kiefersfelden"
"Lidl","Xaver-Ernst-Siedlung 2","85080","Gaimersheim"
"Lidl","Kirchdorfer Str. 77","86825","Bad Wörishofen-Gartenstadt"
"Lidl","Altöttinger Str. 22","84518","Garching a. d. Alz"
"Lidl","Am Stausee 4","82494","Krün"
"Lidl","Josefsthaler Str. 2","87600","Kaufbeuren"
"Lidl","Goriweg 2","83339","Chieming"
"Lidl","Augsburger Str. 68","86424","Dinkelscherben"
"Lidl","Luitpoldpark 5","84100","Niederaichbach"
"Lidl","Regensburger Str. 33","84061","Ergoldsbach"
"Lidl","Bahnhofstr. 29","86983","Lechbruck"
"Lidl","Bahnhofstr. 2","87600","Kaufbeuren"
"Lidl","Traunring 4","83301","Traunreut"
"Lidl","Türkheimer Str. 1","87600","Kaufbeuren"
"Lidl","Körtingstr. 8","83224","Grassau"
"Lidl","Wertinger Str. 37","86441","Zusmarshausen"
"Lidl","Neuhofweg 5","86641","Rain a. Lech"
"Lidl","Hauptstr. 24","82467","Garmisch-Partenkirchen"
"Lidl","Industriestr. 2c","86637","Wertingen-Gottmannshofen"
"Lidl","Allgäuer Str. 21","87719","Mindelheim-Gernstall"
"Lidl","Olympiastr. 25a","82467","Garmisch-Partenkirchen"
"Lidl","Maybachstr. 1","84503","Altötting"
"Lidl","Bahnhofstr. 28","87616","Marktoberdorf"
"Lidl","Hochstr. 18","83278","Traunstein"
"Lidl","Braumeisterstr. 5","84524","Neuötting"
"Lidl","Bgm.-Raab-Str. 24","86470","Thannhausen"
"Lidl","Röntgenstr. 1","84130","Dingolfing-Brunn"
"Lidl","Aitrachstr. 6","84130","Dingolfing"
"Lidl","Leierndorfer Str. 34","84069","Schierling"
"Lidl","Artur-Proeller-Str. 2","86609","Donauwörth"
"Lidl","Weißenburger Str. 43","85072","Eichstätt"
"Lidl","Martinweg 3","83329","Waging am See"
"Lidl","Laufener Str. 22","84529","Tittmoning"
"Lidl","Messerschmittstr. 3","89343","Jettingen"
"Lidl","Abt-Hafner-Str. 14","87629","Füssen"
"Lidl","Schellenbruckplatz 43","84307","Eggenfelden"
"Lidl","Siemensstr. 1-5","89331","Burgau"
"Lidl","Dillinger Str. 54","89420","Höchstädt"
"Lidl","Bahnhofstr. 94","86381","Krumbach"
"Lidl","Burgkirchener Str. 16","84489","Burghausen"
"Lidl","Kasernplatz 11","89407","Dillingen-Schretzheim"
"Lidl","Kemptener Str. 87b","87629","Füssen"
"Lidl","Werner-v.-Siemens-Str. 1","89415","Lauingen"
"Lidl","Lauinger Str. 21","89423","Gundelfingen-Echenbrunn"
"Lidl","Geschwister-Scholl-Str. 2","89312","Günzburg-Denzingen"
"Lidl","Fuggerstr. 11","87463","Dietmannsried"
"Lidl","Bahnhofstr. 46","86650","Wemding"
"Lidl","Violastr. 11","89312","Günzburg-Wasserburg"
"Lidl","Arno-Jacoby-Str. 6","84347","Pfarrkirchen-Altersham"
"Lidl","Schlachthofstr. 37","87700","Memmingen"
"Lidl","Woringer Str. 7","87700","Memmingen"
"Lidl","Goldhoferstr. 3","87700","Memmingen-Amendingen"
"Lidl","Ludwigstr. 80","87437","Kempten (Allgäu)"
"Lidl","Münchner Str. 82","84359","Simbach am Inn"
"Lidl","Lindauer Str. 106","87439","Kempten (Allgäu)"
"Lidl","Von-Hünefeld-Str. 1","89284","Pfaffenhofen-Diepertshofen"
"Lidl Vertriebs GmbH & Co. KG","Rudolf-Diesel-Str. 1","88451","Dettingen an der Iller"
"Lidl","Ahornweg 1","87448","Waltenhofen"
"Lidl","Zeisstr. 2","89264","Weißenhorn-Hegelhofen"
"Lidl","Reichenhaller Str. 84","83395","Freilassing"
"Lidl","Friedrich-Ebert-Str. 24","89257","Illertissen"
"Lidl","Augsburger Str. 65","86720","Nördlingen"
"Lidl","Leipziger Str. 4","89537","Giengen/Brenz"
"Lidl","Keplerstr. 17","88453","Erolzheim"
"Lidl","Industriestr. 35","89269","Vöhringen"
"Lidl","Benzstr. 25","89129","Langenau"
"Lidl","Nersinger Straße","89275","Elchingen"
"Lidl","Am Sauereck 1","86732","Oettingen"
"Lidl","Zeppelinweg 1","89542","Herbrechtingen"
"Lidl","Emil-Schwate-Str. 23","84364","Bad Birnbach"
"Lidl","Emil-Schwate-Straße","84364","Bad Birnbach"
"Lidl","Daimlerstr. 4","89564","Nattheim"
"Lidl","Im Starkfeld 59","89231","Neu-Ulm"
"Lidl","Wegenerstr. 5","89231","Neu-Ulm"
"Lidl","Haslacher Weg 24","89075","Ulm-Böfingen"
"Lidl","Rudolf-Diesel-Str. 5","87527","Sonthofen"
"Lidl","Wielandstr. 54","89073","Ulm-Oststadt"
"Lidl","Liststr. 19","87509","Immenstadt"
"Lidl","Triftplatz 6","83471","Schönau am Königsee"
"Lidl","Bahnhofsarkaden 19","88299","Leutkirch"
"Lidl","Güterbahnhof 10","88416","Ochsenhausen"
"Lidl","Wörthstr. 59","89077","Ulm-Weststadt"
"Lidl","Am Sägwerk 7","89518","Heidenheim an der Brenz-Mergelstetten"
"Lidl","Am Angele Hof 2","88316","Isny"
"Lidl","Lerchenbergstr. 18-20","89160","Dornstadt"
"Lidl","Heinrich-Hammer-Str. 17","89155","Erbach"
"Lidl","Max-Hilsenbeck- Str. 4","89134","Blaustein"
"Lidl","Ehinger Str. 15","88471","Laupheim"
"Lidl","Im Steinach 20","87561","Oberstdorf-Jauchen"
"Lidl","Königsbronner Str. 30","89555","Steinheim am Albuch"
"Lidl","Franz-Graf-Str. 7","88410","Bad Wurzach"
"Lidl","Hubertus-Liebrecht-Str. 40","88400","Biberach an der Riß"
"Lidl","Waldseer Str. 143","88400","Biberach an der Riß"
"Lidl","Alte Biberacher Str. 53","88433","Schemmerhofen"
"Lidl","Zementwerkstr. 3","89143","Blaubeuren"
"Lidl","Im Hart 10","89558","Böhmenkirch"
"Lidl","Steinenberger Str. 1","88339","Bad Waldsee"
"Lidl","Münsinger Str. 33","89584","Ehingen"
"Lidl","Staufner Str. 13+15","88161","Lindenberg"
"Lidl","Spinnereistr. 5","88239","Wangen/Allgäu"
"Lidl","Stöcklenstr. 20","89597","Munderkingen"
"Lidl","Aulendorfer Str. 75","88427","Bad Schussenried"
"Lidl","Geislinger Str. 57","89150","Laichingen"
"Lidl","Alte Kiesgrube 15","88326","Aulendorf"
"Lidl","Ettishofer Str. 3","88250","Weingarten"
"Lidl","Schützenstr. 82","88212","Ravensburg"
"Lidl","Kemptener Str. 17","88131","Lindau-Reutin"
"Lidl","Platzstr. 20","88348","Bad Saulgau"
"Lidl","Altheimer Str. 4","88499","Riedlingen"
"Lidl","Wangener Str. 10","88069","Tettnang"
"Lidl","Oskar-von-Miller-Platz 2","88074","Meckenbeuren-Brochenzell"
"Lidl","Säntisstr. 39","88079","Kressbronn"
"Lidl","Friedrichshafener Str. 41","88097","Eriskirch"
"Lidl","Meersburger Str. 35","88094","Oberteuringen"
"Lidl","Ravensburger Str. 3","88046","Friedrichshafen"
"Lidl","Albert-Maier-Str. 2","88045","Friedrichshafen"
"Lidl","Dammstr. 17","88512","Mengen"
"Lidl","Schießstattweg 17","88677","Markdorf"
"Lidl","Äußerer Mühlweg 14/1","88630","Pfullendorf"
"Lidl","Kronenstr. 15","88709","Meersburg-Riedetsweiler"
"Lidl","Bahnhofstr. 17b","88690","Uhldingen-Mühlhofen"
"Lidl","Oberriedweg 7","88662","Überlingen"
"Lidl","Am Stachus 9","88605","Meßkirch"
"Lidl","Straubinger Str. 14","93326","Abensberg"
"Lidl","Kelheimwinzerstr. 130","93309","Kelheim"
"Lidl","Am Gewerbepark 2a","93339","Riedenburg"
"Lidl","Bahnhofstr. 2","93096","Köfering"
"Lidl","Hohengebrachinger Str. 32","93080","Pentling"
"Lidl","Im Oehl 6","92339","Beilngries"
"Lidl","Hochstr. 46","94405","Landau/Isar"
"Lidl","Merowinger Str. 1","93053","Regensburg-Galgenberg"
"Lidl","Deuerlinger Str. 44","93152","Nittendorf"
"Lidl","Kanalstr. 49","91757","Treuchtlingen"
"Lidl","Friedrich-Viehbacher-Allee 9","93055","Regensburg"
"Lidl","Prüfeninger Schloßstr. 4","93051","Regensburg"
"Lidl","Mariakirchner Str. 34","94424","Arnstorf"
"Lidl","Hausener Str. 3","91171","Greding"
"Lidl","Berliner Str. 41","93073","Neutraubling"
"Lidl","Altmühlstr. 4","93059","Regensburg-Weichs"
"Lidl","Metzgerweg 11","93053","Regensburg-Schwabelweis"
"Lidl","Landshuter Str. 197","94315","Straubing"
"Lidl","Geiselhöringer Str. 66","94315","Straubing"
"Lidl","Schulhausstr. 16","91781","Weißenburg"
"Lidl","Hirschberger Ring 32","94315","Straubing"
"Lidl","Regensburger Str. 47","93086","Wörth a. d. Donau"
"Lidl Vertriebs GmbH & Co. KG","Belgrader Str. 3","94315","Straubing"
"Lidl","Strassäcker 2","93128","Regenstauf-Diesenbach"
"Lidl","Petersgewanne 1","94327","Bogen/Furth"
"Lidl","Appianistr. 4","92342","Freystadt"
"Lidl","Otto-Brindl-Str. 2","94447","Plattling"
"Lidl","Regensburger Str. 46","93133","Burglengenfeld-Augustenhof"
"Lidl","Blumenstr. 4","94486","Osterhofen"
"Lidl","Am Krautgarten 1","91717","Wassertrüdingen"
"Lidl","Alemannenstr. 4","91710","Gunzenhausen"
"Lidl","Regensburger Str. 105","92318","Neumarkt i.d.OPf."
"Lidl","Eichenhainstr. 2","94526","Metten"
"Lidl","Allersberger Str. 87","91154","Roth"
"Lidl","Nürnberger Str. 46","92318","Neumarkt i.d.OPf.-Holzheim"
"Lidl","Graflinger Str. 126","94469","Deggendorf"
"Lidl","Donaustr. 12","94491","Hengersberg"
"Lidl","Blomenhofstr. 1a","92318","Neumarkt i.d.OPf."
"Lidl","Aidenbacherstr. 70","94474","Vilshofen"
"Lidl","Haidäckerweg 6","93149","Nittenau"
"Lidl","Bürgermeister-Schönbauer-Str. 1","94060","Pocking"
"Lidl","Gunzenhausener Str. 51","91572","Bechhofen"
"Lidl","Passauer Str. 37","94081","Fürstenzell"
"Lidl","Berliner Str. 1 a","91126","Rednitzhembach"
"Lidl","Paul-von-Denis-Str. 4","92421","Schwandorf"
"Lidl","Bahnhofstr. 8","90592","Schwarzenbruck"
"Lidl","Richtwiese 1","90530","Wendelstein"
"Lidl","Von-Raumer-Str. 11","91550","Dinkelsbühl"
"Lidl","Nürnberger Str. 11","90518","Altdorf"
"Lidl","Strawinskystr. 42","90455","Nürnberg-Katzwang"
"Lidl","Vilshofener Str. 36","94535","Eging am See"
"Lidl","Schmidstr. 24a","94234","Viechtach"
"Lidl","Rodinger Str. 4","93413","Cham-Janahof"
"Lidl","Granecker Str. 6","94036","Passau"
"Lidl","Im Tal 7","91623","Sachsen bei Ansbach"
"Lidl","Löwenberger Str. 153","90475","Nürnberg-Altenfurt"
"Lidl","Industriestr. 7","91567","Herrieden"
"Lidl","Barbarastr. 20","92224","Amberg"
"Lidl","Industriestr. 1","92431","Neunburg v. Wald"
"Lidl","Infanteriestr. 1","92224","Amberg"
"Lidl","Julius-Loßmann-Str. 11","90469","Nürnberg-Gartenstadt"
"Lidl","Dinkelsbühler Str. 10","91555","Feuchtwangen"
"Lidl","Zwieseler Str. 45","94209","Regen"
"Lidl","Gewerbering 14","90574","Roßtal"
"Lidl","Kallmünzer Str. 16","90478","Nürnberg-Zerzabelshof"
"Lidl","Am Röthenbacher Landgraben 2","90451","Nürnberg"
"Lidl","Mühlstr. 43","90547","Stein"
"Lidl","Ernst-Sachs-Str. 4","90441","Nürnberg-Sandreuth"
"Lidl","Louis-Schmetzer-Str. 4","91522","Ansbach-Meinhardswinden"
"Lidl","Allersbergerstr. 130","90461","Nürnberg-Hummelstein"
"Lidl","Thüringer Str. 2","90459","Nürnberg-Steinbühl"
"Lidl","Nürnberger Str. 66","91522","Ansbach-Kammerforst"
"Lidl","Hirschauer Str. 2","92224","Amberg"
"Lidl","Lamer Str. 36","93444","Bad Kötzting"
"Lidl","Bahnhofsplatz 9","90443","Nürnberg-Tafelhof"
"Lidl","Ostendstr. 58","90482","Nürnberg-Tullnau"
"Lidl","Hainbergstr. 20","90522","Oberasbach-Altenberg"
"Lidl","Rettistr. 1","91522","Ansbach-Neuses"
"Lidl","Gebersdorfer Str. 290","90449","Nürnberg"
"Lidl","Rohrmannstr. 11","90429","Nürnberg-Gostenhof"
"Lidl","St.Gallen-Ring 1","90431","Nürnberg-Großreuth"
"Lidl","Lindau 9","94034","Passau"
"Lidl","Renzenhofer Str. 100","90552","Röthenbach/Pegnitz"
"Lidl","Leutenbachstr. 33","91217","Hersbruck"
"Lidl","Peyerstr. 23","90429","Nürnberg-Eberhardshof"
"Lidl","Thomas-Mann-Str. 3","90513","Zirndorf"
"Lidl","Am Kohlschlag 12","90571","Schwaig-Behringersdorf"
"Lidl","Happurger Str. 8","91224","Hohenstadt"
"Lidl","Am Kreisel 1","94116","Hutthurm"
"Lidl","Bessemer Str. 17","90411","Nürnberg"
"Lidl","Fronmüllerstr. 12","90763","Fürth"
"Lidl","Karolinenstr. 26","92237","Sulzbach-Lindhof"
"Lidl","Cuxhavener Str. 2","90425","Nürnberg-Thon"
"Lidl","Brettergartenstr. 84","90427","Nürnberg"
"Lidl","Henry-Dunant-Str. 2","91207","Lauf/Pegnitz"
"Lidl","Regener Str. 35","94227","Zwiesel"
"Lidl","Steinweg 9","91578","Leutershausen"
"Lidl","Siemensstr. 41","90766","Fürth"
"Lidl","Vormbacher Weg 14","94481","Grafenau"
"Lidl","Nürnberger Str. 34","90556","Cadolzburg"
"Lidl","Erlanger Str. 192","90765","Fürth"
"Lidl","Nürnbergerstr. 95","91220","Schnaittach"
"Lidl","Am Schießanger 14","92526","Oberviechtach"
"Lidl","Schweinfurter Str. 26","90427","Nürnberg"
"Lidl","Paul-Ehrlich-Str. 2","90562","Heroldsberg"
"Lidl","Fürther Str. 62","90587","Veitsbronn"
"Lidl","Hochstr. 8","93437","Furth im Wald"
"Lidl","Nürnberger Str. 53","90579","Langenzenn"
"Lidl","Josef-Greschniock-Str. 6","94051","Hauzenberg"
"Lidl","Eckentaler Str. 1","90542","Eckental"
"Lidl","Bannholzstr. 34a","94065","Waldkirchen"
"Lidl","Speltenbach 66","94078","Freyung"
"Lidl","Dresdnerstr. 21","91058","Erlangen"
"Lidl","Weyhausenstr. 3","91077","Neunkirchen a. Brand"
"Lidl","Nägelsbachstr. 59","91052","Erlangen"
"Lidl","Neumühle 4","91056","Erlangen"
"Lidl","Ohmstr. 8","91074","Herzogenaurach"
"Lidl","Mönaustr. 75","91058","Erlangen"
"Lidl","Erlbacherstraße","91541","Rothenburg ob der Tauber"
"Lidl","Jahnstr. 12","91438","Bad Windsheim"
"Lidl","Leimberger Str. 55","92637","Weiden i.d.OPf."
"Lidl","Riedweg 10","91413","Neustadt a.d. Aisch"
"Lidl","Zur Centralwerkstätte 22","92637","Weiden i.d.OPf."
"Lidl","Pilatus Campus 6","91353","Hausen"
"Lidl","Professor-Zintl-Str. 11","92637","Weiden i.d.OPf."
"Lidl","Bahnhofsstr. 60","92655","Grafenwöhr"
"Lidl","Sauerbruchstr. 34","91257","Pegnitz-Nemschenreuth"
"Lidl","Kirchenthumbacher Str. 30","92676","Eschenbach"
"Lidl","Bügstr. 80","91301","Forchheim"
"Lidl","Schlesierstr. 13","91315","Höchstadt/Aisch"
"Lidl","Balthasar-Neumann-Str. 41 A","91327","Gößweinstein"
"Lidl Vertriebs GmbH & Co. KG","In der Büg 18","91330","Eggolsheim"
"Lidl","Oberzennerstr. 1","97215","Uffenheim"
"Lidl","Weinhütten 1","91330","Eggolsheim"
"Lidl","Industriestr. 7","96114","Hirschaid"
"Lidl","Bayreuther Str. 22","95478","Kemnath"
"Lidl","August-Laukhuff-Str. 12","97990","Weikersheim"
"Lidl","Treppendorfer Str. 8","96138","Burgebrach"
"Lidl","Nürnberger Str. 3 a","95448","Bayreuth"
"Lidl","Adolf-Wächter-Str. 1","95447","Bayreuth"
"Lidl","Würzburger Str. 57","96049","Bamberg"
"Lidl","Igersheimer Str. 56","97980","Bad Mergentheim"
"Lidl","Dieselstr. 6","97980","Bad Mergentheim"
"Lidl","Mitterteicher Str. 21","95643","Tirschenreuth"
"Lidl","Meranierring 49","95445","Bayreuth"
"Lidl","Bernecker Str. 26","95448","Bayreuth"
"Lidl","Pestalozzistr. 1 a","97199","Ochsenfurt-Kleinochsenfurt"
"Lidl","Gaustadter Hauptstr. 109","96049","Bamberg-Gaustadt"
"Lidl","Villachstr. 2","96052","Bamberg"
"Lidl","Leuschnitzstr. 2","95463","Bindlach"
"Lidl","Josef-Fösel-Str. 7","96117","Memmelsdorf"
"Lidl","Nikolaus-Fey-Str. 23","97353","Wiesentheid"
"Lidl","Johann-Adam-Kleinschroth-Str. 4","97318","Kitzingen"
"Lidl","Am Sportplatz 28","96103","Hallstadt"
"Lidl","Kulmbacher Str. 53","95512","Neudrossenfeld"
"Lidl","Wölsauer Str. 38","95615","Marktredwitz"
"Lidl","Am Sportplatz 1","97337","Dettelbach"
"Lidl","Moskauer Ring 5","97084","Würzburg-Heuchelhof"
"Lidl","Oberweg 1","96199","Zapfendorf"
"Lidl","Egerstr. 130","95632","Wunsiedel"
"Lidl","Stuttgarter Str. 24","97084","Würzburg-Heidingsfeld"
"Lidl","Mergentheimer Str. 16","97941","Tauberbischofsheim"
"Lidl","Helläcker 1","97218","Gerbrunn"
"Lidl","Pestalozziallee 29","97941","Tauberbischofsheim"
"Lidl","Kulmbacher Str. 4","95336","Mainleus"
"Lidl","Am Kreuzstein 7-9","95326","Kulmbach"
"Lidl","Werner-von-Siemens-Str. 62","97076","Würzburg-Lengfeld"
"Lidl","Sander Str. 40","97475","Zeil am Main"
"Lidl","Albert-Ruckdeschel-Str. 15","95326","Kulmbach-Priemershof"
"Lidl","Schweinfurter Str. 8","97080","Würzburg"
"Lidl","Leistenstr. 25","97082","Würzburg-Steinbachtal"
"Lidl","Versbacher Str. 75","97078","Würzburg"
"Lidl","Einsteinstr. 6","97204","Höchberg"
"Lidl","Am Wachtelberg","97273","Kürnach"
"Lidl","Mainaustr. 57","97082","Würzburg-Zellerau"
"Lidl","Weismainer Str. 15","96264","Altenkunstadt"
"Lidl","Carl-Benz-Str. 2","96106","Ebern"
"Lidl","Am Geisberg 23","97209","Veitshöchheim"
"Lidl","Hofheimer Str. 48/50","97437","Haßfurt-Sylbach"
"Lidl","Mainau 10","96215","Lichtenfels"
"Lidl","Dr.-Ludwig-Rieß-Str. 2","95100","Selb"
"Lidl","Weinbergstr. 1a","96328","Küps-Lerchenhof"
"Lidl","August-Horch-Str. 7","95213","Münchberg"
"Lidl","Industriestr. 20 b","97469","Gochsheim"
"Lidl","Sandäcker 1","97453","Schonungen"
"Lidl","Schweinfurter Str. 131","97493","Bergrheinfeld"
"Lidl","Felix Wankel Str. 2","97526","Sennfeld"
"Lidl","Am Eschenbach 4","97440","Werneck"
"Lidl","Kehläcker 2","96317","Kronach"
"Lidl","Frohnlacherstr. 5","96242","Sonnefeld"
"Lidl","Niederwerrner Str. 93","97421","Schweinfurt-Musikerviertel"
"Lidl","An der Turngemeinde 2","97422","Schweinfurt"
"Lidl","Am Güßgraben 2","97225","Zellingen"
"Lidl","Breslauer Str. 6","97877","Wertheim-Bestenheid"
"Lidl","Ketschendorfer Str. 122","96450","Coburg"
"Lidl","Georg-Mayr-Str. 28","97828","Marktheidenfeld"
"Lidl","Industriestr. 17","96342","Stockheim"
"Lidl","Kanonenweg 15 a","96450","Coburg"
"Lidl","Wunsiedler Str. 4","95032","Hof"
"Lidl","Gemündener Str. 8-10","97753","Karlstadt"
"Lidl","Schafsteg 21","96472","Rödental"
"Lidl","Kronacher Str. 38","95119","Naila"
"Lidl","Christoph-Klauß-Str. 11","95028","Hof"
"Lidl","Leopoldstr. 14","95030","Hof"
"Lidl","Bahnhofstr. 10","96465","Neustadt b. Coburg-Ketschenbach"
"Lidl","Ernst-Moritz-Arndt-Str. 50","96515","Sonneberg"
"Lidl","Kissinger Str. 52","97762","Hammelburg"
"Lidl","Rexrothstr. 2","97816","Lohr am Main"
"Lidl","Hartmannstr. 30a","97688","Bad Kissingen"
"Lidl","Würzburger Str. 56","97737","Gemünden"
"Lidl","Schweinfurter Str. 27","97616","Bad Neustadt a. d. Saale-Brendlorenzen"
"Lidl","Heurichstr. 27-29","98631","Römhild"
"Lidl","Am Friedhof 2","98646","Hildburghausen"
"Lidl","Eisfelder Str. 29","98724","Neuhaus am Rennweg"
"Lidl","Jägerhausstr. 8","98553","Schleusingen"
"Lidl","Lohstr. 2","97638","Mellrichstadt"
"Lidl","Kissinger Str. 36","97769","Bad Brückenau"
"Lidl","Senfte 16","98527","Suhl"
"Lidl","Mauerstr. 1","98527","Suhl"
"Lidl","Leipziger Str. 82b","98617","Meiningen"
"Lidl","Talstr. 77a","98544","Zella"
"Lidl","Ratsteichstr. 1","98693","Ilmenau"
"Lidl","Näherstiller Str. 41","98574","Schmalkalden"
"Lidl","Triniusstr. 27","99310","Arnstadt-Rudisleben"
"Lidl","Ichtershäuser Str. 32 a","99310","Arnstadt-Rudisleben"
"Lidl","Bahnhofstaße 34","99885","Ohrdruf"
"Lidl","Walpertalstr. 2","99438","Bad Berka"
"Lidl","Bahnhofstr. 38","99894","Friedrichroda"
"Lidl","Scharnhorststr. 66","99099","Erfurt"
"Lidl","Erfurter Str. 49a","99425","Weimar-Westvorstadt"
"Lidl","Rießnerstr. 20","99427","Weimar"
"Lidl","Schöne Allee 14","99867","Gotha"
"Lidl","Eugen-Richter-Str. 28","99085","Erfurt"
"Lidl","Eislebener Str. 4","99086","Erfurt"
"Lidl","Damaschkestr. 33","99867","Gotha"
"Lidl","Grenzweg 10","99091","Erfurt"
"Lidl","Buttstädter Str. 3","99510","Apolda"
"Lidl","Clemdastr. 5","99817","Eisenach"
"Lidl","Am Stadtweg 6","99817","Eisenach"
"Lidl","Roßplatz 1-3","99628","Buttstädt"
"Lidl","Mainzer Str. 2","99610","Sömmerda"
"Lidl","Am Rittertor 1","99718","Greußen"
"Lidl","Hinter der Harwand 63","99974","Mühlhausen-Felchta"
"Lidl","Erfurter Str. 33a","99706","Sondershausen"
"Lidl","Herrweg 55","99752","Bleicherode"
"Lidl","Hallesche Str. 49","99734","Nordhausen"
"Lidl","Reichsstr. 16","99734","Nordhausen"
