"nameCompany","streetAddress","postalCode","addressLocality"
"PENNY Markt","Elsterstr. 49","08626","Adorf"
"PENNY Markt","Elsterstr. 49","08626","Adorf"
"PENNY Markt","Lessingstr. 38","08626","Adorf"
"PENNY Markt","Lessingstr. 38","08626","Adorf"
"PENNY Markt","Lobensteiner Str. 14","07927","Hirschberg"
"PENNY Markt","Lobensteiner Str. 14","07927","Hirschberg"
"PENNY Markt","Auerbacher Str. 75","08248","Klingenthal"
"PENNY Markt","Auerbacher Str. 75","08248","Klingenthal"
"PENNY Markt","Untermarxgrüner Str. 21","08606","Oelsnitz/Vogtland"
"PENNY Markt","Untermarxgrüner Str. 21","08606","Oelsnitz/Vogtland"
"PENNY Markt","Am Alten Hügel 5a","07356","Bad Lobenstein"
"PENNY Markt","Am Alten Hügel 5a","07356","Bad Lobenstein"
"PENNY Markt","Leibnizstr. 4","08527","Plauen"
"PENNY Markt","Leibnizstr. 4","08527","Plauen"
"PENNY Markt","Dürerstr. 14","08527","Plauen"
"PENNY Markt","Dürerstr. 14","08527","Plauen"
"PENNY Markt","Rosa-Luxemburg-Platz 5","08523","Plauen"
"PENNY Markt","Rosa-Luxemburg-Platz 5","08523","Plauen"
"PENNY Markt","Karlstr. 7","08523","Plauen"
"PENNY Markt","Karlstr. 7","08523","Plauen"
"PENNY Markt","Ellefelder Str. 19","08223","Falkenstein"
"PENNY Markt","Ellefelder Str. 19","08223","Falkenstein"
"PENNY Markt","Eibenstocker Str. 2","08304","Schönheide"
"PENNY Markt","Eibenstocker Str. 2","08304","Schönheide"
"PENNY Markt","Schneeberger Str. 13b","08309","Eibenstock"
"PENNY Markt","Schneeberger Str. 13b","08309","Eibenstock"
"PENNY Markt","Annaberger Str. 21","09484","Oberwiesenthal"
"PENNY Markt","Annaberger Str. 21","09484","Oberwiesenthal"
"PENNY Markt","Paul-Scharf-Str. 5","07952","Pausa"
"PENNY Markt","Paul-Scharf-Str. 5","07952","Pausa"
"PENNY Markt","Talstr. 117","08359","Breitenbrunn"
"PENNY Markt","Talstr. 117","08359","Breitenbrunn"
"PENNY Markt","Neue Wildenauer Str. 1","08237","Rothenkirchen"
"PENNY Markt","Neue Wildenauer Str. 1","08237","Rothenkirchen"
"PENNY Markt","Am Sportplatz","07338","Kaulsdorf"
"PENNY Markt","Am Sportplatz","07338","Kaulsdorf"
"PENNY Markt","Am Eichelteich","07318","Saalfeld/Saale"
"PENNY Markt","Am Eichelteich","07318","Saalfeld/Saale"
"PENNY Markt","Alte Bahnhofsstr. 2A","08340","Schwarzenberg"
"PENNY Markt","Alte Bahnhofsstr. 2A","08340","Schwarzenberg"
"PENNY Markt","Dr.-Külz-Str. 6","08468","Reichenbach"
"PENNY Markt","Dr.-Külz-Str. 6","08468","Reichenbach"
"PENNY Markt","Oberwiesenthaler Str. 15","09471","Bärenstein"
"PENNY Markt","Oberwiesenthaler Str. 15","09471","Bärenstein"
"PENNY Markt","Neustadtring 4","07973","Greiz"
"PENNY Markt","Neustadtring 4","07973","Greiz"
"PENNY Markt","Bockauer Talstr. 2-6","08280","Aue"
"PENNY Markt","Bockauer Talstr. 2-6","08280","Aue"
"PENNY Markt","Silberstr. 46","09481","Scheibenberg"
"PENNY Markt","Silberstr. 46","09481","Scheibenberg"
"PENNY Markt","Rudoldtädter Str. 9","07422","Bad Blankenburg"
"PENNY Markt","Rudoldtädter Str. 9","07422","Bad Blankenburg"
"PENNY Markt","Seminarstr. 45","08289","Schneeberg"
"PENNY Markt","Seminarstr. 45","08289","Schneeberg"
"PENNY Markt","August-Bebel-Str. 172","08344","Grünhain-Beierfeld"
"PENNY Markt","August-Bebel-Str. 172","08344","Grünhain-Beierfeld"
"PENNY Markt","Greizer Str. 2","07957","Langenwetzendorf"
"PENNY Markt","Greizer Str. 2","07957","Langenwetzendorf"
"PENNY Markt","Bahnhofstr. 28","08107","Kirchberg"
"PENNY Markt","Bahnhofstr. 28","08107","Kirchberg"
"PENNY Markt","Annaberger Straße","09471","Königswalde"
"PENNY Markt","Annaberger Straße","09471","Königswalde"
"PENNY Markt","Ludwig-Jahn-Str. 2","07806","Neustadt"
"PENNY Markt","Ludwig-Jahn-Str. 2","07806","Neustadt"
"PENNY Markt","Große Kirchgasse 67","09456","Annaberg-Buchholz"
"PENNY Markt","Große Kirchgasse 67","09456","Annaberg-Buchholz"
"PENNY Markt","Bahnhofstr. 9a","08115","Lichtentanne"
"PENNY Markt","Bahnhofstr. 9a","08115","Lichtentanne"
"PENNY Markt","Am Steinberg 17A","07989","Teichwolframsdorf"
"PENNY Markt","Am Steinberg 17A","07989","Teichwolframsdorf"
"PENNY Markt","Werdauer Str. 73","08427","Fraureuth"
"PENNY Markt","Werdauer Str. 73","08427","Fraureuth"
"PENNY Markt","Stiftstr. 1","08118","Hartenstein"
"PENNY Markt","Stiftstr. 1","08118","Hartenstein"
"PENNY Markt","Oskar-Arnold-Str. 3","08056","Zwickau"
"PENNY Markt","Oskar-Arnold-Str. 3","08056","Zwickau"
"PENNY Markt","Reichenbacher Str. 50","08056","Zwickau"
"PENNY Markt","Reichenbacher Str. 50","08056","Zwickau"
"PENNY Markt","Gewerbegebiet Nord Nr. 2","09456","Mildenau"
"PENNY Markt","Gewerbegebiet Nord Nr. 2","09456","Mildenau"
"PENNY Markt","Hölderlinstr. 10","08056","Zwickau"
"PENNY Markt","Hölderlinstr. 10","08056","Zwickau"
"PENNY Markt","Crimmitschauer Str. 90","08058","Zwickau"
"PENNY Markt","Crimmitschauer Str. 90","08058","Zwickau"
"PENNY Markt","Crimmitschauer Str. 135","08412","Langenhessen"
"PENNY Markt","Crimmitschauer Str. 135","08412","Langenhessen"
"PENNY Markt","Bahnhofstraße","07768","Kahla"
"PENNY Markt","Bahnhofstraße","07768","Kahla"
"PENNY Markt","Nebenstr. 1A","08132","Mülsen St. Jacob"
"PENNY Markt","Nebenstr. 1A","08132","Mülsen St. Jacob"
"PENNY Markt","Geraer Straße","07570","Wünschendorf"
"PENNY Markt","Geraer Straße","07570","Wünschendorf"
"PENNY Markt","Bahnhofstr. 31","09376","Oelsnitz"
"PENNY Markt","Bahnhofstr. 31","09376","Oelsnitz"
"PENNY Markt","Chemnitzer Str. 63","09419","Thum"
"PENNY Markt","Chemnitzer Str. 63","09419","Thum"
"PENNY Markt","Freiberger Str. 40","09429","Wolkenstein"
"PENNY Markt","Freiberger Str. 40","09429","Wolkenstein"
"PENNY Markt","Neue Str. 2","09394","Hohndorf"
"PENNY Markt","Neue Str. 2","09394","Hohndorf"
"PENNY Markt","Rudolf-Breitscheid-Str. 15d","09350","Lichtenstein"
"PENNY Markt","Rudolf-Breitscheid-Str. 15d","09350","Lichtenstein"
"PENNY Markt","Äußere Annaberger Str. 15","09496","Marienberg"
"PENNY Markt","Äußere Annaberger Str. 15","09496","Marienberg"
"PENNY Markt","Liebschwitzer Str. 131","07551","Gera"
"PENNY Markt","Liebschwitzer Str. 131","07551","Gera"
"PENNY Markt","Wiesestr. 212","07551","Gera"
"PENNY Markt","Wiesestr. 212","07551","Gera"
"PENNY Markt","Schulstraße","09356","St. Egidien"
"PENNY Markt","Schulstraße","09356","St. Egidien"
"PENNY Markt","Stollberger Str. 1","09353","Oberlungwitz"
"PENNY Markt","Stollberger Str. 1","09353","Oberlungwitz"
"PENNY Markt","Hauptstr. 28","09221","Neukirchen-Adorf"
"PENNY Markt","Hauptstr. 28","09221","Neukirchen-Adorf"
"PENNY Markt","Lampertstr. 5","08371","Glauchau"
"PENNY Markt","Lampertstr. 5","08371","Glauchau"
"PENNY Markt","Rudolf-Breitscheid-Str. 5","09526","Olbernhau"
"PENNY Markt","Rudolf-Breitscheid-Str. 5","09526","Olbernhau"
"PENNY Markt","Hauptstr. 87","09221","Neukirchen"
"PENNY Markt","Hauptstr. 87","09221","Neukirchen"
"PENNY Markt","Wolgograder Allee 207","09123","Chemnitz"
"PENNY Markt","Wolgograder Allee 207","09123","Chemnitz"
"PENNY Markt","Chemnitzer Str. 161a","09224","Chemnitz"
"PENNY Markt","Chemnitzer Str. 161a","09224","Chemnitz"
"PENNY Markt","Am Gräbel 1","09405","Zschopau"
"PENNY Markt","Am Gräbel 1","09405","Zschopau"
"PENNY Markt","Stollberger Str. 176","09122","Chemnitz"
"PENNY Markt","Stollberger Str. 176","09122","Chemnitz"
"PENNY Markt","Neuhausener Str. 10","09548","Seiffen"
"PENNY Markt","Neuhausener Str. 10","09548","Seiffen"
"PENNY Markt","Zwickauer Str. 444-450","09117","Chemnitz"
"PENNY Markt","Zwickauer Str. 444-450","09117","Chemnitz"
"PENNY Markt","Altenburger Str. 81","08396","Waldenburg"
"PENNY Markt","Altenburger Str. 81","08396","Waldenburg"
"PENNY Markt","Kleinolbersdorfer Str. 12a","09127","Chemnitz"
"PENNY Markt","Kleinolbersdorfer Str. 12a","09127","Chemnitz"
"PENNY Markt","Bernsdorfer Str. 70","09126","Chemnitz"
"PENNY Markt","Bernsdorfer Str. 70","09126","Chemnitz"
"PENNY Markt","Clausstr. 75-81","09126","Chemnitz"
"PENNY Markt","Clausstr. 75-81","09126","Chemnitz"
"PENNY Markt","Limbacher Str. 114","09116","Chemnitz"
"PENNY Markt","Limbacher Str. 114","09116","Chemnitz"
"PENNY Markt","Burgstädter Str. 9","09212","Limbach-Oberfrohna"
"PENNY Markt","Burgstädter Str. 9","09212","Limbach-Oberfrohna"
"PENNY Markt","Reichsstr. 58","09112","Chemnitz"
"PENNY Markt","Reichsstr. 58","09112","Chemnitz"
"PENNY Markt","Jenaer Str. 15","07607","Eisenberg"
"PENNY Markt","Jenaer Str. 15","07607","Eisenberg"
"PENNY Markt","Bahnhofstraße","07613","Crossen"
"PENNY Markt","Bahnhofstraße","07613","Crossen"
"PENNY Markt","Heinrich-Schütz-Str. 62","09130","Chemnitz"
"PENNY Markt","Heinrich-Schütz-Str. 62","09130","Chemnitz"
"PENNY Markt","Frankenberger Str. 46","09131","Chemnitz"
"PENNY Markt","Frankenberger Str. 46","09131","Chemnitz"
"PENNY Markt","Leipziger Str. 23a","09232","Hartmannsdorf"
"PENNY Markt","Leipziger Str. 23a","09232","Hartmannsdorf"
"PENNY Markt","Großwaltersdorfer Str. 18","09575","Eppendorf"
"PENNY Markt","Großwaltersdorfer Str. 18","09575","Eppendorf"
"PENNY Markt","Chemnitzer Str. 125","09322","Penig"
"PENNY Markt","Chemnitzer Str. 125","09322","Penig"
"PENNY Markt","Seeberstr. 1","09557","Flöha, Stadt"
"PENNY Markt","Seeberstr. 1","09557","Flöha, Stadt"
"PENNY Markt","Münsaer Str. 8","04600","Altenburg"
"PENNY Markt","Münsaer Str. 8","04600","Altenburg"
"PENNY Markt","Mittweidaer Str. 1","09249","Taura"
"PENNY Markt","Mittweidaer Str. 1","09249","Taura"
"PENNY Markt","Hauptstr. 62","09619","Mulda"
"PENNY Markt","Hauptstr. 62","09619","Mulda"
"PENNY Markt","Goethestr. 2","04617","Rositz"
"PENNY Markt","Goethestr. 2","04617","Rositz"
"PENNY Markt","Freiberger Str. 22","09669","Frankenberg"
"PENNY Markt","Freiberger Str. 22","09669","Frankenberg"
"PENNY Markt","Naumburger Str. 17","06712","Grana"
"PENNY Markt","Naumburger Str. 17","06712","Grana"
"PENNY Markt","Freiberger Str. 32","09623","Frauenstein"
"PENNY Markt","Freiberger Str. 32","09623","Frauenstein"
"PENNY Markt","Hauptstr. 23A","09618","Brand-Erbisdorf"
"PENNY Markt","Hauptstr. 23A","09618","Brand-Erbisdorf"
"PENNY Markt","Zeitzer Straße","06729","Tröglitz"
"PENNY Markt","Zeitzer Straße","06729","Tröglitz"
"PENNY Markt","Bahnhofplatz 4","01778","Geising"
"PENNY Markt","Bahnhofplatz 4","01778","Geising"
"PENNY Markt","Olbernhauer Str. 70","09599","Freiberg"
"PENNY Markt","Olbernhauer Str. 70","09599","Freiberg"
"PENNY Markt","Goethestr. 2A","06682","Teuchern"
"PENNY Markt","Goethestr. 2A","06682","Teuchern"
"PENNY Markt","Meißner Gasse 19","09599","Freiberg"
"PENNY Markt","Meißner Gasse 19","09599","Freiberg"
"PENNY Markt","Halsbrücker Str. 18","09599","Freiberg"
"PENNY Markt","Halsbrücker Str. 18","09599","Freiberg"
"PENNY Markt","Brückenstr. 22","09306","Rochlitz"
"PENNY Markt","Brückenstr. 22","09306","Rochlitz"
"PENNY Markt","Markt 1","01762","Schmiedeberg"
"PENNY Markt","Markt 1","01762","Schmiedeberg"
"PENNY Markt","Friedrich-Ebert-Str. 28","04539","Groitzsch"
"PENNY Markt","Friedrich-Ebert-Str. 28","04539","Groitzsch"
"PENNY Markt","Siedlungsweg","01738","Klingenberg"
"PENNY Markt","Siedlungsweg","01738","Klingenberg"
"PENNY Markt","Dorfstr. 21B","09600","Niederschoena"
"PENNY Markt","Dorfstr. 21B","09600","Niederschoena"
"PENNY Markt","Merseburger Str. 5","06667","Weißenfels"
"PENNY Markt","Merseburger Str. 5","06667","Weißenfels"
"PENNY Markt","Steinstr. 1","04736","Waldheim"
"PENNY Markt","Steinstr. 1","04736","Waldheim"
"PENNY Markt","Erich-Weinert-Str. 5B","04651","Bad Lausick"
"PENNY Markt","Erich-Weinert-Str. 5B","04651","Bad Lausick"
"PENNY Markt","Etzdorfer Str. 4","04741","Rosswein"
"PENNY Markt","Etzdorfer Str. 4","04741","Rosswein"
"PENNY Markt","Jahnstr. 34","04564","Böhlen"
"PENNY Markt","Jahnstr. 34","04564","Böhlen"
"PENNY Markt","Müglitztalstr. 6A","01768","Schlottwitz"
"PENNY Markt","Müglitztalstr. 6A","01768","Schlottwitz"
"PENNY Markt","Pirnaer Str. 11","01816","Bad Gottleuba"
"PENNY Markt","Pirnaer Str. 11","01816","Bad Gottleuba"
"PENNY Markt","Fabrikstr. 3","01683","Nossen"
"PENNY Markt","Fabrikstr. 3","01683","Nossen"
"PENNY Markt","Mastener Str. 1E","04720","Döbeln"
"PENNY Markt","Mastener Str. 1E","04720","Döbeln"
"PENNY Markt","Rosa-Luxemburg-Str. 12","04703","Leisnig"
"PENNY Markt","Rosa-Luxemburg-Str. 12","04703","Leisnig"
"PENNY Markt","Schillerstr. 38","04720","Döbeln"
"PENNY Markt","Schillerstr. 38","04720","Döbeln"
"PENNY Markt","Wetzendorfer Straße","06642","Nebra"
"PENNY Markt","Wetzendorfer Straße","06642","Nebra"
"PENNY Markt","Erlenweg 5","06642","Nebra"
"PENNY Markt","Erlenweg 5","06642","Nebra"
"PENNY Markt","Am Stadion","06242","Braunsbedra"
"PENNY Markt","Am Stadion","06242","Braunsbedra"
"PENNY Markt","Roßbacher Str. 1","06242","Braunsbedra"
"PENNY Markt","Roßbacher Str. 1","06242","Braunsbedra"
"PENNY Markt","Kreischaer Str. 2B","01728","Possendorf"
"PENNY Markt","Kreischaer Str. 2B","01728","Possendorf"
"PENNY Markt","Badische Str. 3a","04720","Döbeln"
"PENNY Markt","Badische Str. 3a","04720","Döbeln"
"PENNY Markt","Bahnhofstr. 30","01705","Freital"
"PENNY Markt","Bahnhofstr. 30","01705","Freital"
"PENNY Markt","Rehbacher Str. 7","04249","Leipzig"
"PENNY Markt","Rehbacher Str. 7","04249","Leipzig"
"PENNY Markt","Dresdner Str. 8","01809","Dohna"
"PENNY Markt","Dresdner Str. 8","01809","Dohna"
"PENNY Markt","August-Bebel-Str. 4","04668","Nerchau"
"PENNY Markt","August-Bebel-Str. 4","04668","Nerchau"
"PENNY Markt","Str. des Friedens 20","04668","Grimma"
"PENNY Markt","Str. des Friedens 20","04668","Grimma"
"PENNY Markt","Zehistaer Str. 64","01796","Pirna"
"PENNY Markt","Zehistaer Str. 64","01796","Pirna"
"PENNY Markt","Am Wasserturm 2-6","04288","Leipzig-Liebertwolkwitz"
"PENNY Markt","Am Wasserturm 2-6","04288","Leipzig-Liebertwolkwitz"
"PENNY Markt","str. des Friedens 102","06217","Merseburg"
"PENNY Markt","str. des Friedens 102","06217","Merseburg"
"PENNY Markt","Großsteinberger Str. 25","04683","Naunhof"
"PENNY Markt","Großsteinberger Str. 25","04683","Naunhof"
"PENNY Markt","Kiewer Str. 1-3","04207","Leipzig"
"PENNY Markt","Kiewer Str. 1-3","04207","Leipzig"
"PENNY Markt","Zwickauer Str. 125","04279","Leipzig"
"PENNY Markt","Zwickauer Str. 125","04279","Leipzig"
"PENNY Markt","Spitzwegstr. 50","01219","Dresden"
"PENNY Markt","Spitzwegstr. 50","01219","Dresden"
"PENNY Markt","Merianplatz 3","01169","Dresden"
"PENNY Markt","Merianplatz 3","01169","Dresden"
"PENNY Markt","Jupiterstr. 44","04205","Leipzig"
"PENNY Markt","Jupiterstr. 44","04205","Leipzig"
"PENNY Markt","Nulandtstr. 1a","06217","Merseburg"
"PENNY Markt","Nulandtstr. 1a","06217","Merseburg"
"PENNY Markt","Zschochersche Str. 82B","04229","Leipzig"
"PENNY Markt","Zschochersche Str. 82B","04229","Leipzig"
"PENNY Markt","Cottaer Str. 18","01159","Dresden"
"PENNY Markt","Cottaer Str. 18","01159","Dresden"
"PENNY Markt","Bodenbacher Str. 81b","01277","Dresden"
"PENNY Markt","Bodenbacher Str. 81b","01277","Dresden"
"PENNY Markt","Oeltzschnerstr. 85","06217","Merseburg"
"PENNY Markt","Oeltzschnerstr. 85","06217","Merseburg"
"PENNY Markt","Kirchstr. 13","04749","Ostrau"
"PENNY Markt","Kirchstr. 13","04749","Ostrau"
"PENNY Markt","Abrahamstraße","04179","Leipzig"
"PENNY Markt","Abrahamstraße","04179","Leipzig"
"PENNY Markt","Marienberger Str. 36","01279","Dresden"
"PENNY Markt","Marienberger Str. 36","01279","Dresden"
"PENNY Markt","Pillnitzer Landstr. 313b","01326","Dresden"
"PENNY Markt","Pillnitzer Landstr. 313b","01326","Dresden"
"PENNY Markt","Bahnhofstr. 78","04687","Trebsen"
"PENNY Markt","Bahnhofstr. 78","04687","Trebsen"
"PENNY Markt","Zweinaundorfer Str. 198","04318","Leipzig"
"PENNY Markt","Zweinaundorfer Str. 198","04318","Leipzig"
"PENNY Markt","Franz-Mehring-Str. 16b","04769","Mügeln"
"PENNY Markt","Franz-Mehring-Str. 16b","04769","Mügeln"
"PENNY Markt","Hohensteiner Str. 35","01814","Bad Schandau"
"PENNY Markt","Hohensteiner Str. 35","01814","Bad Schandau"
"PENNY Markt","Täubchenweg 69-73","04317","Leipzig"
"PENNY Markt","Täubchenweg 69-73","04317","Leipzig"
"PENNY Markt","Dürer Str. 119","01307","Dresden"
"PENNY Markt","Dürer Str. 119","01307","Dresden"
"PENNY Markt","Georg-Schwarz-Str. 131","04179","Leipzig"
"PENNY Markt","Georg-Schwarz-Str. 131","04179","Leipzig"
"PENNY Markt","Ritterstr. 23-29","04109","Leipzig"
"PENNY Markt","Ritterstr. 23-29","04109","Leipzig"
"PENNY Markt","Jessener Str. 2","01623","Lommatzsch"
"PENNY Markt","Jessener Str. 2","01623","Lommatzsch"
"PENNY Markt","Am Bahnhof 23","06246","Bad Lauchstädt"
"PENNY Markt","Am Bahnhof 23","06246","Bad Lauchstädt"
"PENNY Markt","Waldbaurstr. 4-6","04347","Leipzig"
"PENNY Markt","Waldbaurstr. 4-6","04347","Leipzig"
"PENNY Markt","Permoserstr. 46","04328","Leipzig"
"PENNY Markt","Permoserstr. 46","04328","Leipzig"
"PENNY Markt","Georg-Schumann-Str. 50","04155","Leipzig"
"PENNY Markt","Georg-Schumann-Str. 50","04155","Leipzig"
"PENNY Markt","Pfortenplatz 16","06542","Allstedt"
"PENNY Markt","Pfortenplatz 16","06542","Allstedt"
"PENNY Markt","Wurzener Str. 1","04821","Brandis"
"PENNY Markt","Wurzener Str. 1","04821","Brandis"
"PENNY Markt","Waldkerbelstr. 12","04329","Leipzig"
"PENNY Markt","Waldkerbelstr. 12","04329","Leipzig"
"PENNY Markt","Panitzscher Str. 1","04451","Borsdorf"
"PENNY Markt","Panitzscher Str. 1","04451","Borsdorf"
"PENNY Markt","Rosa-Luxemburg-Str. 3-5","01662","Meißen"
"PENNY Markt","Rosa-Luxemburg-Str. 3-5","01662","Meißen"
"PENNY Markt","Goldene Hufe","04329","Leipzig"
"PENNY Markt","Goldene Hufe","04329","Leipzig"
"PENNY Markt","Dresdner Str. 21","01689","Weinböhla"
"PENNY Markt","Dresdner Str. 21","01689","Weinböhla"
"PENNY Markt","Leipziger Str. 46","04828","Bennewitz"
"PENNY Markt","Leipziger Str. 46","04828","Bennewitz"
"PENNY Markt","Frankenhäuser Str. 23","06537","Kelbra (Kyffhäuser)"
"PENNY Markt","Frankenhäuser Str. 23","06537","Kelbra (Kyffhäuser)"
"PENNY Markt","Striesaer Weg 2","04758","Oschatz"
"PENNY Markt","Striesaer Weg 2","04758","Oschatz"
"PENNY Markt","Albert-Heise-Str. 54","06179","Teutschenthal"
"PENNY Markt","Albert-Heise-Str. 54","06179","Teutschenthal"
"PENNY Markt","Marienstr. 3","04808","Wurzen"
"PENNY Markt","Marienstr. 3","04808","Wurzen"
"PENNY Markt","Schillerstr. 40A","01855","Sebnitz"
"PENNY Markt","Schillerstr. 40A","01855","Sebnitz"
"PENNY Markt","Pirnaer Landstr. 1A","01833","Stolpen"
"PENNY Markt","Pirnaer Landstr. 1A","01833","Stolpen"
"PENNY Markt","Hauptstr. 24","04519","Rackwitz"
"PENNY Markt","Hauptstr. 24","04519","Rackwitz"
"PENNY Markt","Hallesche Straße 39","06536","Roßla"
"PENNY Markt","Hallesche Straße 39","06536","Roßla"
"PENNY Markt","Köchstedter Weg 1","06179","Teutschenthal"
"PENNY Markt","Köchstedter Weg 1","06179","Teutschenthal"
"PENNY Markt","Chemnitzer Str. 20","01587","Riesa"
"PENNY Markt","Chemnitzer Str. 20","01587","Riesa"
"PENNY Markt","Willy-Brandt-str. 57","06110","Halle"
"PENNY Markt","Willy-Brandt-str. 57","06110","Halle"
"PENNY Markt","Bahnhofstr. 98","04774","Dahlen"
"PENNY Markt","Bahnhofstr. 98","04774","Dahlen"
"PENNY Markt","Oststr. 4","06526","Sangerhausen"
"PENNY Markt","Oststr. 4","06526","Sangerhausen"
"PENNY Markt","Klötzerstr. 31","01587","Riesa"
"PENNY Markt","Klötzerstr. 31","01587","Riesa"
"PENNY Markt","Am Tulpenbrunnen 2","06122","Halle (Saale)"
"PENNY Markt","Am Tulpenbrunnen 2","06122","Halle (Saale)"
"PENNY Markt","Breite Str. 15","06108","Halle"
"PENNY Markt","Breite Str. 15","06108","Halle"
"PENNY Markt","Fritz-Hoffmann-Str. 78","06112","Halle (Saale)"
"PENNY Markt","Fritz-Hoffmann-Str. 78","06112","Halle (Saale)"
"PENNY Markt","Hegelstr. 74","06114","Halle"
"PENNY Markt","Hegelstr. 74","06114","Halle"
"PENNY Markt","Bahnhofstr. 1","04509","Krostitz"
"PENNY Markt","Bahnhofstr. 1","04509","Krostitz"
"PENNY Markt","Dresdner Str. 25","01458","Ottendorf-Okrilla"
"PENNY Markt","Dresdner Str. 25","01458","Ottendorf-Okrilla"
"PENNY Markt","Dessauer Str. 10","06118","Halle"
"PENNY Markt","Dessauer Str. 10","06118","Halle"
"PENNY Markt","Dölauer Str. 48","06120","Halle"
"PENNY Markt","Dölauer Str. 48","06120","Halle"
"PENNY Markt","Wilhelm-Busch-Str. 36","06118","Halle"
"PENNY Markt","Wilhelm-Busch-Str. 36","06118","Halle"
"PENNY Markt","Kranoldstr. 25","04838","Eilenburg"
"PENNY Markt","Kranoldstr. 25","04838","Eilenburg"
"PENNY Markt","Adolf-Zschiedrich-Str. 24","01900","Bretnig-Hauswalde"
"PENNY Markt","Adolf-Zschiedrich-Str. 24","01900","Bretnig-Hauswalde"
"PENNY Markt","Zörbiger Str. 10","06188","Landsberg"
"PENNY Markt","Zörbiger Str. 10","06188","Landsberg"
"PENNY Markt","Ringehanstr. 35","02785","Olbersdorf"
"PENNY Markt","Ringehanstr. 35","02785","Olbersdorf"
"PENNY Markt","Albert-Böhme-Straße","04509","Delitzsch"
"PENNY Markt","Albert-Böhme-Straße","04509","Delitzsch"
"PENNY Markt","Hauptstr. 27A","04838","Mockrehna"
"PENNY Markt","Hauptstr. 27A","04838","Mockrehna"
"PENNY Markt","Bahnstr. 46","02689","Sohland"
"PENNY Markt","Bahnstr. 46","02689","Sohland"
"PENNY Markt","Leipziger Str. 77","02763","Zittau"
"PENNY Markt","Leipziger Str. 77","02763","Zittau"
"PENNY Markt","Anhalterstr. 68","06193","Löbejün"
"PENNY Markt","Anhalterstr. 68","06193","Löbejün"
"PENNY Markt","Luisenstr. 18F","06333","Hettstedt"
"PENNY Markt","Luisenstr. 18F","06333","Hettstedt"
"PENNY Markt","Dommitzscher Straße","04849","Bad Düben"
"PENNY Markt","Dommitzscher Straße","04849","Bad Düben"
"PENNY Markt","Wittenberger Str. 3","06749","Bitterfeld-Wolfen"
"PENNY Markt","Wittenberger Str. 3","06749","Bitterfeld-Wolfen"
"PENNY Markt","Elsterwerdaer Str. 25A","01990","Ortrand"
"PENNY Markt","Elsterwerdaer Str. 25A","01990","Ortrand"
"PENNY Markt","Löbauer Str. 45","02747","Herrnhut"
"PENNY Markt","Löbauer Str. 45","02747","Herrnhut"
"PENNY Markt","Bitterfelder Str. 15c","06749","Friedersdorf"
"PENNY Markt","Bitterfelder Str. 15c","06749","Friedersdorf"
"PENNY Markt","Lange Str. 7","04910","Elsterwerda"
"PENNY Markt","Lange Str. 7","04910","Elsterwerda"
"PENNY Markt","Tzschirnerstr. 16","02625","Bautzen"
"PENNY Markt","Tzschirnerstr. 16","02625","Bautzen"
"PENNY Markt","Steinfurther Str. 12b","06766","Wolfen"
"PENNY Markt","Steinfurther Str. 12b","06766","Wolfen"
"PENNY Markt","Am Carolagarten General","02625","Bautzen"
"PENNY Markt","Am Carolagarten General","02625","Bautzen"
"PENNY Markt","Saaleplatz 9","06425","Alsleben"
"PENNY Markt","Saaleplatz 9","06425","Alsleben"
"PENNY Markt","Ernst-Thälmann-Str. 12","04886","Beilrode"
"PENNY Markt","Ernst-Thälmann-Str. 12","04886","Beilrode"
"PENNY Markt","Fritz-Weineck-Str. 16","06766","Wolfen"
"PENNY Markt","Fritz-Weineck-Str. 16","06766","Wolfen"
"PENNY Markt","Hoyerswerdaer Str. 136","02625","Kleinwelka"
"PENNY Markt","Hoyerswerdaer Str. 136","02625","Kleinwelka"
"PENNY Markt","Glück-Auf-Ring 3","04928","Plessa"
"PENNY Markt","Glück-Auf-Ring 3","04928","Plessa"
"PENNY Markt","Görlitzer Str. 37","02708","Löbau"
"PENNY Markt","Görlitzer Str. 37","02708","Löbau"
"PENNY Markt","Leipziger Str. 22A","04880","Dommitzsch"
"PENNY Markt","Leipziger Str. 22A","04880","Dommitzsch"
"PENNY Markt","An den Schrebergärten 2","02899","Ostritz"
"PENNY Markt","An den Schrebergärten 2","02899","Ostritz"
"PENNY Markt","Uebigauer Str. 5","04895","Falkenberg"
"PENNY Markt","Uebigauer Str. 5","04895","Falkenberg"
"PENNY Markt","Friedrich-Ludwig-Jahn-Str. 21","06366","Köthen"
"PENNY Markt","Friedrich-Ludwig-Jahn-Str. 21","06366","Köthen"
"PENNY Markt","Ermslebener Str. 74","06449","Aschersleben"
"PENNY Markt","Ermslebener Str. 74","06449","Aschersleben"
"PENNY Markt","Ernst-Thälmann-Str. 45","02694","Grossdubrau"
"PENNY Markt","Ernst-Thälmann-Str. 45","02694","Grossdubrau"
"PENNY Markt","Staßfurter Höhe 76","06449","Aschersleben"
"PENNY Markt","Staßfurter Höhe 76","06449","Aschersleben"
"PENNY Markt","Rosa-Luxemburg-Str. 68a","06773","Gräfenhainichen"
"PENNY Markt","Rosa-Luxemburg-Str. 68a","06773","Gräfenhainichen"
"PENNY Markt","Am Güterbahnhof 1","06925","Prettin"
"PENNY Markt","Am Güterbahnhof 1","06925","Prettin"
"PENNY Markt","Kemberger Str. 1","06905","Bad Schmiedeberg"
"PENNY Markt","Kemberger Str. 1","06905","Bad Schmiedeberg"
"PENNY Markt","Ruhlander Str. 73","01987","Schwarzheide"
"PENNY Markt","Ruhlander Str. 73","01987","Schwarzheide"
"PENNY Markt","Ernst-Thälmann-Str. 9","02627","Weißenberg"
"PENNY Markt","Ernst-Thälmann-Str. 9","02627","Weißenberg"
"PENNY Markt","Löbauer Str. 25","02894","Reichenbach"
"PENNY Markt","Löbauer Str. 25","02894","Reichenbach"
"PENNY Markt","Bahnhofstr. 24","06406","Bernburg"
"PENNY Markt","Bahnhofstr. 24","06406","Bernburg"
"PENNY Markt","Breite Str. 97","06406","Bernburg"
"PENNY Markt","Breite Str. 97","06406","Bernburg"
"PENNY Markt","Ernst-Thälmann-Str. 37","06386","Osternienburg"
"PENNY Markt","Ernst-Thälmann-Str. 37","06386","Osternienburg"
"PENNY Markt","Heidestr. 285","06849","Dessau"
"PENNY Markt","Heidestr. 285","06849","Dessau"
"PENNY Markt","Hauptstr. 23","02999","Lohsa"
"PENNY Markt","Hauptstr. 23","02999","Lohsa"
"PENNY Markt","Leipziger Str. 86","06901","Kemberg"
"PENNY Markt","Leipziger Str. 86","06901","Kemberg"
"PENNY Markt","Ruhlander Str. 19","01993","Schipkau"
"PENNY Markt","Ruhlander Str. 19","01993","Schipkau"
"PENNY Markt","Sandwäsche 1","02991","Schwarzkollm"
"PENNY Markt","Sandwäsche 1","02991","Schwarzkollm"
"PENNY Markt","Schlosstr. 78","06785","Oranienbaum"
"PENNY Markt","Schlosstr. 78","06785","Oranienbaum"
"PENNY Markt","Grochwitzer Str. 2a","04916","Herzberg"
"PENNY Markt","Grochwitzer Str. 2a","04916","Herzberg"
"PENNY Markt","Briesker Str. 80","01968","Senftenberg"
"PENNY Markt","Briesker Str. 80","01968","Senftenberg"
"PENNY Markt","Franzstr. 85","06842","Dessau"
"PENNY Markt","Franzstr. 85","06842","Dessau"
"PENNY Markt","Kühnauer Straße","06842","Dessau"
"PENNY Markt","Kühnauer Straße","06842","Dessau"
"PENNY Markt","Hoffmann-von-Fallersleben-Str. 47","02977","Hoyerswerda"
"PENNY Markt","Hoffmann-von-Fallersleben-Str. 47","02977","Hoyerswerda"
"PENNY Markt","Hauptstr. 150","06846","Dessau-Roßlau"
"PENNY Markt","Hauptstr. 150","06846","Dessau-Roßlau"
"PENNY Markt","Dessauer Landstr. 14","06385","Aken (Elbe)"
"PENNY Markt","Dessauer Landstr. 14","06385","Aken (Elbe)"
"PENNY Markt","Bahnhofstr. 79","02826","Görlitz"
"PENNY Markt","Bahnhofstr. 79","02826","Görlitz"
"PENNY Markt","Cottbuser Tor 1","02977","Hoyerswerda"
"PENNY Markt","Cottbuser Tor 1","02977","Hoyerswerda"
"PENNY Markt","Magdeburger Str. 81","06862","Roßlau"
"PENNY Markt","Magdeburger Str. 81","06862","Roßlau"
"PENNY Markt","Dessauer Str. 13","06886","Wittenberg"
"PENNY Markt","Dessauer Str. 13","06886","Wittenberg"
"PENNY Markt","Rothenburger Str. 23","02906","Niesky"
"PENNY Markt","Rothenburger Str. 23","02906","Niesky"
"PENNY Markt","Am Bahnhof 8","02906","Niesky"
"PENNY Markt","Am Bahnhof 8","02906","Niesky"
"PENNY Markt","Berliner Str. 37","06886","Lutherstadt Wittenberg"
"PENNY Markt","Berliner Str. 37","06886","Lutherstadt Wittenberg"
"PENNY Markt","Forsthausweg 1","02956","Rietschen"
"PENNY Markt","Forsthausweg 1","02956","Rietschen"
"PENNY Markt","Berliner Str. 60","03130","Spremberg"
"PENNY Markt","Berliner Str. 60","03130","Spremberg"
"PENNY Markt","Gartenstr. 7","03116","Drebkau"
"PENNY Markt","Gartenstr. 7","03116","Drebkau"
"PENNY Markt","Gablenzer Straße","02953","Bad Muskau"
"PENNY Markt","Gablenzer Straße","02953","Bad Muskau"
"PENNY Markt","Pestalozzistr. 5","03226","Vetschau"
"PENNY Markt","Pestalozzistr. 5","03226","Vetschau"
"PENNY Markt","Am Gewerbepark 1","03058","Gallinchen"
"PENNY Markt","Am Gewerbepark 1","03058","Gallinchen"
"PENNY Markt","Turower Str. 62","03048","Cottbus"
"PENNY Markt","Turower Str. 62","03048","Cottbus"
"PENNY Markt","Karl-Liebknecht-Str. 136","03046","Cottbus"
"PENNY Markt","Karl-Liebknecht-Str. 136","03046","Cottbus"
"PENNY Markt","Bahnhofstr. 15C","03096","Burg"
"PENNY Markt","Bahnhofstr. 15C","03096","Burg"
,,,
,,,
,,,
,,,
,,,
,,,
"PENNY Markt","Heidenheimer Str. 36","73450","Neresheim"
"PENNY Markt","Heidenheimer Str. 36","73450","Neresheim"
"PENNY Markt","Bischof-Fischer-Str. 73","73430","Aalen"
"PENNY Markt","Bischof-Fischer-Str. 73","73430","Aalen"
"PENNY Markt","Bahnhofstr. 77","73457","Essingen"
"PENNY Markt","Bahnhofstr. 77","73457","Essingen"
"PENNY Markt","Osteren 4","73453","Abtsgmünd"
"PENNY Markt","Osteren 4","73453","Abtsgmünd"
"PENNY Markt","Kohlbusch 1","74579","Fichtenau"
"PENNY Markt","Kohlbusch 1","74579","Fichtenau"
"PENNY Markt","Mozartstr. 35","73072","Donzdorf"
"PENNY Markt","Mozartstr. 35","73072","Donzdorf"
"PENNY Markt","Jahnstr. 15","73326","Deggingen"
"PENNY Markt","Jahnstr. 15","73326","Deggingen"
"PENNY Markt","Bühlstr. 17","73079","Süßen"
"PENNY Markt","Bühlstr. 17","73079","Süßen"
"PENNY Markt","Zum Steingau 2","73571","Goeggingen"
"PENNY Markt","Zum Steingau 2","73571","Goeggingen"
"PENNY Markt","Hauptstr. 7-9","74597","Stimpfach"
"PENNY Markt","Hauptstr. 7-9","74597","Stimpfach"
"PENNY Markt","Ulmer Str. 79","73054","Eislingen/Fils"
"PENNY Markt","Ulmer Str. 79","73054","Eislingen/Fils"
"PENNY Markt","In der Breite 7","73557","Mutlangen"
"PENNY Markt","In der Breite 7","73557","Mutlangen"
"PENNY Markt","Riedstr. 1","73092","Heiningen"
"PENNY Markt","Riedstr. 1","73092","Heiningen"
"PENNY Markt","Werner-von-Siemens-Str. 1","74564","Crailsheim"
"PENNY Markt","Werner-von-Siemens-Str. 1","74564","Crailsheim"
"PENNY Markt","Hauptstr. 1","74589","Satteldorf"
"PENNY Markt","Hauptstr. 1","74589","Satteldorf"
"PENNY Markt","Zellerstr. 1","73101","Aichelberg"
"PENNY Markt","Zellerstr. 1","73101","Aichelberg"
"PENNY Markt","Strutweg 44","73553","Alfdorf"
"PENNY Markt","Strutweg 44","73553","Alfdorf"
"PENNY Markt","Stockäcker 3","74423","Obersontheim"
"PENNY Markt","Stockäcker 3","74423","Obersontheim"
"PENNY Markt","Hagstr. 36","74417","Gschwend"
"PENNY Markt","Hagstr. 36","74417","Gschwend"
"PENNY Markt","Obere Kirchgasse 1","73655","Plüderhausen"
"PENNY Markt","Obere Kirchgasse 1","73655","Plüderhausen"
"PENNY Markt","Bahnhofstr. 12","73252","Lenningen"
"PENNY Markt","Bahnhofstr. 12","73252","Lenningen"
"PENNY Markt","Wangerhaldenweg 2","73230","Kirchheim Unter Teck"
"PENNY Markt","Wangerhaldenweg 2","73230","Kirchheim Unter Teck"
"PENNY Markt","Hauptstr. 1","72639","Neuffen"
"PENNY Markt","Hauptstr. 1","72639","Neuffen"
"PENNY Markt","Friedrich-List-Str. 5","73249","Wernau (Neckar)"
"PENNY Markt","Friedrich-List-Str. 5","73249","Wernau (Neckar)"
"PENNY Markt","Narzissenweg 4","74582","Gerabronn"
"PENNY Markt","Narzissenweg 4","74582","Gerabronn"
"PENNY Markt","Plochinger Str. 40-42","73779","Deizisau"
"PENNY Markt","Plochinger Str. 40-42","73779","Deizisau"
"PENNY Markt","Alfred-Klingele-Str. 1","73630","Remshalden"
"PENNY Markt","Alfred-Klingele-Str. 1","73630","Remshalden"
"PENNY Markt","Rechbergstr. 5","73770","Denkendorf"
"PENNY Markt","Rechbergstr. 5","73770","Denkendorf"
"PENNY Markt","Tübinger Str. 46","72666","Neckartailfingen"
"PENNY Markt","Tübinger Str. 46","72666","Neckartailfingen"
"PENNY Markt","Ringelbachstr. 109","72762","Reutlingen"
"PENNY Markt","Ringelbachstr. 109","72762","Reutlingen"
"PENNY Markt","Kiesstr. 10","73728","Esslingen am Neckar"
"PENNY Markt","Kiesstr. 10","73728","Esslingen am Neckar"
"PENNY Markt","Industriestr. 20","71522","Backnang"
"PENNY Markt","Industriestr. 20","71522","Backnang"
"PENNY Markt","Pestalozzistr. 5","72762","Reutlingen"
"PENNY Markt","Pestalozzistr. 5","72762","Reutlingen"
"PENNY Markt","Scharnhäuser Str. 11","73765","Neuhausen auf den Fildern"
"PENNY Markt","Scharnhäuser Str. 11","73765","Neuhausen auf den Fildern"
"PENNY Markt","Am Moosbach 3","74535","Mainhardt"
"PENNY Markt","Am Moosbach 3","74535","Mainhardt"
"PENNY Markt","Reutlinger Str. 30","70794","Filderstadt"
"PENNY Markt","Reutlinger Str. 30","70794","Filderstadt"
"PENNY Markt","Lindenstr. 28","72474","Winterlingen"
"PENNY Markt","Lindenstr. 28","72474","Winterlingen"
"PENNY Markt","Winnender Str. 30","71334","Waiblingen"
"PENNY Markt","Winnender Str. 30","71334","Waiblingen"
"PENNY Markt","Mainaustr. 149","78464","Konstanz"
"PENNY Markt","Mainaustr. 149","78464","Konstanz"
"PENNY Markt","Rohrackerstr. 7","70329","Stuttgart"
"PENNY Markt","Rohrackerstr. 7","70329","Stuttgart"
"PENNY Markt","Jacob-Brodbeck-Str. 10","70794","Filderstadt"
"PENNY Markt","Jacob-Brodbeck-Str. 10","70794","Filderstadt"
"PENNY Markt","Sonnenbühlstr. 98","78464","Konstanz"
"PENNY Markt","Sonnenbühlstr. 98","78464","Konstanz"
"PENNY Markt","Ebinger Str. 102","72475","Bitz"
"PENNY Markt","Ebinger Str. 102","72475","Bitz"
"PENNY Markt","Wannweiler Str. 3","72138","Kirchentellinsfurt"
"PENNY Markt","Wannweiler Str. 3","72138","Kirchentellinsfurt"
"PENNY Markt","Bildäckerstr. 29","70619","Stuttgart"
"PENNY Markt","Bildäckerstr. 29","70619","Stuttgart"
"PENNY Markt","Birkheckenstr. 4","70599","Stuttgart"
"PENNY Markt","Birkheckenstr. 4","70599","Stuttgart"
"PENNY Markt","Wollmatinger Str. 22","78467","Konstanz"
"PENNY Markt","Wollmatinger Str. 22","78467","Konstanz"
"PENNY Markt","Ulmer Str. 205","70327","Stuttgart"
"PENNY Markt","Ulmer Str. 205","70327","Stuttgart"
"PENNY Markt","Siemensstr. 2","71563","Affalterbach"
"PENNY Markt","Siemensstr. 2","71563","Affalterbach"
"PENNY Markt","Löwensteiner Str. 19","71543","Wüstenrot"
"PENNY Markt","Löwensteiner Str. 19","71543","Wüstenrot"
"PENNY Markt","Stifterstr. 65","78467","Konstanz"
"PENNY Markt","Stifterstr. 65","78467","Konstanz"
"PENNY Markt","Bahnhofstr. 51","71111","Waldenbuch"
"PENNY Markt","Bahnhofstr. 51","71111","Waldenbuch"
"PENNY Markt","Martha-Schmidtmann-Str. 79","70374","Stuttgart"
"PENNY Markt","Martha-Schmidtmann-Str. 79","70374","Stuttgart"
"PENNY Markt","Kirchensaller Str. 27","74632","Neuenstein"
"PENNY Markt","Kirchensaller Str. 27","74632","Neuenstein"
"PENNY Markt","Flamingoweg 5","70378","Stuttgart"
"PENNY Markt","Flamingoweg 5","70378","Stuttgart"
"PENNY Markt","Haussmannstr. 103","70188","Stuttgart"
"PENNY Markt","Haussmannstr. 103","70188","Stuttgart"
"PENNY Markt","Konrad-Adenauer-Str. 52","72461","Albstadt"
"PENNY Markt","Konrad-Adenauer-Str. 52","72461","Albstadt"
"PENNY Markt","Neckarstr. 207","70190","Stuttgart"
"PENNY Markt","Neckarstr. 207","70190","Stuttgart"
"PENNY Markt","Breitwasenring 58","72135","Dettenhausen"
"PENNY Markt","Breitwasenring 58","72135","Dettenhausen"
"PENNY Markt","Bottroperstr. 16","70376","Stuttgart"
"PENNY Markt","Bottroperstr. 16","70376","Stuttgart"
"PENNY Markt","Weiherrain 2","72131","Ofterdingen"
"PENNY Markt","Weiherrain 2","72131","Ofterdingen"
"PENNY Markt","Allmendstr. 14","74629","Pfedelbach"
"PENNY Markt","Allmendstr. 14","74629","Pfedelbach"
"PENNY Markt","John-F.-Kennedy-Allee 55/3-4","71686","Remseck"
"PENNY Markt","John-F.-Kennedy-Allee 55/3-4","71686","Remseck"
"PENNY Markt","Schwabstr. 53-61","70197","Stuttgart"
"PENNY Markt","Schwabstr. 53-61","70197","Stuttgart"
"PENNY Markt","Haldenrainstr. 77","70437","Stuttgart"
"PENNY Markt","Haldenrainstr. 77","70437","Stuttgart"
"PENNY Markt","Friesenstr. 32","71640","Ludwigsburg"
"PENNY Markt","Friesenstr. 32","71640","Ludwigsburg"
"PENNY Markt","Hartmeyerstr. 11","72076","Tübingen"
"PENNY Markt","Hartmeyerstr. 11","72076","Tübingen"
"PENNY Markt","Vera-Vollmer-Str. 8","70469","Stuttgart"
"PENNY Markt","Vera-Vollmer-Str. 8","70469","Stuttgart"
"PENNY Markt","Sonnenbergstr. 31","71723","Großbottwar"
"PENNY Markt","Sonnenbergstr. 31","71723","Großbottwar"
"PENNY Markt","Austr. 5","74613","Öhringen"
"PENNY Markt","Austr. 5","74613","Öhringen"
"PENNY Markt","Bahnhofstr. 2-6","70806","Kornwestheim"
"PENNY Markt","Bahnhofstr. 2-6","70806","Kornwestheim"
"PENNY Markt","Daimlerstr. 2","72411","Bodelshausen"
"PENNY Markt","Daimlerstr. 2","72411","Bodelshausen"
"PENNY Markt","Waldstr. 1","71101","Schönaich"
"PENNY Markt","Waldstr. 1","71101","Schönaich"
"PENNY Markt","Zuffenhauser Str. 70","70825","Korntal-Münchingen"
"PENNY Markt","Zuffenhauser Str. 70","70825","Korntal-Münchingen"
"PENNY Markt","Löwensteiner Str. 78","74182","Obersulm"
"PENNY Markt","Löwensteiner Str. 78","74182","Obersulm"
"PENNY Markt","Löwen-Markt 5","70499","Stuttgart-Weilimdorf"
"PENNY Markt","Löwen-Markt 5","70499","Stuttgart-Weilimdorf"
"PENNY Markt","Tübinger Str. 111","71088","Holzgerlingen"
"PENNY Markt","Tübinger Str. 111","71088","Holzgerlingen"
"PENNY Markt","Ruitstr. 68","71691","Freiberg am Neckar"
"PENNY Markt","Ruitstr. 68","71691","Freiberg am Neckar"
"PENNY Markt","Krötenweg 3","70499","Stuttgart"
"PENNY Markt","Krötenweg 3","70499","Stuttgart"
"PENNY Markt","Jagststr. 3","74238","Krautheim"
"PENNY Markt","Jagststr. 3","74238","Krautheim"
"PENNY Markt","Schönaicher Str. 50","71032","Böblingen"
"PENNY Markt","Schönaicher Str. 50","71032","Böblingen"
"PENNY Markt","Stuttgarter Str. 9","71032","Böblingen"
"PENNY Markt","Stuttgarter Str. 9","71032","Böblingen"
"PENNY Markt","Zeppelinstr. 52","72119","Ammerbuch"
"PENNY Markt","Zeppelinstr. 52","72119","Ammerbuch"
"PENNY Markt","Königsberger Str. 12A","71034","Böblingen"
"PENNY Markt","Königsberger Str. 12A","71034","Böblingen"
"PENNY Markt","Öhringer Str. 35","74196","Neuenstadt Am Kocher"
"PENNY Markt","Öhringer Str. 35","74196","Neuenstadt Am Kocher"
"PENNY Markt","Max-Eyth-Str. 1","74343","Sachsenheim"
"PENNY Markt","Max-Eyth-Str. 1","74343","Sachsenheim"
"PENNY Markt","Werderstr. 109","74074","Heilbronn"
"PENNY Markt","Werderstr. 109","74074","Heilbronn"
"PENNY Markt","Schuchmannstr. 4","74080","Heilbronn"
"PENNY Markt","Schuchmannstr. 4","74080","Heilbronn"
"PENNY Markt","Neckargartacher Str. 84","74080","Heilbronn"
"PENNY Markt","Neckargartacher Str. 84","74080","Heilbronn"
"PENNY Markt","Meinradstr. 3","72401","Haigerloch"
"PENNY Markt","Meinradstr. 3","72401","Haigerloch"
"PENNY Markt","Bahnhofstr. 13","71149","Bondorf"
"PENNY Markt","Bahnhofstr. 13","71149","Bondorf"
"PENNY Markt","Züttlinger Str. 10","74219","Möckmühl"
"PENNY Markt","Züttlinger Str. 10","74219","Möckmühl"
"PENNY Markt","Gänseweide 10","78239","Rielasingen-Worblingen"
"PENNY Markt","Gänseweide 10","78239","Rielasingen-Worblingen"
"PENNY Markt","Frankenbacher Str. 47","74078","Heilbronn"
"PENNY Markt","Frankenbacher Str. 47","74078","Heilbronn"
"PENNY Markt","Industriestr. 1","74372","Sersheim"
"PENNY Markt","Industriestr. 1","74372","Sersheim"
"PENNY Markt","Tannenstraße","74229","Oedheim"
"PENNY Markt","Tannenstraße","74229","Oedheim"
"PENNY Markt","Hauptstr. 152","78588","Denkingen"
"PENNY Markt","Hauptstr. 152","78588","Denkingen"
"PENNY Markt","Pforzheimer Str. 55","71665","Vaihingen an der Enz"
"PENNY Markt","Pforzheimer Str. 55","71665","Vaihingen an der Enz"
"PENNY Markt","Hauptstr. 55","71263","Weil der Stadt - Merklingen"
"PENNY Markt","Hauptstr. 55","71263","Weil der Stadt - Merklingen"
"PENNY Markt","Prof.-Schuhmacher-Str. 2/2","74706","Osterburken"
"PENNY Markt","Prof.-Schuhmacher-Str. 2/2","74706","Osterburken"
"PENNY Markt","Silcherstr. 26","72348","Rosenfeld"
"PENNY Markt","Silcherstr. 26","72348","Rosenfeld"
"PENNY Markt","Himbergweg 1","75382","Althengstett"
"PENNY Markt","Himbergweg 1","75382","Althengstett"
"PENNY Markt","Am Illinger Eck","75428","Illingen"
"PENNY Markt","Am Illinger Eck","75428","Illingen"
"PENNY Markt","Engener Str. 5","78187","Geisingen"
"PENNY Markt","Engener Str. 5","78187","Geisingen"
"PENNY Markt","Wilhelm-Hauff-Str. 48","74906","Bad Rappenau"
"PENNY Markt","Wilhelm-Hauff-Str. 48","74906","Bad Rappenau"
"PENNY Markt","Nagolder Str. 66/1","72224","Ebhausen"
"PENNY Markt","Nagolder Str. 66/1","72224","Ebhausen"
"PENNY Markt","Hauptstr. 2/1","74936","Siegelsbach"
"PENNY Markt","Hauptstr. 2/1","74936","Siegelsbach"
"PENNY Markt","Pfalzgraf-Otto-Str. 95","74821","Mosbach"
"PENNY Markt","Pfalzgraf-Otto-Str. 95","74821","Mosbach"
"PENNY Markt","Sinsheimerstraße","74912","Kirchardt"
"PENNY Markt","Sinsheimerstraße","74912","Kirchardt"
"PENNY Markt","Zu den Dilläckern 2","74722","Buchen"
"PENNY Markt","Zu den Dilläckern 2","74722","Buchen"
"PENNY Markt","Frauenbrunner Weg 11","75031","Eppingen"
"PENNY Markt","Frauenbrunner Weg 11","75031","Eppingen"
"PENNY Markt","Auweg 2","74847","Obrigheim"
"PENNY Markt","Auweg 2","74847","Obrigheim"
"PENNY Markt","Deißlinger Str. 4","78078","Niedereschach"
"PENNY Markt","Deißlinger Str. 4","78078","Niedereschach"
"PENNY Markt","Rudolf-Diesel-Str. 5","72285","Pfalzgrafenweiler"
"PENNY Markt","Rudolf-Diesel-Str. 5","72285","Pfalzgrafenweiler"
"PENNY Markt","Sturmbühlstr. 134","78054","Villingen-Schwenningen"
"PENNY Markt","Sturmbühlstr. 134","78054","Villingen-Schwenningen"
"PENNY Markt","Industriestr. 111","75181","Pforzheim"
"PENNY Markt","Industriestr. 111","75181","Pforzheim"
"PENNY Markt","Holzgartenstr. 17-19","75175","Pforzheim"
"PENNY Markt","Holzgartenstr. 17-19","75175","Pforzheim"
"PENNY Markt","Sternenfelser Str. 53","75038","Oberderdingen"
"PENNY Markt","Sternenfelser Str. 53","75038","Oberderdingen"
"PENNY Markt","Goethestr. 19","75172","Pforzheim"
"PENNY Markt","Goethestr. 19","75172","Pforzheim"
"PENNY Markt","Gutenbergstr. 19","72175","Dornhan"
"PENNY Markt","Gutenbergstr. 19","72175","Dornhan"
"PENNY Markt","Büchenbronner Str. 68","75172","Pforzheim"
"PENNY Markt","Büchenbronner Str. 68","75172","Pforzheim"
"PENNY Markt","Güterstr. 9","78166","Donaueschingen"
"PENNY Markt","Güterstr. 9","78166","Donaueschingen"
"PENNY Markt","Waldshuter Str. 1","79798","Jestetten"
"PENNY Markt","Waldshuter Str. 1","79798","Jestetten"
"PENNY Markt","Friedhofweg 13","74921","Helmstadt-Bargen"
"PENNY Markt","Friedhofweg 13","74921","Helmstadt-Bargen"
"PENNY Markt","Neulandstr. 18","74889","Sinsheim"
"PENNY Markt","Neulandstr. 18","74889","Sinsheim"
"PENNY Markt","Raiffeisenstr. 15","75236","Kämpfelbach"
"PENNY Markt","Raiffeisenstr. 15","75236","Kämpfelbach"
"PENNY Markt","Schwarzacher Str. 7","74858","Aglasterhausen"
"PENNY Markt","Schwarzacher Str. 7","74858","Aglasterhausen"
"PENNY Markt","Pforzheimerstr. 44-50","75015","Bretten"
"PENNY Markt","Pforzheimerstr. 44-50","75015","Bretten"
"PENNY Markt","Industriestr. 2","75210","Keltern"
"PENNY Markt","Industriestr. 2","75210","Keltern"
"PENNY Markt","Hauptstr. 58","72275","Alpirsbach"
"PENNY Markt","Hauptstr. 58","72275","Alpirsbach"
"PENNY Markt","Lindenweg 6","79780","Stühlingen"
"PENNY Markt","Lindenweg 6","79780","Stühlingen"
"PENNY Markt","Marktstr. 65","75196","Remchingen"
"PENNY Markt","Marktstr. 65","75196","Remchingen"
"PENNY Markt","Hauptstr. 67","74918","Angelbachtal"
"PENNY Markt","Hauptstr. 67","74918","Angelbachtal"
"PENNY Markt","Oberdorfstr. 166","72270","Baiersbronn"
"PENNY Markt","Oberdorfstr. 166","72270","Baiersbronn"
"PENNY Markt","Neurott 46-50","74931","Lobbach"
"PENNY Markt","Neurott 46-50","74931","Lobbach"
"PENNY Markt","Am Güterbahnhof 8","79771","Klettgau-Erzingen"
"PENNY Markt","Am Güterbahnhof 8","79771","Klettgau-Erzingen"
"PENNY Markt","Industriestr. 1","74909","Meckesheim"
"PENNY Markt","Industriestr. 1","74909","Meckesheim"
"PENNY Markt","Jöhlinger Str. 162","75045","Walzbachtal"
"PENNY Markt","Jöhlinger Str. 162","75045","Walzbachtal"
"PENNY Markt","Thomas-Howie-Str. 17","76684","Östringen"
"PENNY Markt","Thomas-Howie-Str. 17","76684","Östringen"
"PENNY Markt","Ettlinger Str. 54","76332","Bad Herrenalb"
"PENNY Markt","Ettlinger Str. 54","76332","Bad Herrenalb"
"PENNY Markt","Zeuterner Straße","76698","Ubstadt-Weiher"
"PENNY Markt","Zeuterner Straße","76698","Ubstadt-Weiher"
"PENNY Markt","Durlacher Str. 3-7","76646","Bruchsal"
"PENNY Markt","Durlacher Str. 3-7","76646","Bruchsal"
"PENNY Markt","Altmühlenstr. 20","79793","Wutöschingen"
"PENNY Markt","Altmühlenstr. 20","79793","Wutöschingen"
"PENNY Markt","Im Schollengarten 1a","76646","Bruchsal"
"PENNY Markt","Im Schollengarten 1a","76646","Bruchsal"
"PENNY Markt","Durlacher Str. 84","76356","Weingarten (Baden)"
"PENNY Markt","Durlacher Str. 84","76356","Weingarten (Baden)"
"PENNY Markt","Rudolf-Diesel-Str. 1","76694","Forst"
"PENNY Markt","Rudolf-Diesel-Str. 1","76694","Forst"
"PENNY Markt","Am Storrenacker 1b","76139","Karlsruhe"
"PENNY Markt","Am Storrenacker 1b","76139","Karlsruhe"
"PENNY Markt","Max-Roth-Str. 9","76571","Gaggenau"
"PENNY Markt","Max-Roth-Str. 9","76571","Gaggenau"
"PENNY Markt","Goethestr. 15","76275","Ettlingen"
"PENNY Markt","Goethestr. 15","76275","Ettlingen"
"PENNY Markt","Frauenalber Str. 2","76199","Karlsruhe"
"PENNY Markt","Frauenalber Str. 2","76199","Karlsruhe"
"PENNY Markt","Schneidemühler Str. 14A","76139","Karlsruhe"
"PENNY Markt","Schneidemühler Str. 14A","76139","Karlsruhe"
"PENNY Markt","Ahornweg 89-95A","76275","Ettlingen"
"PENNY Markt","Ahornweg 89-95A","76275","Ettlingen"
"PENNY Markt","Heinrich-Hertz-Str. 2","76297","Stutensee"
"PENNY Markt","Heinrich-Hertz-Str. 2","76297","Stutensee"
"PENNY Markt","Breitenfelderstr. 4","79761","Waldshut-Tiengen"
"PENNY Markt","Breitenfelderstr. 4","79761","Waldshut-Tiengen"
"PENNY Markt","Karlstr. 67","76137","Karlsruhe"
"PENNY Markt","Karlstr. 67","76137","Karlsruhe"
"PENNY Markt","Scheffelstr. 1","76135","Karlsruhe"
"PENNY Markt","Scheffelstr. 1","76135","Karlsruhe"
"PENNY Markt","Ohiostr. 7-11","76149","Karlsruhe"
"PENNY Markt","Ohiostr. 7-11","76149","Karlsruhe"
"PENNY Markt","An der Vogelhardt 2","76149","Karlsruhe"
"PENNY Markt","An der Vogelhardt 2","76149","Karlsruhe"
"PENNY Markt","Lichtentaler Str. 60","76530","Baden-Baden"
"PENNY Markt","Lichtentaler Str. 60","76530","Baden-Baden"
"PENNY Markt","Schwarzwaldstr. 14","77728","Oppenau"
"PENNY Markt","Schwarzwaldstr. 14","77728","Oppenau"
"PENNY Markt","Josef-Schofer-Str. 16","76187","Karlsruhe"
"PENNY Markt","Josef-Schofer-Str. 16","76187","Karlsruhe"
"PENNY Markt","Lameystr. 14-16","76185","Karlsruhe-Mühlburg"
"PENNY Markt","Lameystr. 14-16","76185","Karlsruhe-Mühlburg"
"PENNY Markt","Bert-Brecht-Str. 64-68","76189","Karlsruhe"
"PENNY Markt","Bert-Brecht-Str. 64-68","76189","Karlsruhe"
"PENNY Markt","Im Wörth 3","76344","Eggenstein-Leopoldshafen"
"PENNY Markt","Im Wörth 3","76344","Eggenstein-Leopoldshafen"
"PENNY Markt","Herweghstr. 4","76187","Karlsruhe-Knielingen"
"PENNY Markt","Herweghstr. 4","76187","Karlsruhe-Knielingen"
"PENNY Markt","Liedolsheimer Str. 27","76706","Dettenheim"
"PENNY Markt","Liedolsheimer Str. 27","76706","Dettenheim"
"PENNY Markt","Rheinaustr. 1A","76287","Rheinstetten"
"PENNY Markt","Rheinaustr. 1A","76287","Rheinstetten"
"PENNY Markt","Industriestr. 32-36","76470","Ötigheim"
"PENNY Markt","Industriestr. 32-36","76470","Ötigheim"
"PENNY Markt","Am Freyersee 1","76661","Philippsburg"
"PENNY Markt","Am Freyersee 1","76661","Philippsburg"
"PENNY Markt","Hauptstr. 215A","77736","Zell"
"PENNY Markt","Hauptstr. 215A","77736","Zell"
"PENNY Markt","Wilhelm-Drapp-Str. 15","76532","Baden-Baden"
"PENNY Markt","Wilhelm-Drapp-Str. 15","76532","Baden-Baden"
"PENNY Markt","Robert-Bosch-Str. 6","76448","Durmersheim"
"PENNY Markt","Robert-Bosch-Str. 6","76448","Durmersheim"
"PENNY Markt","Biblisweg 6A","76437","Rastatt"
"PENNY Markt","Biblisweg 6A","76437","Rastatt"
"PENNY Markt","Landstr. 11","76547","Sinzheim"
"PENNY Markt","Landstr. 11","76547","Sinzheim"
"PENNY Markt","Richard-Wagner-Ring 54","76437","Rastatt"
"PENNY Markt","Richard-Wagner-Ring 54","76437","Rastatt"
"PENNY Markt","Steinenfeld 1","77736","Zell Am Harmersbach"
"PENNY Markt","Steinenfeld 1","77736","Zell Am Harmersbach"
"PENNY Markt","Hägenichstr. 7","77833","Ottersweier"
"PENNY Markt","Hägenichstr. 7","77833","Ottersweier"
"PENNY Markt","Allerheiligenstr. 84","77855","Achern"
"PENNY Markt","Allerheiligenstr. 84","77855","Achern"
"PENNY Markt","Friedrich-Ebert-Str. 2","76726","Germersheim"
"PENNY Markt","Friedrich-Ebert-Str. 2","76726","Germersheim"
"PENNY Markt","Kraftwerkstr. 25","79774","Albbruck"
"PENNY Markt","Kraftwerkstr. 25","79774","Albbruck"
"PENNY Markt","An der Acher 3","77855","Achern"
"PENNY Markt","An der Acher 3","77855","Achern"
"PENNY Markt","Buchstr. 13","76751","Jockgrim"
"PENNY Markt","Buchstr. 13","76751","Jockgrim"
"PENNY Markt","Dorfstr. 8A","79261","Gutach"
"PENNY Markt","Dorfstr. 8A","79261","Gutach"
"PENNY Markt","Rülzheimer Str. 1","76764","Rheinzabern"
"PENNY Markt","Rülzheimer Str. 1","76764","Rheinzabern"
"PENNY Markt","Mühlacker 2","76768","Berg (Pfalz)"
"PENNY Markt","Mühlacker 2","76768","Berg (Pfalz)"
"PENNY Markt","Strassburger Str. 62","77871","Renchen"
"PENNY Markt","Strassburger Str. 62","77871","Renchen"
"PENNY Markt","Weinstr. 41","77654","Offenburg"
"PENNY Markt","Weinstr. 41","77654","Offenburg"
"PENNY Markt","Kirchstr. 45","77836","Rheinmünster"
"PENNY Markt","Kirchstr. 45","77836","Rheinmünster"
"PENNY Markt","Hauptstr. 1D","76756","Bellheim"
"PENNY Markt","Hauptstr. 1D","76756","Bellheim"
"PENNY Markt","Im Riegel 6","76863","Herxheim bei Landau"
"PENNY Markt","Im Riegel 6","76863","Herxheim bei Landau"
"PENNY Markt","Kandelstr. 6","79199","Kirchzarten"
"PENNY Markt","Kandelstr. 6","79199","Kirchzarten"
"PENNY Markt","Moltkestr. 78","77654","Offenburg"
"PENNY Markt","Moltkestr. 78","77654","Offenburg"
"PENNY Markt","Am Giesenbach 1","77933","Lahr/ Schwarzwald"
"PENNY Markt","Am Giesenbach 1","77933","Lahr/ Schwarzwald"
"PENNY Markt","Obere Ziel 2","79350","Sexau"
"PENNY Markt","Obere Ziel 2","79350","Sexau"
"PENNY Markt","Burdastr. 2","77656","Offenburg"
"PENNY Markt","Burdastr. 2","77656","Offenburg"
"PENNY Markt","Carl-Otto-Keller-Str. 2","79674","Todtnau"
"PENNY Markt","Carl-Otto-Keller-Str. 2","79674","Todtnau"
"PENNY Markt","Interpark 1","76877","Offenbach an der Queich"
"PENNY Markt","Interpark 1","76877","Offenbach an der Queich"
"PENNY Markt","Rothenbächlestr. 2","79730","Murg"
"PENNY Markt","Rothenbächlestr. 2","79730","Murg"
"PENNY Markt","Am Mittelbach 9","77948","Friesenheim"
"PENNY Markt","Am Mittelbach 9","77948","Friesenheim"
"PENNY Markt","Baron-Kückh-Str. 2","77866","Rheinau-Freistett"
"PENNY Markt","Baron-Kückh-Str. 2","77866","Rheinau-Freistett"
"PENNY Markt","Hauptstr. 78","79312","Emmendingen"
"PENNY Markt","Hauptstr. 78","79312","Emmendingen"
"PENNY Markt","Friedhofstr. 7","77933","Lahr"
"PENNY Markt","Friedhofstr. 7","77933","Lahr"
"PENNY Markt","Alte Bundesstr. 37","79194","Gundelfingen"
"PENNY Markt","Alte Bundesstr. 37","79194","Gundelfingen"
"PENNY Markt","Schwarzwaldstr. 13","79312","Emmendingen"
"PENNY Markt","Schwarzwaldstr. 13","79312","Emmendingen"
"PENNY Markt","Tullastr. 2/1","77866","Rheinau"
"PENNY Markt","Tullastr. 2/1","77866","Rheinau"
"PENNY Markt","Habsburger Str. 100-102","79104","Freiburg"
"PENNY Markt","Habsburger Str. 100-102","79104","Freiburg"
"PENNY Markt","Im Götzmann 3","77933","Lahr"
"PENNY Markt","Im Götzmann 3","77933","Lahr"
"PENNY Markt","Stühlingerstr. 28","79106","Freiburg im Breisgau"
"PENNY Markt","Stühlingerstr. 28","79106","Freiburg im Breisgau"
"PENNY Markt","Friedrichstr. 6","79713","Bad Säckingen"
"PENNY Markt","Friedrichstr. 6","79713","Bad Säckingen"
"PENNY Markt","Am Bischofskreuz 15","79114","Freiburg"
"PENNY Markt","Am Bischofskreuz 15","79114","Freiburg"
"PENNY Markt","Gutenbergstr. 1","77955","Ettenheim"
"PENNY Markt","Gutenbergstr. 1","77955","Ettenheim"
"PENNY Markt","Kürzeller Hauptstr. 1B","77974","Meißenheim"
"PENNY Markt","Kürzeller Hauptstr. 1B","77974","Meißenheim"
"PENNY Markt","Hauptstr. 105","77743","Neuried"
"PENNY Markt","Hauptstr. 105","77743","Neuried"
"PENNY Markt","Hans-Theisen-Str. 18","79331","Teningen"
"PENNY Markt","Hans-Theisen-Str. 18","79331","Teningen"
"PENNY Markt","Königsberger Str. 28","77694","Kehl"
"PENNY Markt","Königsberger Str. 28","77694","Kehl"
"PENNY Markt","Schopfheimer Str. 63","79669","Zell im Wiesental"
"PENNY Markt","Schopfheimer Str. 63","79669","Zell im Wiesental"
"PENNY Markt","Brugesstr. 47","79224","Umkirch"
"PENNY Markt","Brugesstr. 47","79224","Umkirch"
"PENNY Markt","Am Untergrün 20","79232","March"
"PENNY Markt","Am Untergrün 20","79232","March"
"PENNY Markt","Seeweg 12","79336","Herbolzheim"
"PENNY Markt","Seeweg 12","79336","Herbolzheim"
"PENNY Markt","Lindelbrunnstr. 1","76887","Bad Bergzabern"
"PENNY Markt","Lindelbrunnstr. 1","76887","Bad Bergzabern"
"PENNY Markt","An der Schmalwiese 1","76889","Schweigen-Rechtenbach"
"PENNY Markt","An der Schmalwiese 1","76889","Schweigen-Rechtenbach"
"PENNY Markt","Gewerbestr. 2","79219","Staufen"
"PENNY Markt","Gewerbestr. 2","79219","Staufen"
"PENNY Markt","Am Alamannenfeld 1","79189","Bad Krozingen"
"PENNY Markt","Am Alamannenfeld 1","79189","Bad Krozingen"
"PENNY Markt","Bahnhofsplatz 5-9","79618","Rheinfelden"
"PENNY Markt","Bahnhofsplatz 5-9","79618","Rheinfelden"
"PENNY Markt","Königschaffhauser Str. 1","79369","Wyhl"
"PENNY Markt","Königschaffhauser Str. 1","79369","Wyhl"
"PENNY Markt","Gündlinger Str. 34","79241","Ihringen"
"PENNY Markt","Gündlinger Str. 34","79241","Ihringen"
"PENNY Markt","Siemensstr. 2","79585","Steinen"
"PENNY Markt","Siemensstr. 2","79585","Steinen"
"PENNY Markt","Beiersdorfer Str. 6","79423","Heitersheim"
"PENNY Markt","Beiersdorfer Str. 6","79423","Heitersheim"
"PENNY Markt","Gewerbestr. 2","79361","Sasbach Am Kaiserstuhl"
"PENNY Markt","Gewerbestr. 2","79361","Sasbach Am Kaiserstuhl"
"PENNY Markt","Freiburger Str. 2","79258","Hartheim"
"PENNY Markt","Freiburger Str. 2","79258","Hartheim"
"PENNY Markt","Bahnhofstr. 32","79400","Kandern"
"PENNY Markt","Bahnhofstr. 32","79400","Kandern"
"PENNY Markt","Schliengener Str. 11","79379","Müllheim"
"PENNY Markt","Schliengener Str. 11","79379","Müllheim"
"PENNY Markt","Brühlstr. 8","79540","Lörrach"
"PENNY Markt","Brühlstr. 8","79540","Lörrach"
"PENNY Markt","Wiesentalstr. 82","79539","Lörrach"
"PENNY Markt","Wiesentalstr. 82","79539","Lörrach"
"PENNY Markt","Rheinfeldstr. 34","79639","Grenzach-Wyhlen"
"PENNY Markt","Rheinfeldstr. 34","79639","Grenzach-Wyhlen"
"PENNY Markt","Im Rappenteich 2","76846","Hauenstein"
"PENNY Markt","Im Rappenteich 2","76846","Hauenstein"
"PENNY Markt","Müllheimer Str. 40","79395","Neuenburg am Rhein"
"PENNY Markt","Müllheimer Str. 40","79395","Neuenburg am Rhein"
"PENNY Markt","Gutedelstr. 34","79418","Schliengen"
"PENNY Markt","Gutedelstr. 34","79418","Schliengen"
"PENNY Markt","Im Rebacker 3","79591","Eimeldingen"
"PENNY Markt","Im Rebacker 3","79591","Eimeldingen"
,,,
,,,
