"nameCompany","streetAddress","postalCode","addressLocality","column1"
"real,-","Am Marktwege 2","06667","Leißling","https://www.meinprospekt.de/filialen/real-de/0"
"real,-","An der Zschauke 4","01728","Bannewitz","https://www.meinprospekt.de/filialen/real-de/0"
"real,-","Hauptstr. 3","01809","Heidenau","https://www.meinprospekt.de/filialen/real-de/0"
"real,-","Nebraer Tor 5","06268","Querfurt","https://www.meinprospekt.de/filialen/real-de/0"
"real,-","Miltitzer Str. 13","04178","Leipzig","https://www.meinprospekt.de/filialen/real-de/0"
"real,-","Riesapark 4","01587","Riesa","https://www.meinprospekt.de/filialen/real-de/0"
"real,-","Am Bruchsee 1","06122","Halle (Saale)","https://www.meinprospekt.de/filialen/real-de/0"
"real,-","Saarbrücker Str. 01","06188","Landsberg","https://www.meinprospekt.de/filialen/real-de/0"
"real,-","Kämmritzer Weg 20","06333","Hettstedt","https://www.meinprospekt.de/filialen/real-de/0"
"real,-","Anhaltstr. 74","06749","Bitterfeld-Wolfen","https://www.meinprospekt.de/filialen/real-de/0"
"real,-","Berliner Str. 114","03099","Kolkwitz","https://www.meinprospekt.de/filialen/real-de/0"
"real,-","Kleink Kenitzer Str. 2","15834","Rangsdorf","https://www.meinprospekt.de/filialen/real-de/1"
"real,-","Brielower Landstr. 29","14772","Brandenburg an der Havel","https://www.meinprospekt.de/filialen/real-de/1"
"real,-","Nuthestraße","14480","Potsdam","https://www.meinprospekt.de/filialen/real-de/1"
"real,-","Chausseestr. 1","15745","Wildau","https://www.meinprospekt.de/filialen/real-de/1"
"real,-","Oderstr. 29","14513","Teltow","https://www.meinprospekt.de/filialen/real-de/1"
"real,-","Am Müggelpark 10-12","15537","Gosen-Neu Zittau","https://www.meinprospekt.de/filialen/real-de/1"
"real,-","Karl-Marx-Str. 231-235","12055","Berlin","https://www.meinprospekt.de/filialen/real-de/1"
"real,-","Klosterstr. 3","13581","Berlin","https://www.meinprospekt.de/filialen/real-de/1"
"real,-","Am Treptower Park 14","12435","Berlin","https://www.meinprospekt.de/filialen/real-de/1"
"real,-","Barkhausenstr. 66","14612","Falkensee","https://www.meinprospekt.de/filialen/real-de/1"
"real,-","Frankfurter Allee 113-117","10365","Berlin","https://www.meinprospekt.de/filialen/real-de/1"
"real,-","Müllerstr. 47","13349","Berlin","https://www.meinprospekt.de/filialen/real-de/1"
"real,-","Stendaler Str. 24","12627","Berlin","https://www.meinprospekt.de/filialen/real-de/1"
"real,-","Messering 10","15234","Frankfurt (Oder)","https://www.meinprospekt.de/filialen/real-de/1"
"real,-","Babimost-Ring 25","16816","Neuruppin","https://www.meinprospekt.de/filialen/real-de/1"
"real,-","An der B 167","16244","Schorfheide","https://www.meinprospekt.de/filialen/real-de/1"
"real,-","Rostocker Str. 2","16928","Pritzwalk","https://www.meinprospekt.de/filialen/real-de/1"
"real,-","Landgrabenpark 1","16303","Schwedt/Oder","https://www.meinprospekt.de/filialen/real-de/1"
"real,-","Ziegendorfer Chaussee 1","19370","Parchim","https://www.meinprospekt.de/filialen/real-de/1"
"real,-","Grabenstr. 1","19061","Schwerin","https://www.meinprospekt.de/filialen/real-de/1"
"real,-","Mirabellenstr. 2","17033","Neubrandenburg","https://www.meinprospekt.de/filialen/real-de/1"
"real,-","Ostsee-Park-Str. 3","18069","Rostock","https://www.meinprospekt.de/filialen/real-de/1"
"real,-","Anklamer Landstr. 1","17491","Greifswald","https://www.meinprospekt.de/filialen/real-de/1"
"real,-","Gustower Weg 3","18439","Stralsund","https://www.meinprospekt.de/filialen/real-de/1"
"real,-","Ringstr. 140","18528","Bergen/Rügen","https://www.meinprospekt.de/filialen/real-de/1"
"real,-","An der Hasenbahn 3","29225","Celle","https://www.meinprospekt.de/filialen/real-de/2"
"real,-","Fischerhofstr. 6","29525","Uelzen","https://www.meinprospekt.de/filialen/real-de/2"
"real,-","Proppstr. 164","28816","Stuhr","https://www.meinprospekt.de/filialen/real-de/2"
"real,-","Steinsetzerstr. 15","28279","Bremen","https://www.meinprospekt.de/filialen/real-de/2"
"real,-","Vahrer Str. 197","28329","Bremen-Vahr","https://www.meinprospekt.de/filialen/real-de/2"
"real,-","Duckwitzstr. 55","28199","Bremen","https://www.meinprospekt.de/filialen/real-de/2"
"real,-","Rosenhügel 5","27721","Ritterhude","https://www.meinprospekt.de/filialen/real-de/2"
"real,-","Alter Postweg 125","26133","Oldenburg","https://www.meinprospekt.de/filialen/real-de/2"
"real,-","Stubbenweg 27","26125","Oldenburg","https://www.meinprospekt.de/filialen/real-de/2"
"real,-","Willinghusener Weg 1","22113","Oststeinbek","https://www.meinprospekt.de/filialen/real-de/2"
"real,-","Beim Strohhause 8","20097","Hamburg","https://www.meinprospekt.de/filialen/real-de/2"
"real,-","Berner Heerweg 173-175","22159","Hamburg","https://www.meinprospekt.de/filialen/real-de/2"
"real,-","Grandkuhlenweg 11","22549","Hamburg","https://www.meinprospekt.de/filialen/real-de/2"
"real,-","Am Ems-Center 1","26871","Papenburg","https://www.meinprospekt.de/filialen/real-de/2"
"real,-","Alexander-Fleming-Str. 1","23562","Lübeck","https://www.meinprospekt.de/filialen/real-de/2"
"real,-","Pferdebade 6","27580","Bremerhaven","https://www.meinprospekt.de/filialen/real-de/2"
"real,-","Karpendiek 3","23970","Hornstorf","https://www.meinprospekt.de/filialen/real-de/2"
"real,-","Gutenbergstr. 7","24558","Henstedt-Ulzburg","https://www.meinprospekt.de/filialen/real-de/2"
"real,-","Neufelder Weg 5","27619","Schiffdorf","https://www.meinprospekt.de/filialen/real-de/2"
"real,-","Fritz-Reuter-Str. 2a","26721","Emden","https://www.meinprospekt.de/filialen/real-de/2"
"real,-","Konrad-Adenauer-Allee 2","27472","Cuxhaven","https://www.meinprospekt.de/filialen/real-de/2"
"real,-","Glückauf 1-3","26506","Norden","https://www.meinprospekt.de/filialen/real-de/2"
"real,-","Mergenthalerstr. 13-21","24223","Schwentinental","https://www.meinprospekt.de/filialen/real-de/2"
"real,-","Schleswiger Chaussee 249-257","24768","Rendsburg","https://www.meinprospekt.de/filialen/real-de/2"
"real,-","Flensburger Str. 61","24837","Schleswig","https://www.meinprospekt.de/filialen/real-de/2"
"real,-","Schleswiger Str. 130","24941","Flensburg","https://www.meinprospekt.de/filialen/real-de/2"
"real,-","Gottlieb-Daimler-Str. 27","35398","Gießen","https://www.meinprospekt.de/filialen/real-de/3"
"real,-","Hörnsheimer Eck 2-4","35578","Wetzlar","https://www.meinprospekt.de/filialen/real-de/3"
"real,-","Franzgraben 40-42","34125","Kassel","https://www.meinprospekt.de/filialen/real-de/3"
"real,-","Am Kauf Park 2","37079","Göttingen","https://www.meinprospekt.de/filialen/real-de/3"
"real,-","Große Breite 6","37077","Göttingen","https://www.meinprospekt.de/filialen/real-de/3"
"real,-","Lerchenbreite 5e","38889","Blankenburg (Harz)","https://www.meinprospekt.de/filialen/real-de/3"
"real,-","Hohenerxlebener Str. 50","39418","Staßfurt","https://www.meinprospekt.de/filialen/real-de/3"
"real,-","Dornbergsweg 43","38855","Wernigerode","https://www.meinprospekt.de/filialen/real-de/3"
"real,-","Gutenbergstr. 2","38640","Goslar","https://www.meinprospekt.de/filialen/real-de/3"
"real,-","Warburger Str. 38","33034","Brakel","https://www.meinprospekt.de/filialen/real-de/3"
"real,-","Husener Str. 121","33100","Paderborn","https://www.meinprospekt.de/filialen/real-de/3"
"real,-","Olvenstedter Graseweg 37","39128","Magdeburg","https://www.meinprospekt.de/filialen/real-de/3"
"real,-","Elbepark 1","39326","Hermsdorf","https://www.meinprospekt.de/filialen/real-de/3"
"real,-","Am Wasserwerk 3","38304","Wolfenbüttel","https://www.meinprospekt.de/filialen/real-de/3"
"real,-","Konrad-Adenauer-Str. 111","38226","Salzgitter","https://www.meinprospekt.de/filialen/real-de/3"
"real,-","Schäferwiese 15","38239","Salzgitter","https://www.meinprospekt.de/filialen/real-de/3"
"real,-","Werner-von-Siemens-Str. 3","38350","Walbeck","https://www.meinprospekt.de/filialen/real-de/3"
"real,-","Cheruskerring 26","31137","Hildesheim","https://www.meinprospekt.de/filialen/real-de/3"
"real,-","Otto-von-Guericke-Str. 11","38122","Braunschweig","https://www.meinprospekt.de/filialen/real-de/3"
"real,-","Berliner Str. 53","38104","Braunschweig","https://www.meinprospekt.de/filialen/real-de/3"
"real,-","Klingenbergstr. 31","32758","Detmold","https://www.meinprospekt.de/filialen/real-de/3"
"real,-","Hamburger Str. 250","38114","Braunschweig","https://www.meinprospekt.de/filialen/real-de/3"
"real,-","Pferdemarkt 1","31785","Hameln","https://www.meinprospekt.de/filialen/real-de/3"
"real,-","Brandgehaege 9","38444","Wolfsburg","https://www.meinprospekt.de/filialen/real-de/3"
"real,-","Am Anger 22","33332","Gütersloh","https://www.meinprospekt.de/filialen/real-de/3"
"real,-","Hehlinger Str. 21","38446","Wolfsburg","https://www.meinprospekt.de/filialen/real-de/3"
"real,-","Schweriner Str. 4","33605","Bielefeld","https://www.meinprospekt.de/filialen/real-de/3"
"real,-","Gütersloher Str. 122","33649","Bielefeld","https://www.meinprospekt.de/filialen/real-de/3"
"real,-","Teutoburger Str. 98","33607","Bielefeld","https://www.meinprospekt.de/filialen/real-de/3"
"real,-","Alfred-Bentz-Str. 1","30966","Hemmingen","https://www.meinprospekt.de/filialen/real-de/3"
"real,-","Eyßelheideweg 5","38518","Gifhorn","https://www.meinprospekt.de/filialen/real-de/3"
"real,-","Davenstedter Str. 80","30453","Hannover","https://www.meinprospekt.de/filialen/real-de/3"
"real,-","Opelstr. 3-5","30916","Isernhagen","https://www.meinprospekt.de/filialen/real-de/3"
"real,-","Havelser Str. 10","30823","Garbsen","https://www.meinprospekt.de/filialen/real-de/3"
"real,-","General-Bishop Str. 10","32339","Espelkamp","https://www.meinprospekt.de/filialen/real-de/3"
"real,-","Kräher Weg 1","31582","Nienburg/Weser","https://www.meinprospekt.de/filialen/real-de/3"
"real,-","Alleestr. 74","42853","Remscheid","https://www.meinprospekt.de/filialen/real-de/4"
"real,-","Dieselstr. 20","42389","Wuppertal","https://www.meinprospekt.de/filialen/real-de/4"
"real,-","Rheindorfer Str. 48-56","40764","Langenfeld","https://www.meinprospekt.de/filialen/real-de/4"
"real,-","Schleefstr. 15","44287","Dortmund","https://www.meinprospekt.de/filialen/real-de/4"
"real,-","Zur Fliethe 8","42489","Wülfrath","https://www.meinprospekt.de/filialen/real-de/4"
"real,-","Wulfshofstr. 6","44149","Dortmund","https://www.meinprospekt.de/filialen/real-de/4"
"real,-","Hauptstr. 212","44892","Bochum","https://www.meinprospekt.de/filialen/real-de/4"
"real,-","Deutsche Str. 4","44339","Dortmund","https://www.meinprospekt.de/filialen/real-de/4"
"real,-","Velberter Str. 38-44","42579","Heiligenhaus","https://www.meinprospekt.de/filialen/real-de/4"
"real,-","Friedrichstr. 152","40217","Düsseldorf","https://www.meinprospekt.de/filialen/real-de/4"
"real,-","Breslauer Str. 2","41460","Neuss","https://www.meinprospekt.de/filialen/real-de/4"
"real,-","Am Rittergut 1","41515","Grevenbroich","https://www.meinprospekt.de/filialen/real-de/4"
"real,-","Riemker Str. 13","44809","Bochum","https://www.meinprospekt.de/filialen/real-de/4"
"real,-","Ottostr. 40-43","44867","Bochum","https://www.meinprospekt.de/filialen/real-de/4"
"real,-","Am Sandbach 30","40878","Ratingen","https://www.meinprospekt.de/filialen/real-de/4"
"real,-","Siemensstr. 10","44579","Castrop-Rauxel","https://www.meinprospekt.de/filialen/real-de/4"
"real,-","Schiessstr. 31","40549","Düsseldorf","https://www.meinprospekt.de/filialen/real-de/4"
"real,-","Am Großmarkt 4","44653","Herne","https://www.meinprospekt.de/filialen/real-de/4"
"real,-","Bataverstr. 93","41462","Neuss","https://www.meinprospekt.de/filialen/real-de/4"
"real,-","An der Hoffnung 125","40885","Ratingen","https://www.meinprospekt.de/filialen/real-de/4"
"real,-","Porscheplatz 2","45127","Essen","https://www.meinprospekt.de/filialen/real-de/4"
"real,-","Haedenkampstr. 21","45143","Essen","https://www.meinprospekt.de/filialen/real-de/4"
"real,-","Emscherstr. 37","45891","Gelsenkirchen","https://www.meinprospekt.de/filialen/real-de/4"
"real,-","Buscher Str. 66","47269","Duisburg","https://www.meinprospekt.de/filialen/real-de/4"
"Real","Weselerstr. 30-40","45478","Mülheim an der Ruhr","https://www.meinprospekt.de/filialen/real-de/4"
"real,-","Heifeskamp 6","45475","Mülheim a.d. Ruhr","https://www.meinprospekt.de/filialen/real-de/4"
"real,-","Moses-Stern-Str. 29","41236","Mönchengladbach","https://www.meinprospekt.de/filialen/real-de/4"
"real,-","Reyerhütte 1","41065","Mönchengladbach","https://www.meinprospekt.de/filialen/real-de/4"
"real,-","Krefelder Str. 131","41063","Mönchengladbach","https://www.meinprospekt.de/filialen/real-de/4"
"real,-","Krefelder Str. 643","41066","Mönchengladbach","https://www.meinprospekt.de/filialen/real-de/4"
"real,-","Hafelsstr. 200","47809","Krefeld","https://www.meinprospekt.de/filialen/real-de/4"
"real,-","Hoppenwall 1","45701","Herten","https://www.meinprospekt.de/filialen/real-de/4"
"real,-","Berliner Str. 90","47138","Duisburg","https://www.meinprospekt.de/filialen/real-de/4"
"real,-","Mevissenstr. 60","47803","Krefeld","https://www.meinprospekt.de/filialen/real-de/4"
"real,-","Kanalstr. 51-55","41748","Viersen","https://www.meinprospekt.de/filialen/real-de/4"
"real,-","Höhenhöfe 19","47918","Tönisvorst","https://www.meinprospekt.de/filialen/real-de/4"
"real,-","Römerstr. 570","47443","Moers","https://www.meinprospekt.de/filialen/real-de/4"
"real,-","Hülsdonker Str. 86","47441","Moers","https://www.meinprospekt.de/filialen/real-de/4"
"real,-","Auf dem Quellberg 16","48249","Dülmen","https://www.meinprospekt.de/filialen/real-de/4"
"real,-","Thyssenstr. 70","46535","Dinslaken","https://www.meinprospekt.de/filialen/real-de/4"
"real,-","Moerser Str. 221","47475","Kamp-Lintfort","https://www.meinprospekt.de/filialen/real-de/4"
"real,-","Carl-Fischer Str. 1","49084","Osnabrück","https://www.meinprospekt.de/filialen/real-de/4"
"real,-","Dülmener Str. 39","48653","Coesfeld","https://www.meinprospekt.de/filialen/real-de/4"
"real,-","Rudolf-Diesel-Str. 7","46485","Wesel","https://www.meinprospekt.de/filialen/real-de/4"
"real,-","Wallgraben 12-14","48356","Nordwalde","https://www.meinprospekt.de/filialen/real-de/4"
"real,-","Gronauer Str. 21","46414","Rhede","https://www.meinprospekt.de/filialen/real-de/4"
"real,-","Welfenstr. 21","46395","Bocholt","https://www.meinprospekt.de/filialen/real-de/4"
"real,-","Lingener Str. 19","48429","Rheine","https://www.meinprospekt.de/filialen/real-de/4"
"real,-","Grüttweg 42-46","46459","Rees","https://www.meinprospekt.de/filialen/real-de/4"
"real,-","Karl-Heinz-Kipp-Str. 23","55232","Alzey-Dautenheim","https://www.meinprospekt.de/filialen/real-de/5"
"real,-","Haifa-Allee 1","55128","Mainz","https://www.meinprospekt.de/filialen/real-de/5"
"real,-","Nahering 3","55218","Ingelheim am Rhein","https://www.meinprospekt.de/filialen/real-de/5"
"real,-","Westtangente 3","55566","Bad Sobernheim","https://www.meinprospekt.de/filialen/real-de/5"
"real,-","Industriestr. 11","56412","Heiligenroth","https://www.meinprospekt.de/filialen/real-de/5"
"real,-","Industriestr. 4","56218","Mülheim-Kärlich","https://www.meinprospekt.de/filialen/real-de/5"
"real,-","Eiserfelder Str. 170","57072","Siegen","https://www.meinprospekt.de/filialen/real-de/5"
"Real","Justus-v.-Liebig-Str. 4","54516","Wittlich","https://www.meinprospekt.de/filialen/real-de/5"
"real,-","Am Kenner Haus 20","54344","Kenn","https://www.meinprospekt.de/filialen/real-de/5"
"real,-","Gottbillstr. 12-18","54294","Trier","https://www.meinprospekt.de/filialen/real-de/5"
"real,-","Rathausallee 16","53757","Sankt Augustin","https://www.meinprospekt.de/filialen/real-de/5"
"real,-","Narzissenweg 25","53881","Euskirchen","https://www.meinprospekt.de/filialen/real-de/5"
"real,-","Rudolf-Diesel-Str. 32","51149","Köln","https://www.meinprospekt.de/filialen/real-de/5"
"real,-","Gremberger Str. 200","51105","Köln","https://www.meinprospekt.de/filialen/real-de/5"
"real,-","Urbecker Str. 127","58675","Hemer","https://www.meinprospekt.de/filialen/real-de/5"
"real,-","Gustav-Heinemann-Str. 2","50374","Erftstadt","https://www.meinprospekt.de/filialen/real-de/5"
"real,-","Bökenförder Str. 181-183","59557","Lippstadt","https://www.meinprospekt.de/filialen/real-de/5"
"real,-","Weißhausstr. 20-30","50939","Köln","https://www.meinprospekt.de/filialen/real-de/5"
"real,-","Bösperder Weg 43","58708","Menden (Sauerland)","https://www.meinprospekt.de/filialen/real-de/5"
"real,-","Stixchesstr. 123","51377","Leverkusen","https://www.meinprospekt.de/filialen/real-de/5"
"real,-","Vollbrinkstr. 9","58135","Hagen","https://www.meinprospekt.de/filialen/real-de/5"
"real,-","Kabeler Str. 25","58099","Hagen","https://www.meinprospekt.de/filialen/real-de/5"
"real,-","Hans-Georg-Weiss-Str. 8","52156","Monschau","https://www.meinprospekt.de/filialen/real-de/5"
"real,-","Am Ellernbusch 22","52355","Düren","https://www.meinprospekt.de/filialen/real-de/5"
"real,-","Heerweg 99","52353","Düren","https://www.meinprospekt.de/filialen/real-de/5"
"real,-","Annenstr. 133","58453","Witten","https://www.meinprospekt.de/filialen/real-de/5"
"real,-","Münsterstr. 183","59073","Hamm","https://www.meinprospekt.de/filialen/real-de/5"
"real,-","Bahnstr. 15","50181","Bedburg","https://www.meinprospekt.de/filialen/real-de/5"
"real,-","Auerbachstr. 10","52249","Eschweiler","https://www.meinprospekt.de/filialen/real-de/5"
"real,-","An der Leimkaul 1","52428","Jülich","https://www.meinprospekt.de/filialen/real-de/5"
"real,-","Breslauer Str. 35","52068","Aachen","https://www.meinprospekt.de/filialen/real-de/5"
"real,-","Boschstr. 4","52531","Übach-Palenberg","https://www.meinprospekt.de/filialen/real-de/5"
"real,-","Humboldtstr. 26","52525","Heinsberg","https://www.meinprospekt.de/filialen/real-de/5"
"real,-","Rosenstr. 70","68535","Edingen-Neckarhausen","https://www.meinprospekt.de/filialen/real-de/6"
"real,-","Mannheimer Landstr. 2","68782","Brühl","https://www.meinprospekt.de/filialen/real-de/6"
"real,-","Spreewaldallee 44-50","68309","Mannheim","https://www.meinprospekt.de/filialen/real-de/6"
"real,-","Horchstr. 120","63741","Aschaffenburg","https://www.meinprospekt.de/filialen/real-de/6"
"real,-","An der Fohlenweide 21","67112","Mutterstadt","https://www.meinprospekt.de/filialen/real-de/6"
"real,-","Prälat-Caire-Str. 7","67071","Ludwigshafen am Rhein","https://www.meinprospekt.de/filialen/real-de/6"
"real,-","Hans-Böckler-Str. 20","67454","Haßloch","https://www.meinprospekt.de/filialen/real-de/6"
"real,-","Röntgenstr. 1-3","64846","Groß-Zimmern","https://www.meinprospekt.de/filialen/real-de/6"
"real,-","Frankenthaler Str. 67","67227","Frankenthal","https://www.meinprospekt.de/filialen/real-de/6"
"real,-","Eschollbrücker Str. 44","64295","Darmstadt","https://www.meinprospekt.de/filialen/real-de/6"
"real,-","Robert-Bosch-Str. 15","63303","Dreieich","https://www.meinprospekt.de/filialen/real-de/6"
"real,-","Wingertstr. 39-43","63477","Maintal","https://www.meinprospekt.de/filialen/real-de/6"
"real,-","Mainzer Str. 50","64521","Groß-Gerau","https://www.meinprospekt.de/filialen/real-de/6"
"real,-","Mannheimer Str. 234-236","67657","Kaiserslautern","https://www.meinprospekt.de/filialen/real-de/6"
"real,-","Ginnheimer Str. 18","65760","Eschborn","https://www.meinprospekt.de/filialen/real-de/6"
"real,-","Mainzer Str. 110","65189","Wiesbaden","https://www.meinprospekt.de/filialen/real-de/6"
"real,-","Äppelallee 69","65203","Wiesbaden-Biebrich","https://www.meinprospekt.de/filialen/real-de/6"
"real,-","Robert-Bosch-Str. 1","66424","Homburg","https://www.meinprospekt.de/filialen/real-de/6"
"real,-","Poststr. 1","66450","Bexbach","https://www.meinprospekt.de/filialen/real-de/6"
"real,-","Breslauer Str. 1a","66121","Saarbrücken","https://www.meinprospekt.de/filialen/real-de/6"
"real,-","Fischbachstr. 121","66125","Saarbrücken","https://www.meinprospekt.de/filialen/real-de/6"
"real,-","Carl-Zeiss-Str. 2","66740","Saarlouis","https://www.meinprospekt.de/filialen/real-de/6"
"real,-","Im Schwöllbogen 19","72581","Dettingen an der Ems","https://www.meinprospekt.de/filialen/real-de/7"
"real,-","Eichendorffstr. 51","72622","Nürtingen","https://www.meinprospekt.de/filialen/real-de/7"
"real,-","Bonhoefferstr. 1","73760","Ostfildern","https://www.meinprospekt.de/filialen/real-de/7"
"real,-","Ruhrstr. 5","71332","Waiblingen","https://www.meinprospekt.de/filialen/real-de/7"
"real,-","Plieninger Str. 63d","70794","Filderstadt","https://www.meinprospekt.de/filialen/real-de/7"
"real,-","Wannweiler Str. 77","72138","Kirchentellinsfurt","https://www.meinprospekt.de/filialen/real-de/7"
"real,-","Ohmenhäuser Str. 15","72810","Gomaringen","https://www.meinprospekt.de/filialen/real-de/7"
"real,-","Alte Landstr. 45","72072","Tübingen","https://www.meinprospekt.de/filialen/real-de/7"
"real,-","Röhrer Weg 15+18","71032","Böblingen","https://www.meinprospekt.de/filialen/real-de/7"
"real,-","Weilimdorfer Str. 91","70839","Gerlingen","https://www.meinprospekt.de/filialen/real-de/7"
"real,-","Otto-Lilienthal-Str. 24","71034","Böblingen","https://www.meinprospekt.de/filialen/real-de/7"
"real,-","Lange Str. 24","72336","Balingen","https://www.meinprospekt.de/filialen/real-de/7"
"real,-","Max-Eyth-Str. 6","74366","Kirchheim am Neckar","https://www.meinprospekt.de/filialen/real-de/7"
"real,-","Rudolf-Diesel-Str. 28","78532","Tuttlingen","https://www.meinprospekt.de/filialen/real-de/7"
"real,-","Georg-Fischer-Str. 15","78224","Singen (Hohentwiel)","https://www.meinprospekt.de/filialen/real-de/7"
"real,-","Heilbergstr. 3","71131","Jettingen","https://www.meinprospekt.de/filialen/real-de/7"
"real,-","Hahnerstr. 1","72160","Horb am Neckar","https://www.meinprospekt.de/filialen/real-de/7"
"real,-","Friedrich-List-Str. 10","78727","Oberndorf am Neckar","https://www.meinprospekt.de/filialen/real-de/7"
"real,-","Neuer Markt 1","78052","Villingen-Schwenningen","https://www.meinprospekt.de/filialen/real-de/7"
"real,-","Bregstr. 30","78166","Donaueschingen","https://www.meinprospekt.de/filialen/real-de/7"
"real,-","Stuttgarter Str. 10","76646","Bruchsal","https://www.meinprospekt.de/filialen/real-de/7"
"real,-","Durlacher Allee 111","76137","Karlsruhe","https://www.meinprospekt.de/filialen/real-de/7"
"real,-","Huttenkreuzstr. 8","76275","Ettlingen","https://www.meinprospekt.de/filialen/real-de/7"
"real,-","Zehntwiesenstr. 47","76275","Ettlingen","https://www.meinprospekt.de/filialen/real-de/7"
"real,-","Ortenbergstr. 8","76135","Karlsruhe","https://www.meinprospekt.de/filialen/real-de/7"
"real,-","Rauentaler Str. 65","76437","Rastatt","https://www.meinprospekt.de/filialen/real-de/7"
"real,-","Industriestr. 22","76547","Sinzheim","https://www.meinprospekt.de/filialen/real-de/7"
"real,-","Vimbucher Str. 75","77815","Bühl","https://www.meinprospekt.de/filialen/real-de/7"
"real,-","Mainzer Str. 6","76726","Germersheim","https://www.meinprospekt.de/filialen/real-de/7"
"real,-","Gundelfinger Str. 4","79108","Freiburg im Breisgau","https://www.meinprospekt.de/filialen/real-de/7"
"real,-","Offenburger Str. 11","77933","Lahr/Schwarzwald","https://www.meinprospekt.de/filialen/real-de/7"
"real,-","Dammühlstr. 11","76829","Landau in der Pfalz","https://www.meinprospekt.de/filialen/real-de/7"
"real,-","St. Georgener Str. 2","79111","Freiburg im Breisgau","https://www.meinprospekt.de/filialen/real-de/7"
"real,-","Margot-Kalinke-Str. 4","80939","München","https://www.meinprospekt.de/filialen/real-de/8"
"real,-","Gutenbergstr. 2","85354","Freising","https://www.meinprospekt.de/filialen/real-de/8"
"real,-","Kaltenmoserstr. 28","82362","Weilheim in Oberbayern","https://www.meinprospekt.de/filialen/real-de/8"
"real,-","Kufsteiner Str. 124","83026","Rosenheim","https://www.meinprospekt.de/filialen/real-de/8"
"real,-","Föllstr. 20","86343","Königsbrunn","https://www.meinprospekt.de/filialen/real-de/8"
"real,-","Reichenberger Str. 59","86161","Augsburg","https://www.meinprospekt.de/filialen/real-de/8"
"real,-","Alte Regensburger Str. 21","84030","Ergolding","https://www.meinprospekt.de/filialen/real-de/8"
"real,-","Haslacher Feld 5","83278","Traunstein","https://www.meinprospekt.de/filialen/real-de/8"
"real,-","Franz-Stelzenberger-Str. 1","84347","Pfarrkirchen","https://www.meinprospekt.de/filialen/real-de/8"
"real,-","Fraunhoferstr. 8","87700","Memmingen","https://www.meinprospekt.de/filialen/real-de/8"
"real,-","Im Allmey 1","87435","Kempten (Allgäu)","https://www.meinprospekt.de/filialen/real-de/8"
"real,-","Nattheimer Str. 100","89520","Heidenheim an der Brenz","https://www.meinprospekt.de/filialen/real-de/8"
"real,-","Franz-Beer-Str. 108","88250","Weingarten","https://www.meinprospekt.de/filialen/real-de/8"
"real,-","Hölkeringer Str. 20","93080","Pentling","https://www.meinprospekt.de/filialen/real-de/9"
"real,-","Donaustaufer Str. 128","93059","Regensburg","https://www.meinprospekt.de/filialen/real-de/9"
"real,-","Ittlinger Str. 224","94315","Straubing","https://www.meinprospekt.de/filialen/real-de/9"
"real,-","Dreichlingerstr. 1","92318","Neumarkt in der Oberpfalz","https://www.meinprospekt.de/filialen/real-de/9"
"real,-","Graflinger Str. 121","94469","Deggendorf","https://www.meinprospekt.de/filialen/real-de/9"
"real,-","Passauer Str. 56","94060","Pocking","https://www.meinprospekt.de/filialen/real-de/9"
"real,-","Am Falbenholzweg 15","91126","Schwabach","https://www.meinprospekt.de/filialen/real-de/9"
"real,-","Holzmannstr. 52","94036","Passau","https://www.meinprospekt.de/filialen/real-de/9"
"real,-","Fuggerstr. 4","92224","Amberg","https://www.meinprospekt.de/filialen/real-de/9"
"real,-","Residenzstr. 2-4","91522","Ansbach","https://www.meinprospekt.de/filialen/real-de/9"
"real,-","Virnsberger Str. 2-4","90431","Nürnberg","https://www.meinprospekt.de/filialen/real-de/9"
"real,-","Äußere Bayreuther Str. 80","90491","Nürnberg","https://www.meinprospekt.de/filialen/real-de/9"
"real,-","Alte Langdorfer Str. 15","94227","Zwiesel","https://www.meinprospekt.de/filialen/real-de/9"
"real,-","Karl-Eibl-Str. 50a","91413","Neustadt an der Aisch","https://www.meinprospekt.de/filialen/real-de/9"
"real,-","Neustädter Str. 22","92637","Weiden in der Oberpfalz","https://www.meinprospekt.de/filialen/real-de/9"
"real,-","Karl-von-Linde-Str. 6","95447","Bayreuth","https://www.meinprospekt.de/filialen/real-de/9"
"real,-","Riedingerstr. 21","95448","Bayreuth","https://www.meinprospekt.de/filialen/real-de/9"
"real,-","Kirschäckerstr. 11","96052","Bamberg","https://www.meinprospekt.de/filialen/real-de/9"
"real,-","Emil-Kemmer-Str. 2","96103","Hallstadt","https://www.meinprospekt.de/filialen/real-de/9"
"real,-","Albert-Ruckdeschel-Str. 16","95326","Kulmbach","https://www.meinprospekt.de/filialen/real-de/9"
"real,-","Nürnberger Str. 12","97076","Würzburg","https://www.meinprospekt.de/filialen/real-de/9"
"real,-","Industriestr. 7","97076","Würzburg","https://www.meinprospekt.de/filialen/real-de/9"
"real,-","Weissenbrunner Str. 20a","96317","Kronach","https://www.meinprospekt.de/filialen/real-de/9"
"real,-","Coburger Str. 2","96487","Dörfles-Esbach","https://www.meinprospekt.de/filialen/real-de/9"
"real,-","Landhausallee 7","99425","Weimar","https://www.meinprospekt.de/filialen/real-de/9"
"real,-","Gothaer Str. 22","99094","Erfurt","https://www.meinprospekt.de/filialen/real-de/9"
"real,-","Hermsdorfer Str. 4","99099","Erfurt-Daberstedt","https://www.meinprospekt.de/filialen/real-de/9"
"real,-","Schubertstr. 20","99867","Gotha","https://www.meinprospekt.de/filialen/real-de/9"
