"nameCompany","streetAddress","postalCode","addressLocality"
"Total","Hofer Str. 38","07926","Gefell"
"Total","Hofer Str. 38","07926","Gefell"
"Total","Klingenthaler Str. 3","08261","Schoeneck"
"Total","Klingenthaler Str. 3","08261","Schoeneck"
"Total","Friedrich-Eckardt-Str. 2","08529","Plauen"
"Total","Friedrich-Eckardt-Str. 2","08529","Plauen"
"Total","Zur Sternkoppel 5","08228","Rodewisch"
"Total","Zur Sternkoppel 5","08228","Rodewisch"
"Total","Innere Herlasgruener Str. 17","08233","Treuen"
"Total","Innere Herlasgruener Str. 17","08233","Treuen"
"Total","Lengenfelder Str. 4A","08228","Rodewisch"
"Total","Lengenfelder Str. 4A","08228","Rodewisch"
"Total","Gewerbering 9","08468","Heinsdorfergrund"
"Total","Gewerbering 9","08468","Heinsdorfergrund"
"Total","Kronacherstr. 9","07333","Unterwellenborn"
"Total","Kronacherstr. 9","07333","Unterwellenborn"
"Total","Rudolstaedter Str. 13","07318","Saalfeld"
"Total","Rudolstaedter Str. 13","07318","Saalfeld"
"Total","Zeulenrodaer Str. 31","07973","Greiz"
"Total","Zeulenrodaer Str. 31","07973","Greiz"
"Total","Neustaedter Str. 162","07381","Poessneck"
"Total","Neustaedter Str. 162","07381","Poessneck"
"Total","Loessnitzer Str. 87","08280","Aue"
"Total","Loessnitzer Str. 87","08280","Aue"
"Total","Hartensteiner Str. 11","08297","Zwoenitz"
"Total","Hartensteiner Str. 11","08297","Zwoenitz"
"Total","Inn.Zwickauer Str. 29","08062","Zwickau"
"Total","Inn.Zwickauer Str. 29","08062","Zwickau"
"Total","Dresdner Str. 5","09456","Annaberg-Buchholz"
"Total","Dresdner Str. 5","09456","Annaberg-Buchholz"
"Total","Arno-Schmidt-Str. 28A","08134","Haertensdorf"
"Total","Arno-Schmidt-Str. 28A","08134","Haertensdorf"
"Total","Reichenbacher Str. 115","08056","Zwickau"
"Total","Reichenbacher Str. 115","08056","Zwickau"
"Total","Aeussere Dresdner Straﬂe","08066","Zwickau"
"Total","Aeussere Dresdner Straﬂe","08066","Zwickau"
"Total","Oberwuerschnitzer Str. 8/10","09376","Oelsnitz/Erzgeb.."
"Total","Oberwuerschnitzer Str. 8/10","09376","Oelsnitz/Erzgeb.."
"Total","Fritz-Reuter-Str. 21","09423","Gelenau"
"Total","Fritz-Reuter-Str. 21","09423","Gelenau"
"Total","Aeuss.Wolkensteiner Str. 3","09496","Marienberg"
"Total","Aeuss.Wolkensteiner Str. 3","09496","Marienberg"
"Total","Hohensteiner Str. 44","09385","Lugau"
"Total","Hohensteiner Str. 44","09385","Lugau"
"Total","Werdauer Str. 35","08451","Crimmitschau"
"Total","Werdauer Str. 35","08451","Crimmitschau"
"Total","Heeresbergstr. 3","07549","Gera"
"Total","Heeresbergstr. 3","07549","Gera"
"Total","Obere Hauptstr. 44","09235","Burkhardtsdorf"
"Total","Obere Hauptstr. 44","09235","Burkhardtsdorf"
"Total","Industrieweg 2","08393","Meerane"
"Total","Industrieweg 2","08393","Meerane"
"Total","Goeschwitzer Str. 1","07745","Jena"
"Total","Goeschwitzer Str. 1","07745","Jena"
"Total","Bab 4 / Altenburger Land-Sued","04626","Schmoelln Ot Weissbach"
"Total","Bab 4 / Altenburger Land-Sued","04626","Schmoelln Ot Weissbach"
"Total","Waldenburger Str. F 175","08371","Glauchau"
"Total","Waldenburger Str. F 175","08371","Glauchau"
"Total","Dresdner Str. 106","09337","Hohenstein-Ernstthal"
"Total","Dresdner Str. 106","09337","Hohenstein-Ernstthal"
"Total","Blumenauer Str. 9","09526","Olbernhau"
"Total","Blumenauer Str. 9","09526","Olbernhau"
"Total","Eisenberger Straﬂe","07629","Hermsdorf"
"Total","Eisenberger Straﬂe","07629","Hermsdorf"
"Total","Leibnizstr. 74","07548","Gera"
"Total","Leibnizstr. 74","07548","Gera"
"Total","Waldenburger Str. 115","08371","Glauchau"
"Total","Waldenburger Str. 115","08371","Glauchau"
"Total","Floehatalstr. 2A","09509","Pockau-Lengefeld"
"Total","Floehatalstr. 2A","09509","Pockau-Lengefeld"
"Total","Stollberger Str. 178","09122","Chemnitz"
"Total","Stollberger Str. 178","09122","Chemnitz"
"Total","August-Bebel-Str. 31","07743","Jena"
"Total","August-Bebel-Str. 31","07743","Jena"
"Total","Wiesenstr. 4","07749","Jena"
"Total","Wiesenstr. 4","07749","Jena"
"Total","Ronneburger Str. 108","04626","Schmoelln"
"Total","Ronneburger Str. 108","04626","Schmoelln"
"Total","Naumburger Str. 57 a","07743","Jena"
"Total","Naumburger Str. 57 a","07743","Jena"
"Total","Zschopauer Str. 319","09127","Chemnitz"
"Total","Zschopauer Str. 319","09127","Chemnitz"
"Total","Hohensteiner Str. 72","09212","Limbach-Oberfrohna"
"Total","Hohensteiner Str. 72","09212","Limbach-Oberfrohna"
"Total","Limbacher Str. 218-220","09116","Chemnitz"
"Total","Limbacher Str. 218-220","09116","Chemnitz"
"Total","Limbacher Str. 58","09113","Chemnitz"
"Total","Limbacher Str. 58","09113","Chemnitz"
"Total","Obere Donitzschkau 2","07607","Eisenberg"
"Total","Obere Donitzschkau 2","07607","Eisenberg"
"Total","Chemnitzer Str. 38b","09232","Hartmannsdorf"
"Total","Chemnitzer Str. 38b","09232","Hartmannsdorf"
"Total","Untere Schlossstr. 37","09573","Augustusburg"
"Total","Untere Schlossstr. 37","09573","Augustusburg"
"","AUTOHOF IM HEIDEGRUND-SUED","06721","OSTERFELD"
"","AUTOHOF IM HEIDEGRUND-SUED","06721","OSTERFELD"
"Total","Bab 9 Ausfahrt Droyssig/ 21B","06721","Osterfeld"
"Total","Bab 9 Ausfahrt Droyssig/ 21B","06721","Osterfeld"
"Total","Freiberger Str. 72","09569","Oederan"
"Total","Freiberger Str. 72","09569","Oederan"
"Total","Friedensstraﬂe/Schwarzer Weg","06712","Zeitz"
"Total","Friedensstraﬂe/Schwarzer Weg","06712","Zeitz"
"Total","Aeussere Chemnitzer Str. 61","09669","Frankenberg"
"Total","Aeussere Chemnitzer Str. 61","09669","Frankenberg"
"Total","Leipziger Str. 87","04600","Altenburg"
"Total","Leipziger Str. 87","04600","Altenburg"
"Total","Kleefeldplatz 1A","06712","Zeitz"
"Total","Kleefeldplatz 1A","06712","Zeitz"
"Total","Langenauer Str. 1","09618","Brand-Erbisdorf"
"Total","Langenauer Str. 1","09618","Brand-Erbisdorf"
"Total","Peniger Str. 40","04654","Frohburg"
"Total","Peniger Str. 40","04654","Frohburg"
"Total","Chemnitzer Str. 28F","09648","Mittweida"
"Total","Chemnitzer Str. 28F","09648","Mittweida"
"Total","Kleinschirmaer Str. 1","09599","Freiberg"
"Total","Kleinschirmaer Str. 1","09599","Freiberg"
"Total","Sonnenstr. 7","09648","Mittweida"
"Total","Sonnenstr. 7","09648","Mittweida"
"Total","Frankenberger Str. 56","09661","Hainichen"
"Total","Frankenberger Str. 56","09661","Hainichen"
"Total","An Der B 87","06628","Bad Koesen"
"Total","An Der B 87","06628","Bad Koesen"
"Total","Peniger Str. 1B","04643","Geithain"
"Total","Peniger Str. 1B","04643","Geithain"
"Total","Am Wilhelmsschacht 34","04552","Borna"
"Total","Am Wilhelmsschacht 34","04552","Borna"
"Total","Leipziger Str. 2F","04552","Borna"
"Total","Leipziger Str. 2F","04552","Borna"
"Total","Max-Planck-Str. 3","06667","Weiﬂenfels"
"Total","Max-Planck-Str. 3","06667","Weiﬂenfels"
"Total","Naumburger Str. 26","06667","Weissenfels"
"Total","Naumburger Str. 26","06667","Weissenfels"
"Total","Reichersdorfer Str. 9","04651","Bad Lausick"
"Total","Reichersdorfer Str. 9","04651","Bad Lausick"
"Total","Merseburger Str. 31B","06632","Freyburg"
"Total","Merseburger Str. 31B","06632","Freyburg"
"Total","Toepelstraﬂe","04746","Hartha"
"Total","Toepelstraﬂe","04746","Hartha"
"Total","Vogelstange 17","04741","Roﬂwein"
"Total","Vogelstange 17","04741","Roﬂwein"
"Total","Dresdner Str. 5","01734","Karsdorf"
"Total","Dresdner Str. 5","01734","Karsdorf"
"Total","Fabrikstr. 17","01683","Nossen"
"Total","Fabrikstr. 17","01683","Nossen"
"Total","Baeumchen 15","06667","Weissenfels"
"Total","Baeumchen 15","06667","Weissenfels"
"Total","Muechelner Str. 04","06242","Braunsbedra"
"Total","Muechelner Str. 04","06242","Braunsbedra"
"Total","Dresdner Str. 30O","04720","Doebeln"
"Total","Dresdner Str. 30O","04720","Doebeln"
"Total","Poisentalstr. 18","01705","Freital"
"Total","Poisentalstr. 18","01705","Freital"
"Total","An Der Schmuecke 10","06577","Heldrungen"
"Total","An Der Schmuecke 10","06577","Heldrungen"
"Total","Heiterer Blick 2","04720","Grossweitzschen"
"Total","Heiterer Blick 2","04720","Grossweitzschen"
"Total","Umgehungsstr. 18","01723","Wilsdruff"
"Total","Umgehungsstr. 18","01723","Wilsdruff"
"Total","Bornaische Str. 227","04279","Leipzig"
"Total","Bornaische Str. 227","04279","Leipzig"
"Total","Prager Str. 420","04288","Leipzig"
"Total","Prager Str. 420","04288","Leipzig"
"Total","Kesselsdorfer Str. 214","01169","Dresden"
"Total","Kesselsdorfer Str. 214","01169","Dresden"
"Total","Wuerzburger Str. 26","01187","Dresden"
"Total","Wuerzburger Str. 26","01187","Dresden"
"Total","Dresdner Str. 103a","01809","Heidenau"
"Total","Dresdner Str. 103a","01809","Heidenau"
"Total","Langer Weg 17","01257","Dresden"
"Total","Langer Weg 17","01257","Dresden"
"Total","Arno-Nitzsche Str. 32","04277","Leipzig"
"Total","Arno-Nitzsche Str. 32","04277","Leipzig"
"Total","Thomas-Muentzer-Str. 5","06217","Merseburg"
"Total","Thomas-Muentzer-Str. 5","06217","Merseburg"
"Total","Prager Str. 179","04299","Leipzig"
"Total","Prager Str. 179","04299","Leipzig"
"Total","Wiener Str. 39","01069","Dresden"
"Total","Wiener Str. 39","01069","Dresden"
"Total","Zschochersche Str. 84","04229","Leipzig"
"Total","Zschochersche Str. 84","04229","Leipzig"
"Total","Bodenbacher Str. 64","01277","Dresden"
"Total","Bodenbacher Str. 64","01277","Dresden"
"Total","Hamburger Str. 44","01067","Dresden"
"Total","Hamburger Str. 44","01067","Dresden"
"Total","Lohmener Str. 12C","01796","Pirna"
"Total","Lohmener Str. 12C","01796","Pirna"
"Total","Luetzner Str. 7B","04177","Leipzig"
"Total","Luetzner Str. 7B","04177","Leipzig"
"Total","Schomburgkstr. 8","04179","Leipzig"
"Total","Schomburgkstr. 8","04179","Leipzig"
"Total","Sangerhaeuser Straﬂe","06556","Artern"
"Total","Sangerhaeuser Straﬂe","06556","Artern"
"Total","Dresdner Str. 49","01156","Dresden"
"Total","Dresdner Str. 49","01156","Dresden"
"Total","Sandberg 30","04178","Leipzig/R¸ckmarsdorf"
"Total","Sandberg 30","04178","Leipzig/R¸ckmarsdorf"
"Total","Querfurter Str. 4A","06217","Merseburg"
"Total","Querfurter Str. 4A","06217","Merseburg"
"Total","Hueblerstr. 36","01309","Dresden"
"Total","Hueblerstr. 36","01309","Dresden"
"Total","Ludwig-Erhard-Str. 36","04103","Leipzig"
"Total","Ludwig-Erhard-Str. 36","04103","Leipzig"
"Total","Schuetzenstr. 1","01662","Meissen"
"Total","Schuetzenstr. 1","01662","Meissen"
"Total","Bautzner Str. 72","01099","Dresden"
"Total","Bautzner Str. 72","01099","Dresden"
"Total","Weintraubenstr. 31","01445","Radebeul"
"Total","Weintraubenstr. 31","01445","Radebeul"
"Total","Riesaer Str. 74","04328","Leipzig"
"Total","Riesaer Str. 74","04328","Leipzig"
"Total","Meissner Str. 41","01623","Lommatzsch"
"Total","Meissner Str. 41","01623","Lommatzsch"
"Total","Rackwitzer Str. 26","04347","Leipzig"
"Total","Rackwitzer Str. 26","04347","Leipzig"
"Total","Grundstr. 99","01326","Dresden"
"Total","Grundstr. 99","01326","Dresden"
"Total","Koenigsbruecker Str. 104","01099","Dresden"
"Total","Koenigsbruecker Str. 104","01099","Dresden"
"Total","Lindenthaler Str. 61","04155","Leipzig"
"Total","Lindenthaler Str. 61","04155","Leipzig"
"Total","Max-Liebermann-Str. 11","04159","Leipzig"
"Total","Max-Liebermann-Str. 11","04159","Leipzig"
"Total","Torgauer Str. 279","04347","Leipzig"
"Total","Torgauer Str. 279","04347","Leipzig"
"Total","Dresdener Str. 95","04758","Oschatz"
"Total","Dresdener Str. 95","04758","Oschatz"
"Total","Autohof A 14 Poststr. 3","04158","Leipzig"
"Total","Autohof A 14 Poststr. 3","04158","Leipzig"
"Total","Merseburger Str. 359","06132","Halle"
"Total","Merseburger Str. 359","06132","Halle"
"Total","Autohof Am Mittelfeld 5","06526","Sangerhausen-Oberroeblingen"
"Total","Autohof Am Mittelfeld 5","06526","Sangerhausen-Oberroeblingen"
"Total","Koenigsbruecker Landstr. 265","01108","Dresden"
"Total","Koenigsbruecker Landstr. 265","01108","Dresden"
"Total","Leipziger Str. 12","01589","Riesa"
"Total","Leipziger Str. 12","01589","Riesa"
"Total","Nordring 4","06536","Suedharz"
"Total","Nordring 4","06536","Suedharz"
"Total","Platz Drei Lilien 5","06124","Halle"
"Total","Platz Drei Lilien 5","06124","Halle"
"Total","An Der Magistrale 2","06124","Halle"
"Total","An Der Magistrale 2","06124","Halle"
"Total","Delitzscher Str. 36","06112","Halle"
"Total","Delitzscher Str. 36","06112","Halle"
"Total","Kupferhuette 7","06526","Sangerhausen"
"Total","Kupferhuette 7","06526","Sangerhausen"
"Total","W.-Kaulisch-Str. 49","01844","Neustadt"
"Total","W.-Kaulisch-Str. 49","01844","Neustadt"
"Total","Kloetzer Str. 12A","01587","Riesa"
"Total","Kloetzer Str. 12A","01587","Riesa"
"Total","Lauchhammerstr. 12","01591","Riesa"
"Total","Lauchhammerstr. 12","01591","Riesa"
"Total","Dresdner Str. 53","01458","Ottendorf-Okrilla"
"Total","Dresdner Str. 53","01458","Ottendorf-Okrilla"
"Total","Hallesche Str. 151","06295","Lutherstadt Eisleben"
"Total","Hallesche Str. 151","06295","Lutherstadt Eisleben"
"Total","Roedgener Str. 3","04838","Eilenburg"
"Total","Roedgener Str. 3","04838","Eilenburg"
"Total","Kasseler Str. 49","06295","Eisleben"
"Total","Kasseler Str. 49","06295","Eisleben"
"Total","Trothaer Str. 40","06118","Halle"
"Total","Trothaer Str. 40","06118","Halle"
"Total","Am Autohof 1","06188","Landsberg"
"Total","Am Autohof 1","06188","Landsberg"
"Total","Duebener Str. 133","04509","Delitzsch"
"Total","Duebener Str. 133","04509","Delitzsch"
"Total","Hauptstr. 36","01877","Rammenau"
"Total","Hauptstr. 36","01877","Rammenau"
"Total","Bautzener Str. 121","01877","Bischofswerda"
"Total","Bautzener Str. 121","01877","Bischofswerda"
"Total","Kamenzer Str. 27","01561","Thiendorf"
"Total","Kamenzer Str. 27","01561","Thiendorf"
"Total","An Der Aeuss. Weberstr. 87","02763","Zittau"
"Total","An Der Aeuss. Weberstr. 87","02763","Zittau"
"Total","Koeckern Ost / Bab 9","06794","Sandersdorf-Brehna"
"Total","Koeckern Ost / Bab 9","06794","Sandersdorf-Brehna"
"Total","Eilenburger Straﬂe","04849","Bad Dueben"
"Total","Eilenburger Straﬂe","04849","Bad Dueben"
"Total","Bismarckstr. 39","06749","Bitterfeld-Wolfen"
"Total","Bismarckstr. 39","06749","Bitterfeld-Wolfen"
"Total","Ascherslebener Str. 60","06333","Hettstedt"
"Total","Ascherslebener Str. 60","06333","Hettstedt"
"Total","Elsterwerdaer Str. 35","01990","Ortrand"
"Total","Elsterwerdaer Str. 35","01990","Ortrand"
"Total","Nebelschuetzer Str. 4","01917","Kamenz"
"Total","Nebelschuetzer Str. 4","01917","Kamenz"
"Total","Siedlungsstr. 19","04910","Elsterwerda"
"Total","Siedlungsstr. 19","04910","Elsterwerda"
"Total","Weissenberger Str. 10","02708","Loebau"
"Total","Weissenberger Str. 10","02708","Loebau"
"Total","Rothsteinslache 2","04895","Falkenberg"
"Total","Rothsteinslache 2","04895","Falkenberg"
"Total","Ernst-Thaelmann-Str. 1","02994","Bernsdorf"
"Total","Ernst-Thaelmann-Str. 1","02994","Bernsdorf"
"Total","Hoymer Chaussee 108","06449","Aschersleben"
"Total","Hoymer Chaussee 108","06449","Aschersleben"
"Total","Merziener Str. 20","06366","Kˆthen"
"Total","Merziener Str. 20","06366","Kˆthen"
"Total","Dessauer Straﬂe","06366","Koethen"
"Total","Dessauer Straﬂe","06366","Koethen"
"Total","Kemberger Str. 9","06905","Bad Schmiedeberg"
"Total","Kemberger Str. 9","06905","Bad Schmiedeberg"
"Total","Schipkauer Str. 20","01987","Schwarzheide"
"Total","Schipkauer Str. 20","01987","Schwarzheide"
"Total","Am Platz Der Jugend 21","06406","Bernburg"
"Total","Am Platz Der Jugend 21","06406","Bernburg"
"Total","Westerhaeuser Straﬂe","06484","Quedlinburg"
"Total","Westerhaeuser Straﬂe","06484","Quedlinburg"
"Total","Halberstaedter Str. 87","06484","Quedlinburg"
"Total","Halberstaedter Str. 87","06484","Quedlinburg"
"Total","An Der Landstr. 73","06429","Nienburg"
"Total","An Der Landstr. 73","06429","Nienburg"
"Total","Briesker Straﬂe","01968","Senftenberg Ot Brieske"
"Total","Briesker Straﬂe","01968","Senftenberg Ot Brieske"
"","USEDOMER str. 1","01969","SENFTENBERG"
"","USEDOMER str. 1","01969","SENFTENBERG"
"Total","Usedomer Str. 1","01968","Senftenberg"
"Total","Usedomer Str. 1","01968","Senftenberg"
"","FRANKFURTER straﬂe14","04916","HERZBERG"
"","FRANKFURTER straﬂe14","04916","HERZBERG"
"Total","Bahnhofstr. 68-72","02826","Goerlitz"
"Total","Bahnhofstr. 68-72","02826","Goerlitz"
"Total","Albrechtstr. 95","06844","Dessau"
"Total","Albrechtstr. 95","06844","Dessau"
"Total","Brandiserstr. 1","04916","Schoenewalde"
"Total","Brandiserstr. 1","04916","Schoenewalde"
"Total","Bab Freienhufener Eck-Ost/A 13","01994","Drochow"
"Total","Bab Freienhufener Eck-Ost/A 13","01994","Drochow"
"Total","Freienhufener Eck West/ A 13","01994","Drochow"
"Total","Freienhufener Eck West/ A 13","01994","Drochow"
"Total","Sonnewalder Str. 91B","03238","Finsterwalde"
"Total","Sonnewalder Str. 91B","03238","Finsterwalde"
"Total","Rosa-Luxemburg-Str. 131","06917","Jessen"
"Total","Rosa-Luxemburg-Str. 131","06917","Jessen"
"Total","Goerlitzer Str. 36","02906","Niesky"
"Total","Goerlitzer Str. 36","02906","Niesky"
"Total","Dessauer Str. 13","06886","Wittenberg"
"Total","Dessauer Str. 13","06886","Wittenberg"
"Total","Sandbreite 1","06869","Coswig"
"Total","Sandbreite 1","06869","Coswig"
"Total","Berliner Ch. 70","06886","Wittenberg"
"Total","Berliner Ch. 70","06886","Wittenberg"
"Total","Spremberger Str. 30","03103","Neupetershain"
"Total","Spremberger Str. 30","03103","Neupetershain"
"Total","Otto-V.-Guerickestr. 18","03130","Spremberg"
"Total","Otto-V.-Guerickestr. 18","03130","Spremberg"
"Total","Muskauer Str. 32","03159","Dˆbern"
"Total","Muskauer Str. 32","03159","Dˆbern"
"Total","Berliner Str. 23","03226","Vetschau/Spreewald"
"Total","Berliner Str. 23","03226","Vetschau/Spreewald"
"Total","Boblitzer Chausseestr. 2","03222","Luebbenau/Ot Boblitz"
"Total","Boblitzer Chausseestr. 2","03222","Luebbenau/Ot Boblitz"
"Total","Kolkwitzer Str. 66A","03046","Cottbus"
"Total","Kolkwitzer Str. 66A","03046","Cottbus"
"Total","Berliner Str. 135","03046","Cottbus"
"Total","Berliner Str. 135","03046","Cottbus"
"Total","Schwerinstr. 9-12","03149","Forst"
"Total","Schwerinstr. 9-12","03149","Forst"
"Total","Cottbuser Str. 12A","03185","Peitz"
"Total","Cottbuser Str. 12A","03185","Peitz"
"Total","Jueterboger Ch. 8","15936","Dahme"
"Total","Jueterboger Ch. 8","15936","Dahme"
"Total","Berliner Str. 1","15926","Luckau"
"Total","Berliner Str. 1","15926","Luckau"
"Total","Luckenwalder Str. 19","14913","Jueterbog"
"Total","Luckenwalder Str. 19","14913","Jueterbog"
"Total","Leipziger Str. 152","14929","Treuenbrietzen"
"Total","Leipziger Str. 152","14929","Treuenbrietzen"
"Total","An Der B 96","15938","Golssen"
"Total","An Der B 96","15938","Golssen"
"Total","Brandenburger Straﬂe","14806","Bad Belzig"
"Total","Brandenburger Straﬂe","14806","Bad Belzig"
"Total","Salzufler Allee 40","14943","Luckenwalde"
"Total","Salzufler Allee 40","14943","Luckenwalde"
"Total","Frankfurter Str. 37","15907","Luebben"
"Total","Frankfurter Str. 37","15907","Luebben"
"Total","Luckenwalder Str. 29A","15837","Baruth"
"Total","Luckenwalder Str. 29A","15837","Baruth"
"Total","Bab Koepernitz Buckauthal-Sued/ 2","14793","Ziesar"
"Total","Bab Koepernitz Buckauthal-Sued/ 2","14793","Ziesar"
"Total","Berliner Str. 107","14547","Beelitz"
"Total","Berliner Str. 107","14547","Beelitz"
"Total","Berliner Tor 2","14959","Trebbin"
"Total","Berliner Tor 2","14959","Trebbin"
"Total","Kurfuerstenstr. 5","14797","Kloster Lehnin"
"Total","Kurfuerstenstr. 5","14797","Kloster Lehnin"
"Total","Bab Sued/A 10","14552","Michendorf"
"Total","Bab Sued/A 10","14552","Michendorf"
"Total","Bab Nord/A 10","14552","Michendorf"
"Total","Bab Nord/A 10","14552","Michendorf"
"Total","Wilhelmsdorfer Landstr. 36","14776","Brandenburg an der Havel"
"Total","Wilhelmsdorfer Landstr. 36","14776","Brandenburg an der Havel"
"Total","Brandenburgische Str. 3","14974","Ludwigsfelde"
"Total","Brandenburgische Str. 3","14974","Ludwigsfelde"
"Total","Plauer Landstr. 3","14772","Brandenburg"
"Total","Plauer Landstr. 3","14772","Brandenburg"
"Total","Friedrich-Franz-Str. 2","14770","Brandenburg"
"Total","Friedrich-Franz-Str. 2","14770","Brandenburg"
"Total","Berliner Ch.","15749","Mittenwalde"
"Total","Berliner Ch.","15749","Mittenwalde"
"Total","Autohof Bab 10 /B 1","14542","Ploetzin"
"Total","Autohof Bab 10 /B 1","14542","Ploetzin"
"Total","Pirschheide 1","14471","Potsdam"
"Total","Pirschheide 1","14471","Potsdam"
"Total","Karl-Liebknecht-Str. 155","15711","Kˆnigs Wusterhausen"
"Total","Karl-Liebknecht-Str. 155","15711","Kˆnigs Wusterhausen"
"Total","Zossener Damm 19","15827","Blankenfelde"
"Total","Zossener Damm 19","15827","Blankenfelde"
"Total","Horstweg 53C","14478","Potsdam"
"Total","Horstweg 53C","14478","Potsdam"
"Total","Grossbeerenstr. 137","14482","Potsdam"
"Total","Grossbeerenstr. 137","14482","Potsdam"
"Total","Rudolf-Breitscheid-Str. 9B","15848","Beeskow"
"Total","Rudolf-Breitscheid-Str. 9B","15848","Beeskow"
"Total","Friederikenhofer Str. 1","14979","Grossbeeren"
"Total","Friederikenhofer Str. 1","14979","Grossbeeren"
"Total","Karl-Marx-Str. 46","14532","Kleinmachnow"
"Total","Karl-Marx-Str. 46","14532","Kleinmachnow"
"Total","Elly-Beinhorn-Ring 2A","12529","Schoenefeld"
"Total","Elly-Beinhorn-Ring 2A","12529","Schoenefeld"
"Total","Teltower Damm 173","14167","Berlin-Zehlendorf"
"Total","Teltower Damm 173","14167","Berlin-Zehlendorf"
"Total","An Der B 102 Nr. 2","14727","Premnitz"
"Total","An Der B 102 Nr. 2","14727","Premnitz"
"Total","Hildburghauser Str. 222","12209","Berlin"
"Total","Hildburghauser Str. 222","12209","Berlin"
"Total","Berliner Str 15A","14169","Berlin"
"Total","Berliner Str 15A","14169","Berlin"
"Total","Argentinische Allee 47","14163","Berlin"
"Total","Argentinische Allee 47","14163","Berlin"
"Total","Adlergestell 623","12527","Berlin"
"Total","Adlergestell 623","12527","Berlin"
"Total","Neukoellner Str. 294","12357","Berlin"
"Total","Neukoellner Str. 294","12357","Berlin"
"Total","Adlergestell 543","12527","Berlin"
"Total","Adlergestell 543","12527","Berlin"
"Total","Faehrstr. 35","15890","Eisenhuettenstadt"
"Total","Faehrstr. 35","15890","Eisenhuettenstadt"
"Total","Arnulfstr. 98-99","12105","Berlin"
"Total","Arnulfstr. 98-99","12105","Berlin"
"Total","Spaethstr. 158","12359","Berlin"
"Total","Spaethstr. 158","12359","Berlin"
"Total","Britzer Damm 60-62","12347","Berlin"
"Total","Britzer Damm 60-62","12347","Berlin"
"Total","Adlergestell 179","12489","Berlin"
"Total","Adlergestell 179","12489","Berlin"
"Total","Schoeneberger Str. 17","12103","Berlin"
"Total","Schoeneberger Str. 17","12103","Berlin"
"Total","Milower Landstr. 35B","14712","Rathenow"
"Total","Milower Landstr. 35B","14712","Rathenow"
"Total","Genthiner Str. 59","14712","Rathenow"
"Total","Genthiner Str. 59","14712","Rathenow"
"Total","Michael-Brueckner-Str. 26-31","12439","Berlin"
"Total","Michael-Brueckner-Str. 26-31","12439","Berlin"
"Total","Oberspreestr. 138","12555","Berlin"
"Total","Oberspreestr. 138","12555","Berlin"
"Total","Berliner Str. 23","14712","Rathenow"
"Total","Berliner Str. 23","14712","Rathenow"
"Total","Artilleriepark 5","14624","Dallgow"
"Total","Artilleriepark 5","14624","Dallgow"
"Total","Heerstr. 324","13593","Berlin"
"Total","Heerstr. 324","13593","Berlin"
"Total","Heerstr. 35-37","14055","Berlin"
"Total","Heerstr. 35-37","14055","Berlin"
"Total","Goetelstr. 132-140","13595","Berlin"
"Total","Goetelstr. 132-140","13595","Berlin"
"Total","Am Friedensplatz","15537","Erkner"
"Total","Am Friedensplatz","15537","Erkner"
"Total","Fuerstenwalder Damm 418","12587","Berlin"
"Total","Fuerstenwalder Damm 418","12587","Berlin"
"Total","Tempelhofer Ufer 33-35","10963","Berlin"
"Total","Tempelhofer Ufer 33-35","10963","Berlin"
"Total","Bulgarische Str. 9","12435","Berlin"
"Total","Bulgarische Str. 9","12435","Berlin"
"Total","Blockdammweg 6","10317","Berlin"
"Total","Blockdammweg 6","10317","Berlin"
"Total","Holzmarktstr. 36-42","10243","Berlin"
"Total","Holzmarktstr. 36-42","10243","Berlin"
"Total","Juri-Gargarin-Str. 32","15517","Fuerstenwalde"
"Total","Juri-Gargarin-Str. 32","15517","Fuerstenwalde"
"Total","Berliner Str. 123","14641","Nauen"
"Total","Berliner Str. 123","14641","Nauen"
"Total","Streitstr. 84","13587","Berlin"
"Total","Streitstr. 84","13587","Berlin"
"Total","Heidestr. 19","10557","Berlin"
"Total","Heidestr. 19","10557","Berlin"
"Total","Prenzlauer Allee 1-4","10405","Berlin"
"Total","Prenzlauer Allee 1-4","10405","Berlin"
"Total","Chausseestr. 61","10115","Berlin"
"Total","Chausseestr. 61","10115","Berlin"
"Total","Nauener Str. 116","14612","Falkensee"
"Total","Nauener Str. 116","14612","Falkensee"
"Total","Storkower Str. 174","10369","Berlin"
"Total","Storkower Str. 174","10369","Berlin"
"Total","Margarete-Sommer-Str. 2","10407","Berlin"
"Total","Margarete-Sommer-Str. 2","10407","Berlin"
"Total","Rhinstr. 52","12681","Berlin"
"Total","Rhinstr. 52","12681","Berlin"
"Total","Storkower Str. 116","10407","Berlin"
"Total","Storkower Str. 116","10407","Berlin"
"Total","Alt Mahlsdorf 60","12623","Berlin"
"Total","Alt Mahlsdorf 60","12623","Berlin"
"Total","Markstr. 43-44","13409","Berlin"
"Total","Markstr. 43-44","13409","Berlin"
"Total","Landsberger Allee 376","12681","Berlin"
"Total","Landsberger Allee 376","12681","Berlin"
"Total","Rhinstr. 175","13053","Berlin"
"Total","Rhinstr. 175","13053","Berlin"
"Total","Habichtstr. 11-13","13505","Berlin"
"Total","Habichtstr. 11-13","13505","Berlin"
"Total","I.-Gandhi-Str. 106-109","13053","Berlin"
"Total","I.-Gandhi-Str. 106-109","13053","Berlin"
"Total","Eichborndamm 91","13403","Berlin"
"Total","Eichborndamm 91","13403","Berlin"
"Total","Tino-Schwierzina-Str. 37","13089","Berlin"
"Total","Tino-Schwierzina-Str. 37","13089","Berlin"
"Total","Roelckestr. 74-76","13088","Berlin"
"Total","Roelckestr. 74-76","13088","Berlin"
"Total","Landsberger Allee 526","12681","Berlin"
"Total","Landsberger Allee 526","12681","Berlin"
"Total","Bitterfelder Str. 29","12681","Berlin"
"Total","Bitterfelder Str. 29","12681","Berlin"
"Total","Ribnitzer Str. 42","13051","Berlin"
"Total","Ribnitzer Str. 42","13051","Berlin"
"Total","Wackenbergstr. 2-6","13156","Berlin"
"Total","Wackenbergstr. 2-6","13156","Berlin"
"Total","Am Feuchten Winkel 11","13127","Berlin"
"Total","Am Feuchten Winkel 11","13127","Berlin"
"Total","Bab Seeberg West A 10","15345","Altlandsberg"
"Total","Bab Seeberg West A 10","15345","Altlandsberg"
"Total","Markendorfer Str. 15","15234","Frankfurt"
"Total","Markendorfer Str. 15","15234","Frankfurt"
"Total","Josef-Gesing-Str. 6","15234","Frankfurt (Oder)"
"Total","Josef-Gesing-Str. 6","15234","Frankfurt (Oder)"
"Total","Dorfstr. 37A","16356","Ahrensfelde"
"Total","Dorfstr. 37A","16356","Ahrensfelde"
"Total","Hoenower Chaussee 1a","15345","Altlandsberg"
"Total","Hoenower Chaussee 1a","15345","Altlandsberg"
"Total","Berliner Allee 2a","14662","Friesack"
"Total","Berliner Allee 2a","14662","Friesack"
"Total","Veltener Str. 22","16761","Henningsdorf"
"Total","Veltener Str. 22","16761","Henningsdorf"
"Total","Berliner Str. 69","15344","Strausberg"
"Total","Berliner Str. 69","15344","Strausberg"
"Total","Zepernicker Str. 9-10","13125","Berlin"
"Total","Zepernicker Str. 9-10","13125","Berlin"
"Total","Eichstaedter Chaussee 4","16727","Oberkraemer Ot Vehlefanz"
"Total","Eichstaedter Chaussee 4","16727","Oberkraemer Ot Vehlefanz"
"Total","Hauptstr. 200","16547","Birkenwerder"
"Total","Hauptstr. 200","16547","Birkenwerder"
"Total","Schwanebecker Chaussee 29","16321","Bernau"
"Total","Schwanebecker Chaussee 29","16321","Bernau"
"Total","Saarlandstr. 40-42","16515","Oranienburg"
"Total","Saarlandstr. 40-42","16515","Oranienburg"
"Total","Diedersdorfer Str. 2","15306","Seelow"
"Total","Diedersdorfer Str. 2","15306","Seelow"
"Total","An der Klempnitz 2","16868","Wusterhausen"
"Total","An der Klempnitz 2","16868","Wusterhausen"
"Total","Wahrenberger Straﬂe","19322","Wittenberge"
"Total","Wahrenberger Straﬂe","19322","Wittenberge"
"Total","Bab Ost/A 24","16818","Walsleben"
"Total","Bab Ost/A 24","16818","Walsleben"
"Total","Bab West/A 24","16818","Walsleben"
"Total","Bab West/A 24","16818","Walsleben"
"Total","Parkstr. 90A","19322","Wittenberge"
"Total","Parkstr. 90A","19322","Wittenberge"
"Total","Altruppiner Allee 25","16816","Neuruppin"
"Total","Altruppiner Allee 25","16816","Neuruppin"
"Total","Freienwalder Str. 26","16269","Wriezen"
"Total","Freienwalder Str. 26","16269","Wriezen"
"Total","Angermuender Straﬂe","16225","Eberswalde"
"Total","Angermuender Straﬂe","16225","Eberswalde"
"Total","Berliner Str. 31","16244","Schorfheide"
"Total","Berliner Str. 31","16244","Schorfheide"
"","An der B 109","16244","Schorfheide"
"","An der B 109","16244","Schorfheide"
"Total","Bab West/A 11","16244","Schorfheide-Buckowsee"
"Total","Bab West/A 11","16244","Schorfheide-Buckowsee"
"Total","Bab Ost/A 11","16244","Schorfheide-Buckowsee"
"Total","Bab Ost/A 11","16244","Schorfheide-Buckowsee"
"Total","Berliner Str. 31","19348","Perleberg"
"Total","Berliner Str. 31","19348","Perleberg"
"Total","Hamburger Str. 18","19348","Perleberg"
"Total","Hamburger Str. 18","19348","Perleberg"
"Total","Bahnhofstr. 25","16792","Zehdenick"
"Total","Bahnhofstr. 25","16792","Zehdenick"
"Total","Rosa-Luxemburg-Str. 7","16909","Wittstock"
"Total","Rosa-Luxemburg-Str. 7","16909","Wittstock"
"Total","Pritzwalker Str. 11","16949","Putlitz"
"Total","Pritzwalker Str. 11","16949","Putlitz"
"Total","Hans-Guenter-Bock-Str. 8","16798","Fuerstenberg"
"Total","Hans-Guenter-Bock-Str. 8","16798","Fuerstenberg"
"Total","Bahnhofstr. 23","19273","Neuhaus"
"Total","Bahnhofstr. 23","19273","Neuhaus"
"Total","Grabower Allee 31","19288","Ludwigslust"
"Total","Grabower Allee 31","19288","Ludwigslust"
"","AN DER B 5","16868","WUSTERHAUSEN"
"","AN DER B 5","16868","WUSTERHAUSEN"
"Total","Am Pump 4","17255","Wesenberg"
"Total","Am Pump 4","17255","Wesenberg"
"","STEINstraﬂe11","16303","SCHWEDT"
"","STEINstraﬂe11","16303","SCHWEDT"
"Total","Bab Sued/A 24","19372","Stolpe"
"Total","Bab Sued/A 24","19372","Stolpe"
"Total","Bab Nord/A 24","19372","Stolpe"
"Total","Bab Nord/A 24","19372","Stolpe"
"Total","Toddiner Ch. 5","19230","Hagenow"
"Total","Toddiner Ch. 5","19230","Hagenow"
"Total","Am Keesboom 2","19258","Boizenburg"
"Total","Am Keesboom 2","19258","Boizenburg"
"Total","Westring 40","19370","Parchim"
"Total","Westring 40","19370","Parchim"
"Total","Schweriner Chaussee 45","19370","Parchim"
"Total","Schweriner Chaussee 45","19370","Parchim"
"Total","Alter Landweg 5","17258","Feldberg"
"Total","Alter Landweg 5","17258","Feldberg"
"Total","Ploener Str. 2","19395","Plau Am See"
"Total","Ploener Str. 2","19395","Plau Am See"
"Total","Rostocker Str. 42","17213","Malchow"
"Total","Rostocker Str. 42","17213","Malchow"
"Total","Hagenower Chaussee 1","19243","Wittenburg"
"Total","Hagenower Chaussee 1","19243","Wittenburg"
"Total","Stettiner Str. 100","17291","Prenzlau"
"Total","Stettiner Str. 100","17291","Prenzlau"
"Total","Werderstr. 55","19399","Goldberg"
"Total","Werderstr. 55","19399","Goldberg"
"Total","Grabenstr. 2","19061","Schwerin"
"Total","Grabenstr. 2","19061","Schwerin"
"Total","An Der Crivitzer Chaussee 12","19061","Schwerin"
"Total","An Der Crivitzer Chaussee 12","19061","Schwerin"
"Total","Obotritenring 19A","19053","Schwerin"
"Total","Obotritenring 19A","19053","Schwerin"
"Total","Luebecker Str. 283","19059","Schwerin"
"Total","Luebecker Str. 283","19059","Schwerin"
"Total","Plauer Chaussee 26","18292","Krakow Am See"
"Total","Plauer Chaussee 26","18292","Krakow Am See"
"Total","Woldegker Str. 40","17036","Neubrandenburg"
"Total","Woldegker Str. 40","17036","Neubrandenburg"
"Total","Am Waethering Nr. 2","17335","Strasburg"
"Total","Am Waethering Nr. 2","17335","Strasburg"
"Total","Brueeler Ch. 12","19406","Sternberg"
"Total","Brueeler Ch. 12","19406","Sternberg"
"Total","Am Kreuzsee 1","19412","Brueel"
"Total","Am Kreuzsee 1","19412","Brueel"
"Total","Malchiner Str. 81","17153","Stavenhagen"
"Total","Malchiner Str. 81","17153","Stavenhagen"
"Total","Gletzower Str. 62B","19217","Rehna"
"Total","Gletzower Str. 62B","19217","Rehna"
"Total","Plauer Chaussee 2","18273","Guestrow"
"Total","Plauer Chaussee 2","18273","Guestrow"
"Total","Rostocker Str. 154","17166","Teterow"
"","Brikettweg 1","17166","Teterow"
"Total","Rostocker Str. 154","17166","Teterow"
"","Brikettweg 1","17166","Teterow"
"Total","Lindenstr. 9-10","17358","Torgelow"
"Total","Lindenstr. 9-10","17358","Torgelow"
"Total","Wismarsche Str. 13B","18246","Buetzow"
"Total","Wismarsche Str. 13B","18246","Buetzow"
"Total","Jarmener Chaussee 1A","17109","Demmin"
"Total","Jarmener Chaussee 1A","17109","Demmin"
"Total","Pasewalker Allee 95A","17389","Anklam"
"Total","Pasewalker Allee 95A","17389","Anklam"
"Total","Klinkenberg 28","17126","Jarmen"
"Total","Klinkenberg 28","17126","Jarmen"
"Total","Erich-Schlesinger-Str. 26","18059","Rostock"
"Total","Erich-Schlesinger-Str. 26","18059","Rostock"
"Total","Tessiner Str. 98","18055","Rostock"
"Total","Tessiner Str. 98","18055","Rostock"
"Total","Rostocker Str. 72","18190","Sanitz"
"Total","Rostocker Str. 72","18190","Sanitz"
"Total","Warnowufer 53","18057","Rostock"
"Total","Warnowufer 53","18057","Rostock"
"Total","U.-Von-Hutten-Str. 7A","18069","Rostock"
"Total","U.-Von-Hutten-Str. 7A","18069","Rostock"
"Total","Roevershaeger Chaussee 3","18146","Rostock"
"Total","Roevershaeger Chaussee 3","18146","Rostock"
"Total","An Der Stadtautobahn 70","18107","Rostock-Luettenklein"
"Total","An Der Stadtautobahn 70","18107","Rostock-Luettenklein"
"Total","Neue Reihe 94C","18225","Kuehlungsborn"
"Total","Neue Reihe 94C","18225","Kuehlungsborn"
"Total","Ferdinand-Egelinski-Str. 3","17419","Ahlbeck"
"Total","Ferdinand-Egelinski-Str. 3","17419","Ahlbeck"
"Total","Greifswalder Chaussee 4","18507","Grimmen"
"Total","Greifswalder Chaussee 4","18507","Grimmen"
"Total","Chausseestr. 45","17438","Wolgast"
"Total","Chausseestr. 45","17438","Wolgast"
"Total","Marktflecken 17","17498","Neuenkirchen"
"Total","Marktflecken 17","17498","Neuenkirchen"
"Total","Ahlbecker Str. 37","17454","Zinnowitz"
"Total","Ahlbecker Str. 37","17454","Zinnowitz"
"Total","Alte Klockenhaeger Landstr. 2","18311","Ribnitz-Damgarten"
"Total","Alte Klockenhaeger Landstr. 2","18311","Ribnitz-Damgarten"
"Total","Greifswalder Chaussee 122","18439","Stralsund"
"Total","Greifswalder Chaussee 122","18439","Stralsund"
"Total","Werftstr. 13","18439","Stralsund"
"Total","Werftstr. 13","18439","Stralsund"
"Total","Chausseestr. 79","18356","Barth"
"Total","Chausseestr. 79","18356","Barth"
"Total","Stralsunder Ch. 18","18528","Bergen"
"Total","Stralsunder Ch. 18","18528","Bergen"
"Total","Proraer Chaussee 8","18609","Binz"
"Total","Proraer Chaussee 8","18609","Binz"
"Total","Gewerbepark 3","18546","Sassnitz"
"Total","Gewerbepark 3","18546","Sassnitz"
"Total","Umgehungsstr. 1","18556","Altenkirchen"
"Total","Umgehungsstr. 1","18556","Altenkirchen"
"Total","Am Stellhorn 6","29229","Celle"
"Total","Am Stellhorn 6","29229","Celle"
"Total","Danziger Str. 69","29633","Munster"
"Total","Danziger Str. 69","29633","Munster"
"Total","An der Autobahn 4","28876","Oyten"
"Total","An der Autobahn 4","28876","Oyten"
"Total","Grundbergsee Nord","27367","Sottrum"
"Total","Grundbergsee Nord","27367","Sottrum"
"Total","Europaallee 5A","28309","Bremen"
"Total","Europaallee 5A","28309","Bremen"
"Total","Osterdeich 124-125","28205","Bremen"
"Total","Osterdeich 124-125","28205","Bremen"
"Total","Hauptstr. 6","21261","Welle"
"Total","Hauptstr. 6","21261","Welle"
"Total","Hasporter Damm 200","27755","Delmenhorst"
"Total","Hasporter Damm 200","27755","Delmenhorst"
"Total","Oberneulander Heerstr. 38","28355","Bremen"
"Total","Oberneulander Heerstr. 38","28355","Bremen"
"Total","Leher Heerstr. 98","28359","Bremen"
"Total","Leher Heerstr. 98","28359","Bremen"
"Total","Sykerstr. 74","27751","Delmenhorst"
"Total","Sykerstr. 74","27751","Delmenhorst"
"Total","Bahnhofstr. 36","27404","Zeven"
"Total","Bahnhofstr. 36","27404","Zeven"
"Total","Harburger Berge Ost/ A 7","21077","Hamburg"
"Total","Harburger Berge Ost/ A 7","21077","Hamburg"
"Total","Luessumer Str. 9","28779","Bremen"
"Total","Luessumer Str. 9","28779","Bremen"
"Total","Reinbeker Redder 98","21031","Hamburg"
"Total","Reinbeker Redder 98","21031","Hamburg"
"Total","Cuxhavener Str. 380","21149","Hamburg"
"Total","Cuxhavener Str. 380","21149","Hamburg"
"Total","Neuwiedenthaler Str. 122","21147","Hamburg"
"Total","Neuwiedenthaler Str. 122","21147","Hamburg"
"Total","Neuhoefer Str. 28","21107","Hamburg"
"Total","Neuhoefer Str. 28","21107","Hamburg"
"Total","Billstedter Hauptstr. 21","22111","Hamburg"
"Total","Billstedter Hauptstr. 21","22111","Hamburg"
"Total","Aluminiumstr. 5","21129","Hamburg"
"Total","Aluminiumstr. 5","21129","Hamburg"
"Total","Hammer Landstr. 204","20537","Hamburg"
"Total","Hammer Landstr. 204","20537","Hamburg"
"Total","Eichholzberg 2","23879","Moelln"
"Total","Eichholzberg 2","23879","Moelln"
"Total","Mundsburger Damm 47","22087","Hamburg"
"Total","Mundsburger Damm 47","22087","Hamburg"
"Total","Von-Sauerstr. 27","22761","Hamburg"
"Total","Von-Sauerstr. 27","22761","Hamburg"
"Total","Bramfelder Str. 86A","22305","Hamburg"
"Total","Bramfelder Str. 86A","22305","Hamburg"
"Total","Borsteler Chaussee 95","22453","Hamburg"
"Total","Borsteler Chaussee 95","22453","Hamburg"
"Total","Altonaer Str. 377","25462","Rellingen"
"Total","Altonaer Str. 377","25462","Rellingen"
"Total","Krohnstieg 71-75","22415","Hamburg"
"Total","Krohnstieg 71-75","22415","Hamburg"
"Total","Bergstedter Chaussee 56","22395","Hamburg"
"Total","Bergstedter Chaussee 56","22395","Hamburg"
"Total","Hermann-Loens-Weg 1","25462","Rellingen"
"Total","Hermann-Loens-Weg 1","25462","Rellingen"
"Total","Friederikenstr. 27-29","26871","Papenburg"
"Total","Friederikenstr. 27-29","26871","Papenburg"
"Total","Thesdorfer Weg 194","25421","Pinneberg"
"Total","Thesdorfer Weg 194","25421","Pinneberg"
"Total","Damm 80","25421","Pinneberg"
"Total","Damm 80","25421","Pinneberg"
"Total","Segeberger Chaussee 240","22851","Norderstedt"
"Total","Segeberger Chaussee 240","22851","Norderstedt"
"Total","Elmshorner Str. 143-147","25421","Pinneberg"
"Total","Elmshorner Str. 143-147","25421","Pinneberg"
"Total","Grosswolder Str. 118","26810","Westoverledingen"
"Total","Grosswolder Str. 118","26810","Westoverledingen"
"Total","Bab Holmmoorweg West/A 7","25451","Quickborn"
"Total","Bab Holmmoorweg West/A 7","25451","Quickborn"
"Total","Am Lunedeich 136","27572","Bremerhaven"
"Total","Am Lunedeich 136","27572","Bremerhaven"
"Total","Friedrich-Ebert-Str. 80","26954","Nordenham"
"Total","Friedrich-Ebert-Str. 80","26954","Nordenham"
"Total","Schiffdorfer Chaussee 32","27574","Bremerhaven"
"Total","Schiffdorfer Chaussee 32","27574","Bremerhaven"
"Total","Industriestr. 4","23843","Bad Oldesloe"
"Total","Industriestr. 4","23843","Bad Oldesloe"
"Total","Wismarsche Str. 153A","23936","Grevesmuehlen"
"Total","Wismarsche Str. 153A","23936","Grevesmuehlen"
"Total","Turnstr. 3","25335","Elmshorn"
"Total","Turnstr. 3","25335","Elmshorn"
"Total","Dr.-Leber-Str. 8","23966","Wismar"
"Total","Dr.-Leber-Str. 8","23966","Wismar"
"Total","Langener Landstr. 245-247","27578","Bremerhaven"
"Total","Langener Landstr. 245-247","27578","Bremerhaven"
"Total","Zierower Landstr. 1","23968","Wismar"
"Total","Zierower Landstr. 1","23968","Wismar"
"Total","Segeberger Str. 55A","23617","Stockelsdorf"
"Total","Segeberger Str. 55A","23617","Stockelsdorf"
"Total","Friedensstr. 88","23942","Dassow"
"Total","Friedensstr. 88","23942","Dassow"
"Total","Solmitzstr. 23A","23569","Luebeck"
"Total","Solmitzstr. 23A","23569","Luebeck"
"Total","Banter Weg 121","26389","Wilhelmshaven"
"Total","Banter Weg 121","26389","Wilhelmshaven"
"Total","Boltenhagener Str. 11B","23948","Kluetz"
"Total","Boltenhagener Str. 11B","23948","Kluetz"
"Total","Moorredder 1","23570","Luebeck"
"Total","Moorredder 1","23570","Luebeck"
"Total","Nesserlander Str. 21","26721","Emden"
"Total","Nesserlander Str. 21","26721","Emden"
"Total","Adenauer Allee 10","25524","Itzehoe"
"Total","Adenauer Allee 10","25524","Itzehoe"
"Total","Kieler Str. 110","25551","Hohenlockstedt"
"Total","Kieler Str. 110","25551","Hohenlockstedt"
"Total","Olof-Palme-Allee 5","25541","Brunsbuettel"
"Total","Olof-Palme-Allee 5","25541","Brunsbuettel"
"Total","Haart 225","24539","Neumuenster"
"Total","Haart 225","24539","Neumuenster"
"Total","Wasbeker Str. 361","24537","Neumuenster"
"Total","Wasbeker Str. 361","24537","Neumuenster"
"Total","Kieler Str. 387-391","24536","Neumuenster"
"Total","Kieler Str. 387-391","24536","Neumuenster"
"Total","Luetjenburger Str. 61","24306","Ploen"
"Total","Luetjenburger Str. 61","24306","Ploen"
"Total","Edisonstr. 44","24145","Kiel"
"Total","Edisonstr. 44","24145","Kiel"
"Total","Meldorfer Str. 143","25746","Heide"
"Total","Meldorfer Str. 143","25746","Heide"
"Total","Busch Johannsen Str. 2","25899","Niebuell"
"Total","Busch Johannsen Str. 2","25899","Niebuell"
"Total","Rhoenhof 5","36124","Eichenzell"
"Total","Rhoenhof 5","36124","Eichenzell"
"Total","Borscher Str. 21","36419","Geisa"
"Total","Borscher Str. 21","36419","Geisa"
"Total","August-Bebel-Str. 92","36433","Bad Salzungen"
"Total","August-Bebel-Str. 92","36433","Bad Salzungen"
"Total","Hessenstr. 79","36358","Herbstein"
"Total","Hessenstr. 79","36358","Herbstein"
"Total","An Der B 62 Nr. 2","36469","Tiefenort"
"","Haembacher Kreuz 2","36469","Tiefenort"
"Total","An Der B 62 Nr. 2","36469","Tiefenort"
"","Haembacher Kreuz 2","36469","Tiefenort"
"Total","Huenfelder Str. 4","36282","Hauneck"
"Total","Huenfelder Str. 4","36282","Hauneck"
"Total","Carl-Benz-Str. 3","36251","Bad Hersfeld"
"Total","Carl-Benz-Str. 3","36251","Bad Hersfeld"
"Total","Griedeler Str. 72","35510","Butzbach"
"Total","Griedeler Str. 72","35510","Butzbach"
"Total","Zum Doenges 2","36208","Wildeck-Obersuhl"
"Total","Zum Doenges 2","36208","Wildeck-Obersuhl"
"Total","Homberger Str. 5","36251","Bad Hersfeld"
"Total","Homberger Str. 5","36251","Bad Hersfeld"
"Total","Autohof Pfefferhoehe 18","36304","Alsfeld"
"Total","Autohof Pfefferhoehe 18","36304","Alsfeld"
"Total","An Der B 49","35447","Reiskirchen"
"Total","An Der B 49","35447","Reiskirchen"
"Total","Frankfurter Str. 2","35440","Linden-Groﬂenlinden"
"Total","Frankfurter Str. 2","35440","Linden-Groﬂenlinden"
"Total","Nuernberger Str. 67","36199","Rotenburg-Lispenhausen"
"Total","Nuernberger Str. 67","36199","Rotenburg-Lispenhausen"
"Total","Weilstr. 112","35789","Weilmuenster"
"Total","Weilstr. 112","35789","Weilmuenster"
"Total","Braunfelser Str. 70","35578","Wetzlar"
"Total","Braunfelser Str. 70","35578","Wetzlar"
"Total","Mittelbiel 2","35606","Solms"
"Total","Mittelbiel 2","35606","Solms"
"Total","Niederrheinische Str. 39","35274","Kirchhain"
"Total","Niederrheinische Str. 39","35274","Kirchhain"
"Total","Nuernberger Str. 16","34212","Melsungen"
"Total","Nuernberger Str. 16","34212","Melsungen"
"Total","Erlenwiese 21","35794","Mengerskirchen - Waldernbach"
"Total","Erlenwiese 21","35794","Mengerskirchen - Waldernbach"
"Total","An Der B 255","35756","Mittenaar"
"Total","An Der B 255","35756","Mittenaar"
"Total","Kasseler Str. 49-51","37247","Grossalmerode"
"Total","Kasseler Str. 49-51","37247","Grossalmerode"
"Total","Dingelstaedter Str. 33","37308","Heiligenstadt"
"Total","Dingelstaedter Str. 33","37308","Heiligenstadt"
"Total","Bundesstr. 80","06179","Langenbogen"
"Total","Bundesstr. 80","06179","Langenbogen"
"Total","Am Fieseler Werk 7","34253","Lohfelden"
"Total","Am Fieseler Werk 7","34253","Lohfelden"
"Total","Frankfurter Str. 241","34134","Kassel"
"Total","Frankfurter Str. 241","34134","Kassel"
"Total","Leipziger Str. 22","34125","Kassel"
"Total","Leipziger Str. 22","34125","Kassel"
"Total","Autohof Bab 7 / As Lutterberg 7","34355","Staufenberg"
"Total","Autohof Bab 7 / As Lutterberg 7","34355","Staufenberg"
"Total","Wolfhager Str. 276","34128","Kassel"
"Total","Wolfhager Str. 276","34128","Kassel"
"Total","Nordhaeuser Str. 19","38899","Oberharz Am Brocken"
"Total","Nordhaeuser Str. 19","38899","Oberharz Am Brocken"
"Total","Arolser Landstr. 39","34497","Korbach"
"Total","Arolser Landstr. 39","34497","Korbach"
"Total","Lauenfoerderstr. 3","37176","Noerten-Hardenberg"
"Total","Lauenfoerderstr. 3","37176","Noerten-Hardenberg"
"Total","Herzberger Landstr. 8","37520","Osterode"
"Total","Herzberger Landstr. 8","37520","Osterode"
"Total","Waldstr. 20","37520","Osterode am Harz"
"Total","Waldstr. 20","37520","Osterode am Harz"
"Total","Paderborner Tor 164","34414","Warburg"
"Total","Paderborner Tor 164","34414","Warburg"
"Total","Hecklinger Str. 50","39418","Staﬂfurt"
"Total","Hecklinger Str. 50","39418","Staﬂfurt"
"Total","Am Anger","38855","Wernigerode"
"Total","Am Anger","38855","Wernigerode"
"Total","Am Schreiberteich 3","38855","Wernigerode"
"Total","Am Schreiberteich 3","38855","Wernigerode"
"Total","Bab Biggenkopf Sued","34474","Diemelstadt"
"Total","Bab Biggenkopf Sued","34474","Diemelstadt"
"Total","Friedensplatz 1","39240","Calbe/Saale"
"Total","Friedensplatz 1","39240","Calbe/Saale"
"Total","Magdeburger Str. 39-45","38820","Halberstadt"
"Total","Magdeburger Str. 39-45","38820","Halberstadt"
"Total","Apfelweg 2","38871","Ilsenburg"
"Total","Apfelweg 2","38871","Ilsenburg"
"Total","Halberstaedter Str. 21b","39435","Egeln"
"Total","Halberstaedter Str. 21b","39435","Egeln"
"Total","Magdeburger Str. 84","39261","Zerbst"
"Total","Magdeburger Str. 84","39261","Zerbst"
"Total","Calbesche Str. 91","39218","Schoenebeck"
"Total","Calbesche Str. 91","39218","Schoenebeck"
"Total","Braunschweiger Str. 36a","38723","Seesen"
"Total","Braunschweiger Str. 36a","38723","Seesen"
"Total","Anderlebener Str. 53","39387","Oschersleben"
"Total","Anderlebener Str. 53","39387","Oschersleben"
"Total","Fuerstenberger Str. 1-3","33142","Bueren"
"Total","Fuerstenberger Str. 1-3","33142","Bueren"
"Total","Magdeburger Str. 28","39245","Gommern"
"Total","Magdeburger Str. 28","39245","Gommern"
"Total","Hermann-Hesse-Str. 1","39118","Magdeburg"
"Total","Hermann-Hesse-Str. 1","39118","Magdeburg"
"Total","Wanzlebener Allee 12b","39164","Wanzleben-Boerde"
"Total","Wanzlebener Allee 12b","39164","Wanzleben-Boerde"
"Total","Walter-Althoffstr. 2","31167","Bockenem"
"Total","Walter-Althoffstr. 2","31167","Bockenem"
"Total","Albert-Vater-Str. 30","39108","Magdeburg"
"Total","Albert-Vater-Str. 30","39108","Magdeburg"
"Total","Friedensstr. 1","39393","Voelpke"
"Total","Friedensstr. 1","39393","Voelpke"
"Total","Barleber Ch. 3","39126","Magdeburg"
"Total","Barleber Ch. 3","39126","Magdeburg"
"Total","Bab Boerde Sued / A 2","39343","Gross Santersleben"
"Total","Bab Boerde Sued / A 2","39343","Gross Santersleben"
"","BAB BOERDE SUED / A2","39343","GROSS SANTERSLEBEN"
"","BAB BOERDE SUED / A2","39343","GROSS SANTERSLEBEN"
"Total","Von Ketteler Str. 13","33106","Paderborn"
"Total","Von Ketteler Str. 13","33106","Paderborn"
"Total","Paderborner Str. 78","33189","Schlangen"
"Total","Paderborner Str. 78","33189","Schlangen"
"Total","Glindenberger Weg 3","39126","Magdeburg"
"Total","Glindenberger Weg 3","39126","Magdeburg"
"Total","Hamelner Str. 28","32805","Horn-Bad Meinberg"
"Total","Hamelner Str. 28","32805","Horn-Bad Meinberg"
"Total","Colbitzer Straﬂe","39326","Wolmirstedt"
"Total","Colbitzer Straﬂe","39326","Wolmirstedt"
"Total","Berliner Ch. 103","39288","Burg"
"Total","Berliner Ch. 103","39288","Burg"
"Total","Gerickestr. 108","39340","Haldensleben"
"Total","Gerickestr. 108","39340","Haldensleben"
"Total","Berliner Str. 2","31135","Hildesheim"
"Total","Berliner Str. 2","31135","Hildesheim"
"Total","Bueckebergstr. 1","31137","Hildesheim"
"Total","Bueckebergstr. 1","31137","Hildesheim"
"Total","Lerchenkamp 36","31137","Hildesheim"
"Total","Lerchenkamp 36","31137","Hildesheim"
"Total","Muenchenstr. 15","38120","Braunschweig"
"Total","Muenchenstr. 15","38120","Braunschweig"
"Total","Berliner Str. 54A","38104","Braunschweig"
"Total","Berliner Str. 54A","38104","Braunschweig"
"Total","Celler Str. 65","38114","Braunschweig"
"Total","Celler Str. 65","38114","Braunschweig"
"Total","Lange Str. 147","33397","Rietberg"
"Total","Lange Str. 147","33397","Rietberg"
"Total","Stukenbroker Weg 18","33813","Oerlinghausen"
"Total","Stukenbroker Weg 18","33813","Oerlinghausen"
"Total","Lemgoer Str. 80","32791","Lage"
"Total","Lemgoer Str. 80","32791","Lage"
"Total","Entruper Weg 48","32657","Lemgo"
"Total","Entruper Weg 48","32657","Lemgo"
"Total","Ruhmrischkamp 3","38179","Schwuelper"
"Total","Ruhmrischkamp 3","38179","Schwuelper"
"Total","Berliner Ch.","39307","Genthin"
"Total","Berliner Ch.","39307","Genthin"
"Total","Senner Str. 8","33335","Guetersloh"
"Total","Senner Str. 8","33335","Guetersloh"
"Total","Am Legefeld 4","39307","Genthin"
"Total","Am Legefeld 4","39307","Genthin"
"Total","Clarholzer Str. 28","33442","Herzebrock"
"Total","Clarholzer Str. 28","33442","Herzebrock"
"Total","Wuelferode Ost","30539","Hannover"
"Total","Wuelferode Ost","30539","Hannover"
"Total","Artur-Ladebeck-Str. 179","33647","Bielefeld"
"Total","Artur-Ladebeck-Str. 179","33647","Bielefeld"
"Total","Degerser Str. 21","30974","Wennigsen"
"Total","Degerser Str. 21","30974","Wennigsen"
"Total","Herforder Str. 301","33609","Bielefeld"
"Total","Herforder Str. 301","33609","Bielefeld"
"Total","Bielefelder Str. 81","33803","Steinhagen"
"Total","Bielefelder Str. 81","33803","Steinhagen"
"Total","Braker Str. 79","33729","Bielefeld-Brake"
"Total","Braker Str. 79","33729","Bielefeld-Brake"
"Total","Autohof Strassburger Str. 4","31275","Lehrte"
"Total","Autohof Strassburger Str. 4","31275","Lehrte"
"Total","Ahmser Str. 95","32052","Herford"
"Total","Ahmser Str. 95","32052","Herford"
"Total","Calberlaher Damm 54","38518","Gifhorn"
"Total","Calberlaher Damm 54","38518","Gifhorn"
"Total","Braunschweiger Str. 137","38518","Gifhorn"
"Total","Braunschweiger Str. 45-47","38518","Gifhorn"
"Total","Braunschweiger Str. 45-47","38518","Gifhorn"
"Total","Braunschweiger Str. 137","38518","Gifhorn"
"Total","Vor Dem Salzwedeler Tor 17","39638","Gardelegen"
"Total","Vor Dem Salzwedeler Tor 17","39638","Gardelegen"
"Total","Vilsendorfer Str. 87","33739","Bielefeld"
"Total","Vilsendorfer Str. 87","33739","Bielefeld"
"Total","Vahrenwalder Str. 284","30179","Hannover"
"Total","Vahrenwalder Str. 284","30179","Hannover"
"Total","Autohof Kronskamp 3","30890","Barsinghausen"
"Total","Autohof Kronskamp 3","30890","Barsinghausen"
"Total","Harenberger Meile 39","30926","Seelze"
"Total","Harenberger Meile 39","30926","Seelze"
"Total","Sutelstr. 23","30659","Hannover"
"Total","Sutelstr. 23","30659","Hannover"
"Total","Hannoversche Str. 29","30916","Isernhagen"
"Total","Hannoversche Str. 29","30916","Isernhagen"
"Total","Dahlener Str. 16","39576","Stendal"
"Total","Dahlener Str. 16","39576","Stendal"
"Total","Portastr. 44","32457","Porta Westfalica"
"Total","Portastr. 44","32457","Porta Westfalica"
"Total","Dehmer Str. 52","32549","Bad Oeynhausen"
"Total","Dehmer Str. 52","32549","Bad Oeynhausen"
"Total","Osterwalder Str. 63","30827","Garbsen"
"Total","Osterwalder Str. 63","30827","Garbsen"
"Total","Bahnhofstr. 60","38486","Kloetze"
"Total","Bahnhofstr. 60","38486","Kloetze"
"Total","Wernstedter Str 2","39624","Kalbe"
"Total","Wernstedter Str 2","39624","Kalbe"
"Total","Mecklenhorster Str. 1","31535","Neustadt Rbg"
"Total","Mecklenhorster Str. 1","31535","Neustadt Rbg"
"Total","Osnabruecker Str. 1","32361","Preussich-Oldendorf"
"Total","Osnabruecker Str. 1","32361","Preussich-Oldendorf"
"Total","Bismarker Str. 82","39606","Osterburg"
"Total","Bismarker Str. 82","39606","Osterburg"
"Total","Genthiner Str. 19","39539","Havelberg"
"Total","Genthiner Str. 19","39539","Havelberg"
"Total","Verdener landstr. 48","31582","Nienburg"
"Total","Verdener landstr. 48","31582","Nienburg"
"Total","Freiheitstr. 32","42853","Remscheid"
"Total","Freiheitstr. 32","42853","Remscheid"
"Total","Kreuzbergstr. 65","42899","Remscheid"
"Total","Kreuzbergstr. 65","42899","Remscheid"
"Total","Schuettendelle 27","42857","Remscheid"
"Total","Schuettendelle 27","42857","Remscheid"
"Total","Hastenerstr. 33","42855","Remscheid"
"Total","Hastenerstr. 33","42855","Remscheid"
"Total","Oststr. 5","42651","Solingen"
"Total","Oststr. 5","42651","Solingen"
"Total","Jesinghauser Str. 110","42389","Wuppertal"
"Total","Jesinghauser Str. 110","42389","Wuppertal"
"Total","Lichtendorfer Str. 152","44289","Dortmund"
"Total","Lichtendorfer Str. 152","44289","Dortmund"
"Total","Westkotter Str. 65","42277","Wuppertal"
"Total","Westkotter Str. 65","42277","Wuppertal"
"Total","Hofkamp 47","42103","Wuppertal"
"Total","Hofkamp 47","42103","Wuppertal"
"Total","Landstr. 64","42781","Haan"
"Total","Landstr. 64","42781","Haan"
"Total","Preinstr. 126","44265","Dortmund"
"Total","Preinstr. 126","44265","Dortmund"
"Total","Am Remberg 94","44269","Dortmund"
"Total","Am Remberg 94","44269","Dortmund"
"Total","Duesseldorfer Str. 28","42781","Haan"
"Total","Duesseldorfer Str. 28","42781","Haan"
"Total","Asselner Hellweg 75","44319","Dortmund"
"Total","Asselner Hellweg 75","44319","Dortmund"
"Total","Richrather Str. 116","40723","Hilden"
"Total","Richrather Str. 116","40723","Hilden"
"Total","Hagener Str. 18","44225","Dortmund"
"Total","Hagener Str. 18","44225","Dortmund"
"Total","Westfalendamm 272","44141","Dortmund"
"Total","Westfalendamm 272","44141","Dortmund"
"Total","Benrather Str. 7","40213","Duesseldorf"
"Total","Benrather Str. 7","40213","Duesseldorf"
"Total","Flughafenstr. 71","44309","Dortmund"
"Total","Flughafenstr. 71","44309","Dortmund"
"Total","Duesseldorfer Str. 66","40721","Hilden"
"Total","Duesseldorfer Str. 66","40721","Hilden"
"Total","Stockumer Str. 200","44225","Dortmund"
"Total","Stockumer Str. 200","44225","Dortmund"
"Total","Hannoeversche Str. 52A","44143","Dortmund"
"Total","Hannoeversche Str. 52A","44143","Dortmund"
"Total","Venloer Str. 46","41569","Rommerskirchen"
"Total","Venloer Str. 46","41569","Rommerskirchen"
"Total","Schimmelbuschstr. 27","40699","Erkrath-Hochdahl"
"Total","Schimmelbuschstr. 27","40699","Erkrath-Hochdahl"
"Total","Forststr. 15","40597","Duesseldorf"
"Total","Forststr. 15","40597","Duesseldorf"
"Total","Nievenheim West A 57","41542","Dormagen"
"Total","Nievenheim West A 57","41542","Dormagen"
"Total","Bornstr. 266","44145","Dortmund"
"Total","Bornstr. 266","44145","Dortmund"
"Total","Hauptstr. 279","44892","Bochum"
"Total","Hauptstr. 279","44892","Bochum"
"Total","Kirchstr. 23","40699","Erkrath"
"Total","Kirchstr. 23","40699","Erkrath"
"Total","Altenderner Str. 90","44329","Dortmund"
"Total","Altenderner Str. 90","44329","Dortmund"
"Total","Kemnader Str. 315","44797","Bochum"
"Total","Kemnader Str. 315","44797","Bochum"
"Total","Unterstr. 100","44892","Bochum"
"Total","Unterstr. 100","44892","Bochum"
"Total","Auf Dem Haidchen 45","45527","Hattingen"
"Total","Auf Dem Haidchen 45","45527","Hattingen"
"Total","Vennhauser Allee 266","40627","Duesseldorf"
"Total","Vennhauser Allee 266","40627","Duesseldorf"
"Total","Friedrich-Ebert-Str. 12-14","42549","Velbert"
"Total","Friedrich-Ebert-Str. 12-14","42549","Velbert"
"Total","Markstr. 119","44803","Bochum"
"Total","Markstr. 119","44803","Bochum"
"Total","Kohlenstr. 401","45529","Hattingen"
"Total","Kohlenstr. 401","45529","Hattingen"
"Total","Kemnader-Str. 14","44795","Bochum"
"Total","Kemnader-Str. 14","44795","Bochum"
"Total","Reisholzer Str. 57-63","40231","Duesseldorf"
"Total","Reisholzer Str. 57-63","40231","Duesseldorf"
"Total","Burgaltendorfer Str. 3","45529","Hattingen"
"Total","Burgaltendorfer Str. 3","45529","Hattingen"
"Total","Dreherstr. 171A","40625","Duesseldorf"
"Total","Dreherstr. 171A","40625","Duesseldorf"
"Total","Hoeherweg 202","40233","Duesseldorf"
"Total","Hoeherweg 202","40233","Duesseldorf"
"Total","Harpener Hellweg 88","44805","Bochum-Harpen"
"Total","Harpener Hellweg 88","44805","Bochum-Harpen"
"Total","Jaegerhof 10","41516","Grevenbroich"
"Total","Jaegerhof 10","41516","Grevenbroich"
"Total","Kupferdreherstr. 50-52","45257","Essen"
"Total","Kupferdreherstr. 50-52","45257","Essen"
"Total","Brambauer Str. 257","44536","Luenen"
"Total","Brambauer Str. 257","44536","Luenen"
"Total","Suedring 60","40223","Duesseldorf"
"Total","Suedring 60","40223","Duesseldorf"
"Total","Frauenlobstr. 112","44805","Bochum"
"Total","Frauenlobstr. 112","44805","Bochum"
"Total","Ueberruhrstr. 335","45277","Essen-Ueberruhr"
"Total","Ueberruhrstr. 335","45277","Essen-Ueberruhr"
"Total","Homberger Str. 21","40882","Ratingen"
"Total","Homberger Str. 21","40882","Ratingen"
"Total","Theodorstr. 282","40472","Duesseldorf"
"Total","Theodorstr. 282","40472","Duesseldorf"
"Total","Bab Vierwinden-Nord / A 46","41516","Grevenbroich"
"Total","Bab Vierwinden-Nord / A 46","41516","Grevenbroich"
"Total","Lange Str. 159","44581","Castrop-Rauxel"
"Total","Lange Str. 159","44581","Castrop-Rauxel"
"Total","Berliner Str. 37","44866","Bochum"
"Total","Berliner Str. 37","44866","Bochum"
"Total","Frankenstr. 241","45134","Essen"
"Total","Frankenstr. 241","45134","Essen"
"Total","Dorstener Str. 203","44652","Herne"
"Total","Dorstener Str. 203","44652","Herne"
"Total","Alfredstr. 248","45133","Essen"
"Total","Alfredstr. 248","45133","Essen"
"Total","Horsthauser Str. 213","44628","Herne"
"Total","Horsthauser Str. 213","44628","Herne"
"Total","Eickeler Bruch 143","44652","Herne"
"Total","Eickeler Bruch 143","44652","Herne"
"Total","Dieselstr. 2","41352","Korschenbroich"
"Total","Dieselstr. 2","41352","Korschenbroich"
"Total","Duesseldorfer Str. 23","40667","Meerbusch"
"Total","Duesseldorfer Str. 23","40667","Meerbusch"
"Total","Koelner Str. 451","45481","Muelheim an der Ruhr"
"Total","Koelner Str. 451","45481","Muelheim an der Ruhr"
"Total","Heinrichplatz 3","45888","Gelsenkirchen"
"Total","Heinrichplatz 3","45888","Gelsenkirchen"
"Total","Karlstr. 44","44649","Herne"
"Total","Karlstr. 44","44649","Herne"
"Total","Schmalkalder Str. 13","45665","Recklinghausen"
"Total","Schmalkalder Str. 13","45665","Recklinghausen"
"Total","Grothusstr. 4","45881","Gelsenkirchen"
"Total","Grothusstr. 4","45881","Gelsenkirchen"
"Total","Castroper Str. 123","45665","Recklinghausen"
"Total","Castroper Str. 123","45665","Recklinghausen"
"Total","Grossenbaumer Allee 75","47269","Duisburg"
"Total","Grossenbaumer Allee 75","47269","Duisburg"
"Total","Mellinghofer Str. 110","45473","Muelheim an der Ruhr"
"Total","Mellinghofer Str. 110","45473","Muelheim an der Ruhr"
"Total","Halterner Str. 100","45657","Recklinghausen"
"Total","Halterner Str. 100","45657","Recklinghausen"
"Total","Muendelheimer Str. 106","47259","Duisburg"
"Total","Muendelheimer Str. 106","47259","Duisburg"
"Total","Prosperstr. 440","46238","Bottrop"
"Total","Prosperstr. 440","46238","Bottrop"
"Total","Feldstr. 159-161","45699","Herten"
"Total","Feldstr. 159-161","45699","Herten"
"Total","Dahlener Str. 520","41239","Moenchengladbach"
"Total","Dahlener Str. 520","41239","Moenchengladbach"
"Total","Horster Str. 69","45897","Gelsenkirchen"
"Total","Horster Str. 69","45897","Gelsenkirchen"
"Total","Koloniestr. 141","47057","Duisburg"
"Total","Koloniestr. 141","47057","Duisburg"
"Total","Uerdinger Str. 130","47259","Duisburg"
"Total","Uerdinger Str. 130","47259","Duisburg"
"Total","Parkstr. 16","47877","Willich"
"Total","Parkstr. 16","47877","Willich"
"Total","Heerstr. 270","47053","Duisburg"
"Total","Heerstr. 270","47053","Duisburg"
"Total","Bahnstr. 174","41069","Moenchengladbach"
"Total","Bahnstr. 174","41069","Moenchengladbach"
"Total","Nirostastr. 10","47807","Krefeld"
"Total","Nirostastr. 10","47807","Krefeld"
"Total","Ruhrorter Str. 65","46049","Oberhausen"
"Total","Ruhrorter Str. 65","46049","Oberhausen"
"Total","Hauptstr. 149","47877","Willich"
"Total","Hauptstr. 149","47877","Willich"
"Total","Westfalenstr. 155","48165","Muenster"
"Total","Westfalenstr. 155","48165","Muenster"
"Total","Bottroper Str. 248","45964","Gladbeck"
"Total","Bottroper Str. 248","45964","Gladbeck"
"Total","Autohof - Am Schluetershof 27","47059","Duisburg"
"Total","Autohof - Am Schluetershof 27","47059","Duisburg"
"Total","Bgm.-Puetz-Str. 8","47137","Duisburg"
"Total","Bgm.-Puetz-Str. 8","47137","Duisburg"
"Total","An Der Bundesstr. 235","48308","Senden"
"Total","An Der Bundesstr. 235","48308","Senden"
"Total","Duesseldorfer Str. 51","47239","Duisburg"
"Total","Duesseldorfer Str. 51","47239","Duisburg"
"Total","K.-Adenauer-Ring 35","47167","Duisburg-Neumuehl"
"Total","K.-Adenauer-Ring 35","47167","Duisburg-Neumuehl"
"Total","Biefangstr. 92","46149","Oberhausen"
"Total","Biefangstr. 92","46149","Oberhausen"
"Total","Heerstr. 60","41836","Hueckelhoven"
"Total","Heerstr. 60","41836","Hueckelhoven"
"Total","Kirchstr. 1","47198","Duisburg"
"Total","Kirchstr. 1","47198","Duisburg"
"Total","Nordwall 50","45721","Haltern"
"Total","Nordwall 50","45721","Haltern"
"Total","Bottroper Str. 18-20","46244","Bottrop"
"Total","Bottroper Str. 18-20","46244","Bottrop"
"Total","Am Dorn 5-7","48308","Senden"
"Total","Am Dorn 5-7","48308","Senden"
"Total","Ungerath 301","41366","Schwalmtal"
"Total","Ungerath 301","41366","Schwalmtal"
"Total","Hohe Mark Ost A 3","45721","Haltern"
"Total","Hohe Mark Ost A 3","45721","Haltern"
"Total","Hohe Mark West A 3","45721","Haltern"
"Total","Hohe Mark West A 3","45721","Haltern"
"Total","Dr.-Wilh.-Roelen-Str 357A","47179","Duisburg"
"Total","Dr.-Wilh.-Roelen-Str 357A","47179","Duisburg"
"Total","Halterner Str. 93","48249","Duelmen"
"Total","Halterner Str. 93","48249","Duelmen"
"Total","Muensterstr. 144","48249","Duelmen"
"Total","Muensterstr. 144","48249","Duelmen"
"Total","Willy-Brandt-Str. 206","46535","Dinslaken"
"Total","Willy-Brandt-Str. 206","46535","Dinslaken"
"Total","Borkener Str. 156","46284","Dorsten"
"Total","Borkener Str. 156","46284","Dorsten"
"Total","Alte Heerstr. 2-4","49124","Georgsmarienhuette"
"Total","Alte Heerstr. 2-4","49124","Georgsmarienhuette"
"Total","Duelkener Str. 8","41334","Nettetal"
"Total","Duelkener Str. 8","41334","Nettetal"
"Total","Minkeldonk 1","47495","Rheinberg"
"Total","Minkeldonk 1","47495","Rheinberg"
"Total","Bab Ostseite / A 3","46569","Huenxe"
"Total","Bab Ostseite / A 3","46569","Huenxe"
"Total","Bremer Str. 90","49084","Osnabrueck"
"Total","Bremer Str. 90","49084","Osnabrueck"
"Total","Schermbecker Lstr. 28","46485","Wesel"
"Total","Schermbecker Lstr. 28","46485","Wesel"
"Total","Taubenstr. 40","48282","Emsdetten"
"Total","Taubenstr. 40","48282","Emsdetten"
"Total","Am Doelhof 9","49492","Westerkappeln"
"Total","Am Doelhof 9","49492","Westerkappeln"
"Total","Muensterstr. 212A","49479","Ibbenbueren"
"Total","Muensterstr. 212A","49479","Ibbenbueren"
"Total","Muensterstr. 51","49477","Ibbenbueren"
"Total","Muensterstr. 51","49477","Ibbenbueren"
"Total","Rheinberger Str. 15","46509","Xanten"
"Total","Rheinberger Str. 15","46509","Xanten"
"Total","Gravenhorster Str. 21","49477","Ibbenbueren"
"Total","Gravenhorster Str. 21","49477","Ibbenbueren"
"Total","Rheiner Str. 89","48432","Rheine"
"Total","Rheiner Str. 89","48432","Rheine"
"Total","Schaffeldstr. 1","46395","Bocholt"
"Total","Schaffeldstr. 1","46395","Bocholt"
"Total","Lindenstr. 26","49401","Damme"
"Total","Lindenstr. 26","49401","Damme"
"Total","Heeker Str. 9","48629","Metelen"
"Total","Heeker Str. 9","48629","Metelen"
"Total","Laurenzstr. 57","48607","Ochtrup"
"Total","Laurenzstr. 57","48607","Ochtrup"
"Total","Grosse Str. 38","49451","Holdorf"
"Total","Grosse Str. 38","49451","Holdorf"
"Total","Ostring 140","47574","Goch"
"Total","Ostring 140","47574","Goch"
"Total","Zum Hansa-Center 2","49451","Holdorf"
"Total","Zum Hansa-Center 2","49451","Holdorf"
"Total","Paxtonstr. 2","48488","Emsbueren"
"Total","Paxtonstr. 2","48488","Emsbueren"
"Total","Emmericher Str. 99","47533","Kleve"
"Total","Emmericher Str. 99","47533","Kleve"
"Total","Bentheimer Str. 233","48529","Nordhorn"
"Total","Bentheimer Str. 233","48529","Nordhorn"
"Total","Vlaemische Str. 40","49688","Lastrup"
"Total","Vlaemische Str. 40","49688","Lastrup"
"Total","Boschstr. 2","55283","Nierstein"
"Total","Boschstr. 2","55283","Nierstein"
"Total","Am Kesseltal 4","55129","Mainz a Rhein"
"Total","Am Kesseltal 4","55129","Mainz a Rhein"
"Total","Dekan-Laist-Str. 56","55129","Mainz"
"Total","Dekan-Laist-Str. 56","55129","Mainz"
"Total","Bingerstr. 27","55131","Mainz"
"Total","Bingerstr. 27","55131","Mainz"
"Total","Saarstr. 6","55122","Mainz a Rhein"
"Total","Saarstr. 6","55122","Mainz a Rhein"
"Total","Flugplatzstr. 26","55126","Mainz a Rhein"
"Total","Flugplatzstr. 26","55126","Mainz a Rhein"
"Total","Alzeyer Str. 73","55543","Bad Kreuznach"
"Total","Alzeyer Str. 73","55543","Bad Kreuznach"
"Total","Schulth.-Kollei-Str. 23","55411","Bingen"
"Total","Schulth.-Kollei-Str. 23","55411","Bingen"
"Total","Autohof An Der Bab 61","55444","Waldlaubersheim"
"Total","Autohof An Der Bab 61","55444","Waldlaubersheim"
"Total","Binger Landstr. 25","55606","Hochstetten-Dhaun"
"Total","Binger Landstr. 25","55606","Hochstetten-Dhaun"
"Total","An Der B 9 - Hausnummer 1","56322","Spay"
"Total","An Der B 9 - Hausnummer 1","56322","Spay"
"Total","Industriestr. 26","56412","Heiligenroth"
"Total","Industriestr. 26","56412","Heiligenroth"
"Total","Hauptstr. 5","56414","Herschbach"
"Total","Hauptstr. 5","56414","Herschbach"
"Total","Industriestr. 2","56412","Heiligenroth"
"Total","Industriestr. 2","56412","Heiligenroth"
"Total","Gutenbergstr. 7","56112","Lahnstein"
"Total","Gutenbergstr. 7","56112","Lahnstein"
"Total","Rhenser Str. 4","56323","Waldesch"
"Total","Rhenser Str. 4","56323","Waldesch"
"Total","Chr.-Heibel-Str. 41","56422","Wirges"
"Total","Chr.-Heibel-Str. 41","56422","Wirges"
"Total","Moselufer 37","56332","Brodenbach"
"Total","Moselufer 37","56332","Brodenbach"
"Total","Rheinstr. 99","56235","Ransbach-Baumbach"
"Total","Rheinstr. 99","56235","Ransbach-Baumbach"
"Total","Autohof Reimersheck 3","56424","Mogendorf"
"Total","Autohof Reimersheck 3","56424","Mogendorf"
"Total","Schlachthofstr. 88","56073","Koblenz"
"Total","Schlachthofstr. 88","56073","Koblenz"
"Total","Lindenstr. 40A","56203","Hoehr-Grenzhausen"
"Total","Lindenstr. 40A","56203","Hoehr-Grenzhausen"
"Total","Brueckenstr. 17","57647","Nistertal"
"Total","Brueckenstr. 17","57647","Nistertal"
"Total","Hauptstr. 88","54486","Muelheim"
"Total","Hauptstr. 88","54486","Muelheim"
"Total","Neuwieder Str. 19","56566","Neuwied"
"Total","Neuwieder Str. 19","56566","Neuwied"
"Total","Autohof Elkersberg 2","57234","Wilnsdorf"
"Total","Autohof Elkersberg 2","57234","Wilnsdorf"
"Total","Rudolf-Diesel-Str. 3-5","56566","Neuwied"
"Total","Rudolf-Diesel-Str. 3-5","56566","Neuwied"
"Total","Hauptstr. 153","56575","Weissenthurm"
"Total","Hauptstr. 153","56575","Weissenthurm"
"Total","Neuwieder Str. 5","56584","Anhausen"
"Total","Neuwieder Str. 5","56584","Anhausen"
"Total","Elztal Nord; A 48","56729","Kehrig"
"Total","Elztal Nord; A 48","56729","Kehrig"
"Total","Aktienstr. 88","56626","Andernach"
"Total","Aktienstr. 88","56626","Andernach"
"Total","Koblenzer Str. 53-55","56626","Andernach"
"Total","Koblenzer Str. 53-55","56626","Andernach"
"Total","Marienborner Str. 204","57074","Siegen"
"Total","Marienborner Str. 204","57074","Siegen"
"Total","Gottl.-Daimler-Str. 2","54516","Wittlich"
"Total","Gottl.-Daimler-Str. 2","54516","Wittlich"
"Total","Friedrichstr. 58","54516","Wittlich"
"Total","Friedrichstr. 58","54516","Wittlich"
"Total","Friedrichstr. 41","54516","Wittlich"
"Total","Friedrichstr. 41","54516","Wittlich"
"Total","Kohlenstr. 51","54296","Trier-Tarforst"
"Total","Kohlenstr. 51","54296","Trier-Tarforst"
"Total","Wenschtstr. 7","57078","Siegen"
"Total","Wenschtstr. 7","57078","Siegen"
"Total","Servaisstr. 1","54293","Trier-Ehrang"
"Total","Servaisstr. 1","54293","Trier-Ehrang"
"Total","Zurmaienerstr. 155-157","54292","Trier"
"Total","Zurmaienerstr. 155-157","54292","Trier"
"Total","Bab Eifel-Ost / A 48","54533","Niederoefflingen"
"Total","Bab Eifel-Ost / A 48","54533","Niederoefflingen"
"Total","Brunostr. 34","54329","Konz"
"Total","Brunostr. 34","54329","Konz"
"Total","Eurener Str. 92","54294","Trier-Euren"
"Total","Eurener Str. 92","54294","Trier-Euren"
"Total","Lindenallee 37","57577","Hamm"
"Total","Lindenallee 37","57577","Hamm"
"Total","Bab-Brohltal-Ost/A 61","56651","Niederzissen"
"Total","Bab-Brohltal-Ost/A 61","56651","Niederzissen"
"Total","Bab Brohltal West/A 61","56651","Niederzissen"
"Total","Bab Brohltal West/A 61","56651","Niederzissen"
"Total","Hauptstr. 23","56767","Uersfeld"
"Total","Hauptstr. 23","56767","Uersfeld"
"Total","Lindenstr. 25","54662","Herforst"
"Total","Lindenstr. 25","54662","Herforst"
"Total","Hagener Str. 239","57223","Kreuztal"
"Total","Hagener Str. 239","57223","Kreuztal"
"Total","Bahnhofstr. 37","57392","Schmallenberg"
"Total","Bahnhofstr. 37","57392","Schmallenberg"
"Total","Windmuehle / B 51","54298","Welschbillig"
"Total","Windmuehle / B 51","54298","Welschbillig"
"Total","Asbacher Str. 55","53545","Linz"
"Total","Asbacher Str. 55","53545","Linz"
"Total","Koelner Str. 17A","53489","Sinzig"
"Total","Koelner Str. 17A","53489","Sinzig"
"Total","Sinziger Str. 15","53424","Remagen"
"Total","Sinziger Str. 15","53424","Remagen"
"Total","An Der B 51","54636","Meckel-Meilbrueck"
"Total","An Der B 51","54636","Meckel-Meilbrueck"
"Total","Martinstr. 61","57462","Olpe"
"Total","Martinstr. 61","57462","Olpe"
"Total","Westfaelische Str. 92","57462","Olpe"
"Total","Westfaelische Str. 92","57462","Olpe"
"Total","Westerwaldstr. 37","53773","Hennef"
"Total","Westerwaldstr. 37","53773","Hennef"
"Total","Koelner Str. 18","54634","Bitburg"
"Total","Koelner Str. 18","54634","Bitburg"
"Total","Koelner Str. 86","57439","Attendorn"
"Total","Koelner Str. 86","57439","Attendorn"
"Total","Koblenzer Str. 195","53177","Bonn-Bad Godesberg"
"Total","Koblenzer Str. 195","53177","Bonn-Bad Godesberg"
"Total","Hauptstr. 62","51674","Wiehl"
"Total","Hauptstr. 62","51674","Wiehl"
"Total","Ubierstr. 8","53173","Bonn"
"Total","Ubierstr. 8","53173","Bonn"
"Total","Dieringhauser Str. 17","51645","Gummersbach"
"Total","Dieringhauser Str. 17","51645","Gummersbach"
"Total","Kessenicher Str. 212","53129","Bonn-Dottendorf"
"Total","Kessenicher Str. 212","53129","Bonn-Dottendorf"
"Total","Provinzialstr. 55","53127","Bonn"
"Total","Provinzialstr. 55","53127","Bonn"
"Total","Koelnstr. 10-16","53111","Bonn"
"Total","Koelnstr. 10-16","53111","Bonn"
"Total","Julius-Leber-Str. 2c","53123","Bonn"
"Total","Julius-Leber-Str. 2c","53123","Bonn"
"Total","Konrad-Adenauer-Damm 200","53123","Bonn"
"Total","Konrad-Adenauer-Damm 200","53123","Bonn"
"Total","Im Neyl 30","59823","Arnsberg"
"Total","Im Neyl 30","59823","Arnsberg"
"Total","Koelner Str. 20","54584","Juenkerath"
"Total","Koelner Str. 20","54584","Juenkerath"
"Total","Ritzstr. 23","54595","Pruem"
"Total","Ritzstr. 23","54595","Pruem"
"Total","O.-V.-Nell-Breuning 4","51503","Roesrath"
"Total","O.-V.-Nell-Breuning 4","51503","Roesrath"
"Total","Bonner Str. 71","53332","Bornheim"
"Total","Bonner Str. 71","53332","Bornheim"
"Total","An Der B 51","54597","Olzheim"
"Total","An Der B 51","54597","Olzheim"
"Total","Altenlinde 1","51789","Lindlar"
"Total","Altenlinde 1","51789","Lindlar"
"Total","Am Hellenkreuz 1","53332","Bornheim"
"Total","Am Hellenkreuz 1","53332","Bornheim"
"Total","Uetterlingser Str. 39","58791","Werdohl"
"Total","Uetterlingser Str. 39","58791","Werdohl"
"Total","Lindlarer Str. 143","51491","Overath"
"Total","Lindlarer Str. 143","51491","Overath"
"Total","Olper Str. 43","51491","Overath"
"Total","Olper Str. 43","51491","Overath"
"Total","Nordallee 2","51147","Koeln"
"Total","Nordallee 2","51147","Koeln"
"Total","Kommerner Str. 147","53879","Euskirchen"
"Total","Kommerner Str. 147","53879","Euskirchen"
"Total","Altenaer Str. 244","58513","Luedenscheid"
"Total","Altenaer Str. 244","58513","Luedenscheid"
"Total","Frankfurter Str. 85","58553","Halver"
"Total","Frankfurter Str. 85","58553","Halver"
"Total","Ahrstr. 24","53925","Kall"
"Total","Ahrstr. 24","53925","Kall"
"Total","Bensberger Str. 240","51469","Bergisch Gladbach"
"Total","Bensberger Str. 240","51469","Bergisch Gladbach"
"Total","Olpener Str. 690","51109","Koeln"
"Total","Olpener Str. 690","51109","Koeln"
"Total","Kapellenstr. 29","50997","Koeln Rondorf"
"Total","Kapellenstr. 29","50997","Koeln Rondorf"
"Total","Volmestr. 49","58579","Schalksmuehle"
"Total","Volmestr. 49","58579","Schalksmuehle"
"Total","Siegburger Str. 490-492","51105","Koeln"
"Total","Siegburger Str. 490-492","51105","Koeln"
"Total","Paffrather Str. 215","51469","Bergisch Gladbach"
"Total","Paffrather Str. 215","51469","Bergisch Gladbach"
"Total","Bonner Str. 417-425","50968","Koeln"
"Total","Bonner Str. 417-425","50968","Koeln"
"Total","Holzmarkt 49","50676","Koeln"
"Total","Holzmarkt 49","50676","Koeln"
"Total","Oestinghauser Str. 14","59494","Soest"
"Total","Oestinghauser Str. 14","59494","Soest"
"Total","Herriger Str. 36-38","50374","Erftstadt-Lechenich"
"Total","Herriger Str. 36-38","50374","Erftstadt-Lechenich"
"Total","Werler Str. 60","58706","Menden"
"Total","Werler Str. 60","58706","Menden"
"Total","Berliner Str. 25","51377","Leverkusen"
"Total","Berliner Str. 25","51377","Leverkusen"
"Total","Unnaer Landstr. 87","58708","Menden"
"Total","Unnaer Landstr. 87","58708","Menden"
"Total","Ehrenfeldguertel 2","50823","Koeln"
"Total","Ehrenfeldguertel 2","50823","Koeln"
"Total","Westicker Str. 58","58730","Froendenberg"
"Total","Westicker Str. 58","58730","Froendenberg"
"Total","Kalthofer Feld 1","58640","Iserlohn"
"Total","Kalthofer Feld 1","58640","Iserlohn"
"Total","Adolf-Kaschny-Str. 15","51373","Leverkusen"
"Total","Adolf-Kaschny-Str. 15","51373","Leverkusen"
"Total","Pommernstr. 16","51379","Leverkusen"
"Total","Pommernstr. 16","51379","Leverkusen"
"Total","Am Sportpark 32","58097","Hagen"
"Total","Am Sportpark 32","58097","Hagen"
"Total","Bab Suedseite / A 4","50226","Frechen"
"Total","Bab Suedseite / A 4","50226","Frechen"
"Total","Schuetzenstr. 18","58239","Schwerte"
"Total","Schuetzenstr. 18","58239","Schwerte"
"Total","Werler Str. 66","59457","Werl"
"Total","Werler Str. 66","59457","Werl"
"Total","Schwerter Str. 161","58099","Hagen-Boele"
"Total","Schwerter Str. 161","58099","Hagen-Boele"
"Total","Wandhofener Str. 9","58099","Hagen"
"Total","Wandhofener Str. 9","58099","Hagen"
"Total","Weststr. 10","58089","Hagen"
"Total","Weststr. 10","58089","Hagen"
"Total","Vogelsanger Str. 37","58300","Wetter"
"Total","Vogelsanger Str. 37","58300","Wetter"
"Total","Iserlohner Str. 45","59423","Unna"
"Total","Iserlohner Str. 45","59423","Unna"
"Total","Duerener Str. 38","52372","Kreuzau"
"Total","Duerener Str. 38","52372","Kreuzau"
"Total","Hertingerstr. 113","59423","Unna"
"Total","Hertingerstr. 113","59423","Unna"
"Total","Grundschoetteler Str 58","58300","Wetter"
"Total","Grundschoetteler Str 58","58300","Wetter"
"Total","Feldstr. 7","59423","Unna"
"Total","Feldstr. 7","59423","Unna"
"Total","Trierer Str. 232","52156","Monschau"
"Total","Trierer Str. 232","52156","Monschau"
"Total","Valdersweg 99","52399","Merzenich"
"Total","Valdersweg 99","52399","Merzenich"
"Total","Autohof Straengenbach 1","59510","Lippetal"
"Total","Autohof Straengenbach 1","59510","Lippetal"
"Total","Osterfeldstr. 60","58300","Wetter"
"Total","Osterfeldstr. 60","58300","Wetter"
"Total","Werler Str. 370","59069","Hamm"
"Total","Werler Str. 370","59069","Hamm"
"Total","Schoellerstr. 155","52351","Dueren"
"Total","Schoellerstr. 155","52351","Dueren"
"Total","Neue Juelicher Str. 45","52353","Dueren"
"Total","Neue Juelicher Str. 45","52353","Dueren"
"Total","Zollhausstr. 10","52353","Dueren"
"Total","Zollhausstr. 10","52353","Dueren"
"Total","Alter Uentroper W. 62","59071","Hamm"
"Total","Alter Uentroper W. 62","59071","Hamm"
"Total","Hafenstr. 2","59065","Hamm"
"Total","Hafenstr. 2","59065","Hamm"
"Total","Dortmunder Str. 174","59077","Hamm"
"Total","Dortmunder Str. 174","59077","Hamm"
"Total","Bundesstraﬂehaus Nr. 7","52159","Roetgen"
"Total","Bundesstraﬂehaus Nr. 7","52159","Roetgen"
"Total","Duerener Str. 308","52249","Eschweiler"
"Total","Duerener Str. 308","52249","Eschweiler"
"Total","Autohof Nord-Lippe Str. 44","59368","Werne-Stockum"
"Total","Autohof Nord-Lippe Str. 44","59368","Werne-Stockum"
"Total","Duerener Str. 168-172","52249","Eschweiler"
"Total","Duerener Str. 168-172","52249","Eschweiler"
"Total","Praemienstr. 30","52223","Stolberg"
"Total","Praemienstr. 30","52223","Stolberg"
"Total","Roermonder Str. 315","52072","Aachen"
"Total","Roermonder Str. 315","52072","Aachen"
"Total","Geilenkirchener Str 414","52134","Herzogenrath"
"Total","Geilenkirchener Str 414","52134","Herzogenrath"
"Total","Voccartstr. 80","52134","Herzogenrath"
"Total","Voccartstr. 80","52134","Herzogenrath"
"Total","Borsigstr. 42","52525","Heinsberg"
"Total","Borsigstr. 42","52525","Heinsberg"
"Total","Liecker Str. 62","52525","Heinsberg"
"Total","Liecker Str. 62","52525","Heinsberg"
"Total","Eichenb¸hler Str. 52","63897","Miltenberg"
"Total","Eichenb¸hler Str. 52","63897","Miltenberg"
"Total","Schatthaeuser Str. 44","69168","Wiesloch"
"Total","Schatthaeuser Str. 44","69168","Wiesloch"
"Total","Hauptstr. 180","69168","Wiesloch"
"Total","Hauptstr. 180","69168","Wiesloch"
"Total","Bahnhofstr. 35","69190","Walldorf"
"Total","Bahnhofstr. 35","69190","Walldorf"
"Total","Ringstr. 12","69115","Heidelberg"
"Total","Ringstr. 12","69115","Heidelberg"
"Total","Czernyring 1","69115","Heidelberg"
"Total","Czernyring 1","69115","Heidelberg"
"Total","Grenzhoefer Weg 35","69123","Heidelberg"
"Total","Grenzhoefer Weg 35","69123","Heidelberg"
"Total","Altlussheimer Str. 54","68809","Neulussheim"
"Total","Altlussheimer Str. 54","68809","Neulussheim"
"Total","Hockenheimer Str. 108","68775","Ketsch"
"Total","Hockenheimer Str. 108","68775","Ketsch"
"Total","Landstr. 7","69493","Hirschberg an der Bergstrasse"
"Total","Landstr. 7","69493","Hirschberg an der Bergstrasse"
"Total","Goldbeckstr. 1","69493","Hirschberg an der Bergstrasse"
"Total","Goldbeckstr. 1","69493","Hirschberg an der Bergstrasse"
"Total","Weinheimer Str. 34","69509","Moerlenbach"
"Total","Weinheimer Str. 34","69509","Moerlenbach"
"Total","Hoechster Str. 33","64747","Breuberg-Sandbach"
"Total","Hoechster Str. 33","64747","Breuberg-Sandbach"
"Total","Bergstr. 13-15","69469","Weinheim"
"Total","Bergstr. 13-15","69469","Weinheim"
"Total","Am Heerbach 1","63857","Waldaschaff"
"Total","Am Heerbach 1","63857","Waldaschaff"
"Total","Edinger Riedweg 8-12","68219","Mannheim"
"Total","Edinger Riedweg 8-12","68219","Mannheim"
"Total","Lindenstr. 18-20","67346","Speyer"
"Total","Lindenstr. 18-20","67346","Speyer"
"Total","Schwabenstr. 41","68239","Mannheim"
"Total","Schwabenstr. 41","68239","Mannheim"
"Total","Heidelberger Str. 71","64385","Reichelsheim"
"Total","Heidelberger Str. 71","64385","Reichelsheim"
"Total","Germersheimer Str. 2A","67354","Roemerberg"
"Total","Germersheimer Str. 2A","67354","Roemerberg"
"Total","Wormser Landstr. 255","67346","Speyer"
"Total","Wormser Landstr. 255","67346","Speyer"
"Total","Wormser Str. 2","68519","Viernheim"
"Total","Wormser Str. 2","68519","Viernheim"
"Total","Schillerstr. 80","63741","Aschaffenburg"
"Total","Schillerstr. 80","63741","Aschaffenburg"
"Total","Fr.-Ebert-Str. 14-16","68167","Mannheim"
"Total","Fr.-Ebert-Str. 14-16","68167","Mannheim"
"Total","Moersweg 40","64823","Gross-Umstadt"
"Total","Moersweg 40","64823","Gross-Umstadt"
"Total","Mundenheimer Str. 74","67061","Ludwigshafen"
"Total","Mundenheimer Str. 74","67061","Ludwigshafen"
"Total","Hafenbahnstr 74","68305","Mannheim"
"Total","Hafenbahnstr 74","68305","Mannheim"
"Total","Hauptstr. 257","67065","Ludwigshafen"
"Total","Hauptstr. 257","67065","Ludwigshafen"
"Total","Bergstr. 34","67067","Ludwigshafen-Maudach"
"Total","Bergstr. 34","67067","Ludwigshafen-Maudach"
"Total","Nibelungenstr. 129","64653","Lorsch"
"Total","Nibelungenstr. 129","64653","Lorsch"
"Total","Bab Westseite / A 61","67125","Dannstadt-Schauernheim"
"Total","Bab Westseite / A 61","67125","Dannstadt-Schauernheim"
"Total","Bab West A 67","64653","Lorsch"
"Total","Bab West A 67","64653","Lorsch"
"Total","Bab Ost A 67","64653","Lorsch"
"Total","Bab Ost A 67","64653","Lorsch"
"Total","Bouxwiller Str. 1","64832","Babenhausen"
"Total","Bouxwiller Str. 1","64832","Babenhausen"
"Total","Darmstaedter Str. 44","64673","Zwingenberg"
"Total","Darmstaedter Str. 44","64673","Zwingenberg"
"Total","Buerstaedter Str. 78","68623","Lampertheim"
"Total","Buerstaedter Str. 78","68623","Lampertheim"
"Total","Hanauer Landstr. 114","63791","Karlstein"
"Total","Hanauer Landstr. 114","63791","Karlstein"
"Total","Industriestr. 2","63533","Mainhausen"
"Total","Industriestr. 2","63533","Mainhausen"
"Total","Bab Pfaelzer Weinstraﬂeost/A 65","67483","Edesheim"
"Total","Bab Pfaelzer Weinstraﬂeost/A 65","67483","Edesheim"
"Total","Staatsstr. 47A","67483","Edesheim"
"Total","Staatsstr. 47A","67483","Edesheim"
"Total","Foltzring 38-40","67227","Frankenthal"
"Total","Foltzring 38-40","67227","Frankenthal"
"Total","Kaelberauer Str. 12","63755","Alzenau"
"Total","Kaelberauer Str. 12","63755","Alzenau"
"Total","Oberroederstr. 29","64859","Eppertshausen"
"Total","Oberroederstr. 29","64859","Eppertshausen"
"Total","Hainburger Str. 51","63110","Rodgau"
"Total","Hainburger Str. 51","63110","Rodgau"
"Total","Frankentaler Str. 23","67258","Hessheim"
"Total","Frankentaler Str. 23","67258","Hessheim"
"Total","Darmstaedter Str. 143","68647","Biblis"
"Total","Darmstaedter Str. 143","68647","Biblis"
"Total","Hanauerstr. 61","63579","Freigericht"
"Total","Hanauerstr. 61","63579","Freigericht"
"Total","Eschollbruecker Straﬂe","64319","Pfungstadt"
"Total","Eschollbruecker Straﬂe","64319","Pfungstadt"
"Total","Heidelberger Str. 55","64285","Darmstadt"
"Total","Heidelberger Str. 55","64285","Darmstadt"
"Total","Siemensstr. 2","64289","Darmstadt"
"Total","Siemensstr. 2","64289","Darmstadt"
"Total","Hochstr. 23","63571","Gelnhausen"
"Total","Hochstr. 23","63571","Gelnhausen"
"Total","Vosswaldestr. 1","63457","Hanau"
"Total","Vosswaldestr. 1","63457","Hanau"
"Total","Rodgaustr. 6","63457","Hanau"
"Total","Rodgaustr. 6","63457","Hanau"
"Total","Leipziger Str. 52","63450","Hanau"
"Total","Leipziger Str. 52","63450","Hanau"
"Total","Graefenhausen West A 5","64331","Weiterstadt"
"Total","Graefenhausen West A 5","64331","Weiterstadt"
"Total","Autohof Rosengartenweg 1","67281","Kirchheim"
"Total","Autohof Rosengartenweg 1","67281","Kirchheim"
"Total","Rˆntgenstr. 1","63526","Erlensee"
"Total","Rˆntgenstr. 1","63526","Erlensee"
"Total","Roemerstr. 1","64560","Riedstadt"
"Total","Roemerstr. 1","64560","Riedstadt"
"Total","Rheinstr. 38","67574","Osthofen"
"Total","Rheinstr. 38","67574","Osthofen"
"Total","Leininger Str. 39-41","67269","Gruenstadt"
"Total","Leininger Str. 39-41","67269","Gruenstadt"
"Total","Darmstaedter Str. 92","63303","Dreieich"
"Total","Darmstaedter Str. 92","63303","Dreieich"
"Total","Berliner Allee 12","63225","Langen"
"Total","Berliner Allee 12","63225","Langen"
"Total","Aschaffenburger Str 96","63073","Offenbach"
"Total","Aschaffenburger Str 96","63073","Offenbach"
"Total","Eisenbahnstr. 210","63303","Dreieich"
"Total","Eisenbahnstr. 210","63303","Dreieich"
"Total","Roemerstr. 16","63486","Bruchkoebel"
"Total","Roemerstr. 16","63486","Bruchkoebel"
"Total","Industriestr. 19","64546","Mˆrfelden-Walldorf"
"Total","Industriestr. 19","64546","Mˆrfelden-Walldorf"
"Total","Wattenheimer Str. 28","67310","Hettenleidelheim"
"Total","Wattenheimer Str. 28","67310","Hettenleidelheim"
"Total","Ruesselsheimer Str. 60","64546","Moerfelden-Walldorf"
"Total","Ruesselsheimer Str. 60","64546","Moerfelden-Walldorf"
"Total","Rosenthaler Str. 2","67304","Eisenberg"
"Total","Rosenthaler Str. 2","67304","Eisenberg"
"Total","Hafenstr. 41","55276","Oppenheim"
"Total","Hafenstr. 41","55276","Oppenheim"
"Total","Vilbeler Landstr. 96","60388","Frankfurt am Main"
"Total","Vilbeler Landstr. 96","60388","Frankfurt am Main"
"Total","Darmstaedter Landstr 2","64569","Nauheim"
"Total","Darmstaedter Landstr 2","64569","Nauheim"
"Total","Goldsteinstr. 221","60528","Frankfurt am Main"
"Total","Goldsteinstr. 221","60528","Frankfurt am Main"
"Total","Eckenheimer Landstr. 181","60320","Frankfurt"
"Total","Eckenheimer Landstr. 181","60320","Frankfurt"
"Total","Alte Frankfurter Str. 92","61118","Bad Vilbel"
"Total","Alte Frankfurter Str. 92","61118","Bad Vilbel"
"Total","Rossertstr. 2","65451","Kelsterbach"
"Total","Rossertstr. 2","65451","Kelsterbach"
"Total","Kurhessenstr. 111","60431","Frankfurt"
"Total","Kurhessenstr. 111","60431","Frankfurt"
"Total","Hasslocher Str. 149","65428","Ruesselsheim"
"Total","Hasslocher Str. 149","65428","Ruesselsheim"
"Total","Bundesstr. B 10","66981","Muenchweiler-Staendenhof"
"Total","Bundesstr. B 10","66981","Muenchweiler-Staendenhof"
"Total","Heerstr. 78","60488","Frankfurt am Main"
"Total","Heerstr. 78","60488","Frankfurt am Main"
"Total","Pirmasenser Str. 26","66969","Lemberg"
"Total","Pirmasenser Str. 26","66969","Lemberg"
"Total","An der Bornhohl 56","60437","Frankfurt am Main"
"Total","An der Bornhohl 56","60437","Frankfurt am Main"
"Total","Frankfurter Str. 92","65830","Kriftel"
"Total","Frankfurter Str. 92","65830","Kriftel"
"Total","Mainzer Str. 140","67657","Kaiserslautern"
"Total","Mainzer Str. 140","67657","Kaiserslautern"
"Total","Zeilsheimer Str. 37-39","65719","Hofheim"
"Total","Zeilsheimer Str. 37-39","65719","Hofheim"
"Total","Hauptstr. 103","65843","Sulzbach"
"Total","Hauptstr. 103","65843","Sulzbach"
"Total","Hoherodskopfstr. 2","63667","Nidda"
"Total","Hoherodskopfstr. 2","63667","Nidda"
"Total","Blocksbergstr. 55","66955","Pirmasens"
"Total","Blocksbergstr. 55","66955","Pirmasens"
"Total","Jakobstr. 43","67722","Winnweiler"
"Total","Jakobstr. 43","67722","Winnweiler"
"Total","Koenigstr. 131","67655","Kaiserslautern"
"Total","Koenigstr. 131","67655","Kaiserslautern"
"Total","Obere Lauter Str. 37","67731","Otterbach"
"Total","Obere Lauter Str. 37","67731","Otterbach"
"Total","Taunusstr. 1","61191","Rosbach"
"Total","Taunusstr. 1","61191","Rosbach"
"Total","Lorsbacher Str. 14","65817","Eppstein"
"Total","Lorsbacher Str. 14","65817","Eppstein"
"Total","Mainzer Str. 104","65189","Wiesbaden"
"Total","Mainzer Str. 104","65189","Wiesbaden"
"Total","Erich-Ollenhauer-Str. 147","65187","Wiesbaden"
"Total","Erich-Ollenhauer-Str. 147","65187","Wiesbaden"
"Total","Dotzheimer Str. 184","65197","Wiesbaden"
"Total","Dotzheimer Str. 184","65197","Wiesbaden"
"Total","Klarenthaler Str. 44","65197","Wiesbaden"
"Total","Klarenthaler Str. 44","65197","Wiesbaden"
"Total","Idsteiner Str. 50","65527","Niedernhausen"
"Total","Idsteiner Str. 50","65527","Niedernhausen"
"Total","Pirmasenser Str. 93","66497","Contwig"
"Total","Pirmasenser Str. 93","66497","Contwig"
"Total","Weilburger Str. 30/33","61250","Usingen"
"Total","Weilburger Str. 30/33","61250","Usingen"
"Total","Aarstr. 212","65232","Taunusstein"
"Total","Aarstr. 212","65232","Taunusstein"
"Total","Wiesbadener Str. 77","65510","Idstein"
"Total","Wiesbadener Str. 77","65510","Idstein"
"Total","Kaiserslauterer Str. 37","66424","Homburg-Bruchhof"
"Total","Kaiserslauterer Str. 37","66424","Homburg-Bruchhof"
"Total","Bahnhofstr. 31A","65520","Bad Camberg"
"Total","Bahnhofstr. 31A","65520","Bad Camberg"
"Total","Kleinottweiler Str. 30","66450","Bexbach"
"Total","Kleinottweiler Str. 30","66450","Bexbach"
"Total","Am Torhaus 8","66450","Bexbach"
"Total","Am Torhaus 8","66450","Bexbach"
"Total","Doerrenbacher Str. 22","66564","Ottweiler"
"Total","Doerrenbacher Str. 22","66564","Ottweiler"
"Total","Obere Kaiserstr. 9","66386","St. Ingbert"
"Total","Obere Kaiserstr. 9","66386","St. Ingbert"
"Total","Konrad-Adenauer-Str. 29","66271","Kleinblittersdorf"
"Total","Konrad-Adenauer-Str. 29","66271","Kleinblittersdorf"
"Total","Haupersweiler Str. 1","66629","Freisen-Oberkirchen"
"Total","Haupersweiler Str. 1","66629","Freisen-Oberkirchen"
"Total","Ensheimer Str. 162","66386","St. Ingbert"
"Total","Ensheimer Str. 162","66386","St. Ingbert"
"Total","Mainzer Str. 4","65550","Limburg-Linter"
"Total","Mainzer Str. 4","65550","Limburg-Linter"
"Total","Saarbruecker Str. 1b","66299","Friedrichsthal"
"Total","Saarbruecker Str. 1b","66299","Friedrichsthal"
"Total","Grossblittersdorfer Str. 252","66119","Saarbruecken"
"Total","Grossblittersdorfer Str. 252","66119","Saarbruecken"
"Total","Schiede 10","65549","Limburg"
"Total","Schiede 10","65549","Limburg"
"Total","Martin-Luther-Str. 21","66111","Saarbruecken"
"Total","Martin-Luther-Str. 21","66111","Saarbruecken"
"Total","Dudweiler Str. 111","66111","Saarbruecken"
"Total","Dudweiler Str. 111","66111","Saarbruecken"
"Total","Sulzbachtalstr. 19","66125","Saarbruecken"
"Total","Sulzbachtalstr. 19","66125","Saarbruecken"
"Total","Bab-Goldene Bremm Nord/A 6 A 6","66117","Saarbruecken"
"Total","Bab-Goldene Bremm Sued/A 6 A 6","66117","Saarbruecken"
"Total","Bab-Goldene Bremm Nord/A 6 A 6","66117","Saarbruecken"
"Total","Bab-Goldene Bremm Sued/A 6 A 6","66117","Saarbruecken"
"Total","Deutschherrnstr. 34-40","66117","Saarbruecken"
"Total","Deutschherrnstr. 34-40","66117","Saarbruecken"
"Total","Metzer Str. 123","66117","Saarbruecken"
"Total","Metzer Str. 123","66117","Saarbruecken"
"Total","St. Wendeler Str. 33","66606","St. Wendel"
"Total","St. Wendeler Str. 33","66606","St. Wendel"
"Total","Hauptstr. 258","66287","Quierschied"
"Total","Hauptstr. 258","66287","Quierschied"
"Total","Burbacher Str. 50","66117","Saarbruecken"
"Total","Burbacher Str. 50","66117","Saarbruecken"
"Total","Koellertalstr. 141","66346","Puettlingen"
"Total","Koellertalstr. 141","66346","Puettlingen"
"Total","Theeltalstr. 50","66636","Tholey-Hasborn"
"Total","Theeltalstr. 50","66636","Tholey-Hasborn"
"Total","Heeresstr. 27","66822","Lebach"
"Total","Heeresstr. 27","66822","Lebach"
"Total","Saarbruecker Str. 67","66359","Bous"
"Total","Saarbruecker Str. 67","66359","Bous"
"Total","Bab A 620 Suedseite 620","66740","Saarlouis"
"Total","Bab A 620 Suedseite 620","66740","Saarlouis"
"","BAB A 620 SUEDSEITE","66740","SAARLOUIS"
"","BAB A 620 SUEDSEITE","66740","SAARLOUIS"
"Total","Heidenheimer Str. 17","73450","Neresheim"
"Total","Heidenheimer Str. 17","73450","Neresheim"
"Total","In der Waage 1","73463","Westhausen"
"Total","In der Waage 1","73463","Westhausen"
"Total","Ellwanger Berge West A 7","73479","Ellwangen"
"Total","Ellwanger Berge West A 7","73479","Ellwangen"
"Total","Koenigstr. 52","73326","Deggingen"
"Total","Koenigstr. 52","73326","Deggingen"
"Total","Lorcher Str. 199","73529","Schwaebisch-Gmuend"
"Total","Lorcher Str. 199","73529","Schwaebisch-Gmuend"
"Total","Lorcher Str. 67","73033","Goeppingen"
"Total","Lorcher Str. 67","73033","Goeppingen"
"Total","Haller Str. 195","74564","Crailsheim"
"Total","Haller Str. 195","74564","Crailsheim"
"Total","Im Hag 2-4","73230","Kirchheim/Teck"
"Total","Im Hag 2-4","73230","Kirchheim/Teck"
"Total","Stuttgarter Str. 62","73614","Schorndorf"
"Total","Stuttgarter Str. 62","73614","Schorndorf"
"Total","Suesswiesenstr. 2","74549","Wolpertshausen"
"Total","Suesswiesenstr. 2","74549","Wolpertshausen"
"Total","Bahnhofstr. 4 /B 33","72517","Sigmaringendorf"
"Total","Bahnhofstr. 4 /B 33","72517","Sigmaringendorf"
"Total","Johanniter Str. 44","74523","Schwaebisch Hall"
"Total","Johanniter Str. 44","74523","Schwaebisch Hall"
"Total","Egerlaender Weg 2","74523","Schwaebisch Hall"
"Total","Egerlaender Weg 2","74523","Schwaebisch Hall"
"Total","Bahnhofstr. 23","73257","Koengen"
"Total","Bahnhofstr. 23","73257","Koengen"
"Total","Nuertinger Str. 64","72555","Metzingen"
"Total","Nuertinger Str. 64","72555","Metzingen"
"Total","Urbanstr. 65","73728","Esslingen"
"Total","Urbanstr. 65","73728","Esslingen"
"Total","Storlachstr. 2","72760","Reutlingen"
"Total","Storlachstr. 2","72760","Reutlingen"
"Total","Harth.Hauptstr. 50-52","70794","Filderstadt-Harth"
"Total","Harth.Hauptstr. 50-52","70794","Filderstadt-Harth"
"Total","Kornweg 1 / L 1140","71409","Schwaikheim"
"Total","Kornweg 1 / L 1140","71409","Schwaikheim"
"Total","Plieninger Str. 51","70794","Filderstadt"
"Total","Plieninger Str. 51","70794","Filderstadt"
"Total","Ohmstr. 25","70736","Fellbach"
"Total","Ohmstr. 25","70736","Fellbach"
"Total","Neckarstr. 47","71334","Waiblingen"
"Total","Neckarstr. 47","71334","Waiblingen"
"Total","Daimler Str. 1","71546","Aspach"
"Total","Daimler Str. 1","71546","Aspach"
"Total","Ulmer Str. 206","70188","Stuttgart"
"Total","Ulmer Str. 206","70188","Stuttgart"
"Total","Nuernberger Str. 9","70374","Stuttgart"
"Total","Nuernberger Str. 9","70374","Stuttgart"
"Total","Aldinger Str. 8","71686","Remseck"
"Total","Aldinger Str. 8","71686","Remseck"
"Total","Meisenweg 8","70771","Leinfelden"
"Total","Meisenweg 8","70771","Leinfelden"
"Total","Rheinlandstr. 28-30","72070","Tuebingen"
"Total","Rheinlandstr. 28-30","72070","Tuebingen"
"Total","Martin-Luther-Str. 11","71636","Ludwigsburg"
"Total","Martin-Luther-Str. 11","71636","Ludwigsburg"
"Total","Bab- Wunnenstein Ost/A 81 A 81","74360","Ilsfeld"
"Total","Bab- Wunnenstein Ost/A 81 A 81","74360","Ilsfeld"
"Total","Bab-Wunnenstein-West/A 81 A 81","74360","Ilsfeld"
"Total","Bab-Wunnenstein-West/A 81 A 81","74360","Ilsfeld"
"Total","Boeblinger Str. 6","71116","Gaertringen"
"Total","Boeblinger Str. 6","71116","Gaertringen"
"Total","Erligheimer Str. 20","74369","Loechgau"
"Total","Erligheimer Str. 20","74369","Loechgau"
"Total","Kolpingstr. 32","74081","Heilbronn"
"Total","Kolpingstr. 32","74081","Heilbronn"
"Total","Daetzinger Str. 36","71120","Grafenau"
"Total","Daetzinger Str. 36","71120","Grafenau"
"Total","Langes Gewand 3","78604","Rietheim-Weilheim"
"Total","Langes Gewand 3","78604","Rietheim-Weilheim"
"Total","Saarbrueckener Str. 41","74078","Heilbronn"
"Total","Saarbrueckener Str. 41","74078","Heilbronn"
"Total","Aacher Str. 18","78234","Engen"
"Total","Aacher Str. 18","78234","Engen"
"Total","Hauptstr. / Kornblumenweg 43","78244","Gottmadingen"
"Total","Hauptstr. / Kornblumenweg 43","78244","Gottmadingen"
"Total","Calwer Str. 304","72218","Wildberg"
"Total","Calwer Str. 304","72218","Wildberg"
"Total","Autohof Eythstr. 16A","72189","Voehringen"
"Total","Autohof Eythstr. 16A","72189","Voehringen"
"Total","Wimsheimer Str. 21","75233","Tiefenbronn"
"Total","Wimsheimer Str. 21","75233","Tiefenbronn"
"Total","Buch‰ckerring 40","74906","Bad Rappenau"
"Total","Buch‰ckerring 40","74906","Bad Rappenau"
"Total","Trossinger Str. 41","78609","Tuningen"
"Total","Trossinger Str. 41","78609","Tuningen"
"Total","Hauptstr. 26","74834","Elztal"
"Total","Hauptstr. 26","74834","Elztal"
"Total","Heidelberger Str. 27","74821","Mosbach-Neckarelz"
"Total","Heidelberger Str. 27","74821","Mosbach-Neckarelz"
"Total","Breslauer Str. 1","75181","Pforzheim"
"Total","Breslauer Str. 1","75181","Pforzheim"
"Total","Reihener Str. 24","74930","Ittlingen"
"Total","Reihener Str. 24","74930","Ittlingen"
"Total","Scheffelstr. 13","78073","Bad Duerrheim"
"Total","Scheffelstr. 13","78073","Bad Duerrheim"
"Total","Calwer Str. 99","75175","Pforzheim"
"Total","Calwer Str. 99","75175","Pforzheim"
"Total","Waibstaedter Str. 35","74924","Neckarbischofsheim"
"Total","Waibstaedter Str. 35","74924","Neckarbischofsheim"
"Total","Alte Steiner Str. 43","75239","Eisingen"
"Total","Alte Steiner Str. 43","75239","Eisingen"
"Total","Hauptstr. 72","74869","Schwarzach"
"Total","Hauptstr. 72","74869","Schwarzach"
"Total","Marxzeller Str. 90","75305","Neuenbuerg"
"Total","Marxzeller Str. 90","75305","Neuenbuerg"
"Total","Diedelsheimer Hoehe 6","75015","Bretten"
"Total","Diedelsheimer Hoehe 6","75015","Bretten"
"Total","Bundesstr. 1d","78112","St. Georgen im Schwarzwald"
"Total","Bundesstr. 1d","78112","St. Georgen im Schwarzwald"
"Total","Bundesstr. 16a","78112","St. Georgen im Schwarzwald"
"Total","Bundesstr. 16a","78112","St. Georgen im Schwarzwald"
"Total","Bruchsaler Str. 15","76698","Ubstadt"
"Total","Bruchsaler Str. 15","76698","Ubstadt"
"Total","Hambruecker Str. 59","76694","Forst"
"Total","Hambruecker Str. 59","76694","Forst"
"Total","Erlachseeweg 10","76227","Karlsruhe"
"Total","Erlachseeweg 10","76227","Karlsruhe"
"Total","Karlsruher Str. 82","76139","Karlsruhe"
"Total","Karlsruher Str. 82","76139","Karlsruhe"
"Total","Hausacher Str. 13","77793","Gutach"
"Total","Hausacher Str. 13","77793","Gutach"
"Total","Murgtalstr. 89","76571","Gaggenau"
"Total","Murgtalstr. 89","76571","Gaggenau"
"Total","Durmersheimer Str. 14A","76316","Malsch"
"Total","Durmersheimer Str. 14A","76316","Malsch"
"Total","Hechtsberg 8","77756","Hausach"
"Total","Hechtsberg 8","77756","Hausach"
"Total","Grabener Str. 11","76149","Karlsruhe"
"Total","Grabener Str. 11","76149","Karlsruhe"
"Total","Karlsruher Str. 61A","76351","Linkenheim-Hochstetten"
"Total","Karlsruher Str. 61A","76351","Linkenheim-Hochstetten"
"Total","Untere Wiesen 2","76437","Rastatt"
"Total","Untere Wiesen 2","76437","Rastatt"
"Total","Ooser Bahnhofstr. 53","76532","Baden-Baden"
"Total","Ooser Bahnhofstr. 53","76532","Baden-Baden"
"Total","Karlsruher Str. 16","76437","Rastatt"
"Total","Karlsruher Str. 16","76437","Rastatt"
"Total","Bergstr. 1","76547","Sinzheim"
"Total","Bergstr. 1","76547","Sinzheim"
"Total","Pfortzer Str. 1","76744","Woerth"
"Total","Pfortzer Str. 1","76744","Woerth"
"Total","Bahnhofstr. 45","76744","Woerth"
"Total","Bahnhofstr. 45","76744","Woerth"
"Total","Hauptstr. 25","77880","Sasbach"
"Total","Hauptstr. 25","77880","Sasbach"
"Total","Bahnhofstr. 8","77781","Biberach"
"Total","Bahnhofstr. 8","77781","Biberach"
"Total","Hafenstr. 2A","76726","Germersheim"
"Total","Hafenstr. 2A","76726","Germersheim"
"Total","Offenburger Str. 36","77855","Achern"
"Total","Offenburger Str. 36","77855","Achern"
"Total","Hauptstr. 4","79183","Waldkirch-Kollnau"
"Total","Hauptstr. 4","79183","Waldkirch-Kollnau"
"Total","Rammersweier Str. 18","77654","Offenburg"
"Total","Rammersweier Str. 18","77654","Offenburg"
"Total","In den Engematten 2","79286","Glottertal"
"Total","In den Engematten 2","79286","Glottertal"
"Total","Bergstr. 1","79737","Herrischried-Hogschu"
"Total","Bergstr. 1","79737","Herrischried-Hogschu"
"Total","Max-Planck-Str. B 3/ B33","77656","Offenburg"
"Total","Max-Planck-Str. B 3/ B33","77656","Offenburg"
"Total","Bismarckstr. 83","77933","Lahr"
"Total","Bismarckstr. 83","77933","Lahr"
"Total","Schutterstr. 3","77746","Schutterwald"
"Total","Schutterstr. 3","77746","Schutterwald"
"Total","Voerstetter Str. 40","79194","Gundelfingen"
"Total","Voerstetter Str. 40","79194","Gundelfingen"
"Total","Am Rheinuebergang","77866","Rheinau-Freistett"
"Total","Am Rheinuebergang","77866","Rheinau-Freistett"
"Total","Gundelfinger Str. 27","79108","Freiburg"
"Total","Gundelfinger Str. 27","79108","Freiburg"
"Total","Basler Str. 57","79100","Freiburg"
"Total","Basler Str. 57","79100","Freiburg"
"Total","Eschholzstr. 73","79106","Freiburg"
"Total","Eschholzstr. 73","79106","Freiburg"
"Total","Dundenheimer Str. 31","77743","Neuried"
"Total","Dundenheimer Str. 31","77743","Neuried"
"Total","Bab A5/Mahlberg-Ost 5","77972","Mahlberg"
"Total","Bab A5/Mahlberg-Ost 5","77972","Mahlberg"
"Total","Alte Landstr. 23-29","77972","Mahlberg-Orschweier"
"Total","Alte Landstr. 23-29","77972","Mahlberg-Orschweier"
"Total","Friedhofstr. 7","77694","Kehl"
"Total","Friedhofstr. 7","77694","Kehl"
"Total","Offenburger Str. 22","79341","Kenzingen"
"Total","Offenburger Str. 22","79341","Kenzingen"
"Total","Wasen 24","79244","Muenstertal"
"Total","Wasen 24","79244","Muenstertal"
"Total","Tunibergstr. 2","79189","Bad Krozingen"
"Total","Tunibergstr. 2","79189","Bad Krozingen"
"Total","Leonrodstr. 48","80636","Muenchen"
"Total","Leonrodstr. 48","80636","Muenchen"
"Total","Petuelring 92","80807","M¸nchen"
"Total","Petuelring 92","80807","M¸nchen"
"Total","Lerchenauerstr. 75","80809","Muenchen"
"Total","Lerchenauerstr. 75","80809","Muenchen"
"Total","Moosacher Str. 36","80809","Muenchen"
"Total","Moosacher Str. 36","80809","Muenchen"
"Total","Detmoldstr. 1","80935","Muenchen"
"Total","Detmoldstr. 1","80935","Muenchen"
"","Muenchner str. 92","82008","Unterhaching"
"","Muenchner str. 92","82008","Unterhaching"
"Total","Hicklstr. 2","85764","Oberschleissheim"
"Total","Hicklstr. 2","85764","Oberschleissheim"
"Total","Muenchner Str. 87","85221","Dachau"
"Total","Muenchner Str. 87","85221","Dachau"
"Total","Olchinger Str. 82","82194","Groebenzell"
"Total","Olchinger Str. 82","82194","Groebenzell"
"Total","Augsburger Str. 13","82110","Germering"
"Total","Augsburger Str. 13","82110","Germering"
"Total","Poinger Str. 2","85570","Markt Schwaben"
"Total","Poinger Str. 2","85570","Markt Schwaben"
"Total","Muenchnerstr. 11A","85375","Neufahrn"
"Total","Muenchnerstr. 11A","85375","Neufahrn"
"Total","Acheringer Hauptstr. 20","85354","Freising"
"Total","Acheringer Hauptstr. 20","85354","Freising"
"Total","Marktleitenweg 3","82335","Berg Hoehenrain Ost"
"Total","Marktleitenweg 3","82335","Berg Hoehenrain Ost"
"Total","Hauptstr. 40","85659","Forstern"
"Total","Hauptstr. 40","85659","Forstern"
"Total","Josef-Neumeier-Str. 1","85664","Hohenlinden"
"Total","Josef-Neumeier-Str. 1","85664","Hohenlinden"
"Total","Am Schachenfeld 1","83527","Haag"
"Total","Am Schachenfeld 1","83527","Haag"
"Total","Lenggrieser Str. 87","83646","Bad Toelz"
"Total","Lenggrieser Str. 87","83646","Bad Toelz"
"Total","Schwabmuenchner Str. 16","86836","Klosterlechfeld"
"Total","Schwabmuenchner Str. 16","86836","Klosterlechfeld"
"Total","Leonhardsberg 17","86150","Augsburg"
"Total","Leonhardsberg 17","86150","Augsburg"
"Total","Kufsteiner Str. 116","83064","Raubling"
"Total","Kufsteiner Str. 116","83064","Raubling"
"Total","Bab Samerberg/S¸d A 8","83101","Rohrdorf"
"Total","Bab Samerberg/S¸d A 8","83101","Rohrdorf"
"Total","Donauwoerther Str. 102","86154","Augsburg"
"Total","Donauwoerther Str. 102","86154","Augsburg"
"Total","Oberndorfer Str. 23a","84032","Landshut"
"Total","Oberndorfer Str. 23a","84032","Landshut"
"Total","Kraiburger Str. 13","84478","Waldkraiburg"
"Total","Kraiburger Str. 13","84478","Waldkraiburg"
"Total","Essbaum 2","83122","Samerberg"
"Total","Essbaum 2","83122","Samerberg"
"Total","Manchinger Str. 84","85053","Ingolstadt"
"Total","Manchinger Str. 84","85053","Ingolstadt"
"Total","Rosenheimer Str. 116","83080","Niederaudorf"
"Total","Rosenheimer Str. 116","83080","Niederaudorf"
"Total","Muenchner Str. 70","84453","Muehldorf"
"Total","Muenchner Str. 70","84453","Muehldorf"
"Total","Egglkofenstr. 2","84453","Muehldorf a. Inn"
"Total","Egglkofenstr. 2","84453","Muehldorf a. Inn"
"Total","Gewerbepark Frixing 3","84513","Erharting"
"Total","Gewerbepark Frixing 3","84513","Erharting"
"Total","B 2","86695","Nordendorf"
"Total","B 2","86695","Nordendorf"
"Total","Ruppertswies 6","85092","Koesching"
"Total","Ruppertswies 6","85092","Koesching"
"Total","Alemannenstr. 1","84130","Dingolfing"
"Total","Alemannenstr. 1","84130","Dingolfing"
"Total","Augsburger Str. 16","86609","Donauwoerth"
"Total","Augsburger Str. 16","86609","Donauwoerth"
"Total","Augsburger Str. 29","89331","Burgau"
"Total","Augsburger Str. 29","89331","Burgau"
"Total","Tiefstadt 10","84307","Eggenfelden"
"Total","Tiefstadt 10","84307","Eggenfelden"
"Total","Gutenbergstr. 2","87781","Ungerhausen"
"Total","Gutenbergstr. 2","87781","Ungerhausen"
"Total","Autohof Wilhelm-Maybach-Str. 3","89312","Guenzburg"
"Total","Autohof Wilhelm-Maybach-Str. 3","89312","Guenzburg"
"Total","Fuessener Str. 2A","87471","Durach"
"Total","Fuessener Str. 2A","87471","Durach"
"Total","Bahnhofstr. 22","89168","Niederstotzingen"
"Total","Bahnhofstr. 22","89168","Niederstotzingen"
"Total","Heidenheimer Str. 19","89537","Giengen an der Brenz"
"Total","Heidenheimer Str. 19","89537","Giengen an der Brenz"
"Total","Nuernberger Str. 61","86720","Noerdlingen"
"Total","Nuernberger Str. 61","86720","Noerdlingen"
"Total","An Der Leibi 1","89278","Nersingen"
"Total","An Der Leibi 1","89278","Nersingen"
"Total","Am Sauereck 2","86732","Oettingen"
"Total","Am Sauereck 2","86732","Oettingen"
"Total","Nˆrdlinger Str. 11","86757","Wallerstein"
"Total","Nˆrdlinger Str. 11","86757","Wallerstein"
"Total","Leipheimer Str. 60","89233","Neu-Ulm"
"Total","Leipheimer Str. 60","89233","Neu-Ulm"
"Total","Am Schlehenrain 1","88348","Bad Saulgau"
"Total","Am Schlehenrain 1","88348","Bad Saulgau"
"Total","Salemer Str. 47","88697","Bermatingen"
"Total","Salemer Str. 47","88697","Bermatingen"
"Total","Osterhofener Str. 1","93055","Regensburg"
"Total","Osterhofener Str. 1","93055","Regensburg"
"Total","An Der A 3","93164","Brunn"
"Total","An Der A 3","93164","Brunn"
"Total","Fraunhofer Str. 3","93092","Barbing"
"Total","Fraunhofer Str. 3","93092","Barbing"
"Total","Augsburger Str. 61","91781","Weiﬂenburg I.Bay."
"Total","Augsburger Str. 61","91781","Weiﬂenburg I.Bay."
"Total","Autohof An Der Autobahn K 4","91161","Hilpoltstein"
"Total","Autohof An Der Autobahn K 4","91161","Hilpoltstein"
"Total","Deggendorfer Str. 61","94447","Plattling"
"Total","Deggendorfer Str. 61","94447","Plattling"
"Total","Oettinger Str. 6C","91710","Gunzenhausen"
"Total","Oettinger Str. 6C","91710","Gunzenhausen"
"Total","Jura West/A 3","92355","Velburg"
"Total","Jura West/A 3","92355","Velburg"
"Total","Autohof Vogelherd 4","91236","Alfeld"
"Total","Autohof Vogelherd 4","91236","Alfeld"
"Total","Amberger Str. 37","92431","Neunburg V.W."
"Total","Amberger Str. 37","92431","Neunburg V.W."
"Total","Ansbacher Str. 42","91589","Aurach"
"Total","Ansbacher Str. 42","91589","Aurach"
"Total","Ostendstr. 143","90482","Nuernberg"
"Total","Ostendstr. 143","90482","Nuernberg"
"Total","Laufamholzstr. 146","90482","Nuernberg"
"Total","Laufamholzstr. 146","90482","Nuernberg"
"Total","Bab A6/Frankenhoehe Sued 6","91589","Aurach"
"Total","Bab A6/Frankenhoehe Sued 6","91589","Aurach"
"Total","Dorfguetingen 43","91555","Feuchtwangen"
"Total","Dorfguetingen 43","91555","Feuchtwangen"
"Total","Wernberger Str. 34","92536","Pfreimd"
"Total","Wernberger Str. 34","92536","Pfreimd"
"Total","Sebastianstr. 28","91058","Erlangen"
"Total","Sebastianstr. 28","91058","Erlangen"
"Total","N¸rnberger Str. 1A","91452","Wilhermsdorf"
"Total","N¸rnberger Str. 1A","91452","Wilhermsdorf"
"Total","Dr. Otto-Leich Str. / B 2","90542","Eckental"
"Total","Dr. Otto-Leich Str. / B 2","90542","Eckental"
"Total","Bamberger Str. 59/61","91456","Diespeck"
"Total","Bamberger Str. 59/61","91456","Diespeck"
"Total","Bab Ost","91620","Ohrenbach"
"Total","Bab Ost","91620","Ohrenbach"
"Total","Bab Westseite","91620","Ohrenbach"
"Total","Bab Westseite","91620","Ohrenbach"
"Total","Pegnitzer Str. 31","91278","Pottenstein"
"Total","Pegnitzer Str. 31","91278","Pottenstein"
"Total","Scheinfelder Str. 15","96160","Geiselwind"
"Total","Scheinfelder Str. 15","96160","Geiselwind"
"Total","Bamberger Str. 6","96117","Memmelsdorf"
"Total","Bamberger Str. 6","96117","Memmelsdorf"
"Total","Haidt Nord A 3","97355","Kleinlangheim"
"Total","Haidt Nord A 3","97355","Kleinlangheim"
"Total","Bamberger Str. 22","96110","Scheﬂlitz"
"Total","Bamberger Str. 22","96110","Scheﬂlitz"
"Total","Am Steinernen Kreuz 1-3","96110","Schesslitz"
"Total","Am Steinernen Kreuz 1-3","96110","Schesslitz"
"Total","An Der Bundesstr. 19","97234","Reichenberg/Albertshausen"
"Total","An Der Bundesstr. 19","97234","Reichenberg/Albertshausen"
"Total","Wuerzburger Str. 55","97318","Biebelried"
"Total","Wuerzburger Str. 55","97318","Biebelried"
"Total","Wertheimer Str. 50","97941","Tauberbischofsheim"
"Total","Wertheimer Str. 50","97941","Tauberbischofsheim"
"Total","Kantstr. 25","97074","Wuerzburg"
"Total","Kantstr. 25","97074","Wuerzburg"
"Total","Autohof Am Eschenbach 1","97440","Werneck"
"Total","Autohof Am Eschenbach 1","97440","Werneck"
"Total","Mainberger Str. 22","97422","Schweinfurt"
"Total","Mainberger Str. 22","97422","Schweinfurt"
"Total","Kreuzbergstr. 52","96317","Kronach"
"Total","Kreuzbergstr. 52","96317","Kronach"
"Total","Koeckern West / Bab 9","06794","Sandersdorf-Brehna"
"Total","Koeckern West / Bab 9","06794","Sandersdorf-Brehna"
"Total","Stegenwaldhauser Str. 1","95152","Selbitz Ot Sellanger"
"Total","Stegenwaldhauser Str. 1","95152","Selbitz Ot Sellanger"
"Total","Koeppelsdorfer Str. 69","96515","Sonneberg"
"Total","Koeppelsdorfer Str. 69","96515","Sonneberg"
"Total","Am Isaak 46","96515","Sonneberg"
"Total","Am Isaak 46","96515","Sonneberg"
"Total","Coburger Str. 42","96476","Bad Rodach"
"Total","Coburger Str. 42","96476","Bad Rodach"
"Total","Sonneberger Str. 86","96523","Steinach"
"Total","Sonneberger Str. 86","96523","Steinach"
"Total","Probstzellaer Str. 15","98743","Graefenthal"
"Total","Probstzellaer Str. 15","98743","Graefenthal"
"Total","Saalfelder Str. 90","98739","Lichte"
"Total","Saalfelder Str. 90","98739","Lichte"
"Total","Hauptstr. 121","98553","Waldau"
"Total","Hauptstr. 121","98553","Waldau"
"Total","Schuetzenstr. 1A","98527","Suhl"
"Total","Schuetzenstr. 1A","98527","Suhl"
"Total","Werrastraﬂe","98617","Meiningen"
"Total","Werrastraﬂe","98617","Meiningen"
"Total","Hauptstr. 2A","98529","Suhl-Maebendorf"
"Total","Hauptstr. 2A","98529","Suhl-Maebendorf"
"Total","Dolmarstr. 38","98617","Meiningen"
"Total","Dolmarstr. 38","98617","Meiningen"
"Total","Walldorfer Straﬂe","98617","Herpf"
"Total","Walldorfer Straﬂe","98617","Herpf"
"Total","Grenzhammer 4","98693","Ilmenau"
"Total","Grenzhammer 4","98693","Ilmenau"
"Total","Talstr. 60","98544","Zella-Mehlis"
"Total","Talstr. 60","98544","Zella-Mehlis"
"Total","Erfurter Str. 60","98693","Ilmenau"
"Total","Erfurter Str. 60","98693","Ilmenau"
"Total","Poststr. 12","98559","Oberhof"
"Total","Poststr. 12","98559","Oberhof"
"Total","Ilmenauer Str. 2","99326","Stadtilm"
"Total","Ilmenauer Str. 2","99326","Stadtilm"
"Total","Friedrichstraﬂe","99310","Arnstadt"
"Total","Friedrichstraﬂe","99310","Arnstadt"
"Total","Ichtershaeuser Str. 9","99310","Arnstadt"
"Total","Ichtershaeuser Str. 9","99310","Arnstadt"
"Total","Weimarische Str. 31","99438","Bad Berka"
"Total","Weimarische Str. 31","99438","Bad Berka"
"Total","Bab Suedseite/A 4","99198","Eichelborn"
"Total","Bab Suedseite/A 4","99198","Eichelborn"
"Total","Bab Nordseite / A 4","99198","Eichelborn"
"Total","Bab Nordseite / A 4","99198","Eichelborn"
"Total","Am Urbicher Kreuz 34","99099","Erfurt"
"Total","Am Urbicher Kreuz 34","99099","Erfurt"
"Total","Gothaer Str. 9","99880","Waltershausen"
"Total","Gothaer Str. 9","99880","Waltershausen"
"Total","Arnstaedter Str. 36","99096","Erfurt"
"Total","Arnstaedter Str. 36","99096","Erfurt"
"Total","Weimarer Str. 53-55","99867","Gotha"
"Total","Weimarer Str. 53-55","99867","Gotha"
"Total","Binderslebener Landstr. 98","99092","Erfurt"
"Total","Binderslebener Landstr. 98","99092","Erfurt"
"Total","Puschkinallee 3-5","99867","Gotha"
"Total","Puschkinallee 3-5","99867","Gotha"
"Total","Gewerbestr. 4","99880","Laucha"
"Total","Gewerbestr. 4","99880","Laucha"
"Total","Schlachthofstr. 14","99085","Erfurt"
"Total","Schlachthofstr. 14","99085","Erfurt"
"Total","Erfurter Str. 34","99510","Apolda"
"Total","Erfurter Str. 34","99510","Apolda"
"Total","Augsburger Str. 2","99091","Erfurt"
"Total","Augsburger Str. 2","99091","Erfurt"
"Total","Mittelhaeuser Str. 69","99089","Erfurt"
"Total","Mittelhaeuser Str. 69","99089","Erfurt"
"Total","Erfurter Landstr. 49","99095","Erfurt-Stotternheim"
"Total","Erfurter Landstr. 49","99095","Erfurt-Stotternheim"
"Total","Osterlange 1","99189","Elxleben"
"Total","Osterlange 1","99189","Elxleben"
"Total","Langensalzaer Str. 77","99817","Eisenach"
"Total","Langensalzaer Str. 77","99817","Eisenach"
"Total","Kasseler Str. 9","99817","Eisenach"
"Total","Kasseler Str. 9","99817","Eisenach"
"Total","Tonnaer Str. 28","99947","Bad Langensalza"
"Total","Tonnaer Str. 28","99947","Bad Langensalza"
"Total","An Der B 247","99947","Schoenstedt"
"Total","An Der B 247","99947","Schoenstedt"
"Total","Wendewehrstr. 129","99974","Muehlhausen"
"Total","Wendewehrstr. 129","99974","Muehlhausen"
"Total","Nordhaeuser Str. 9","99752","Bleicherode"
"Total","Nordhaeuser Str. 9","99752","Bleicherode"
"Total","Pulverhausweg","99734","Nordhausen"
"Total","Pulverhausweg","99734","Nordhausen"
"Total","Goeckingkstraﬂe","99755","Ellrich"
"Total","Goeckingkstraﬂe","99755","Ellrich"
"AVIA Tankstelle","Falkensteiner Str. 2","08606","Oelsnitz/Vogtland"
"AVIA Tankstelle","Ebersdorfer Str. 51","07368","Remptendorf"
"AVIA Tankstelle","Gehrener Str. 65","07426","Kˆnigsee-Rottenbach"
"AVIA Tankstelle","Am Anger 24","07422","Bad Blankenburg"
"AVIA Tankstelle","Seeweg 2","07955","Auma"
"AVIA XPress Automatenstation","Am M¸hlenweg 2","07407","Rudolstadt"
"AVIA Tankstelle","Bahnhofstr. 35a","07570","Weida"
"AVIA Tankstelle","Dr.-Otto-Nuschke-Str. 12a","09376","Oelsnitz / Erzgeb."
"AVIA Tankstelle","Hauptstr. 43C","09380","Thalheim"
"Avia Tankstelle Hermann Bantleon","Rudolf-Breitschild-Str. 8","08451","Crimmitschau"
"AVIA Tankstelle","Geraer Str. 72","07646","Stadtroda"
"AVIA Tankstelle","Brunnenstr. 86","07580","Ronneburg"
"Avia Tank- und Rastanlage  Altenburger Land Nord","BAB A - Teichstr. 72","04626","Schmˆlln"
"AVIA Tankstelle","Mohsdorfer Str. 75","09217","Burgst‰dt"
"AVIA Tankstelle","Altenburger Str. 3","04610","Meuselwitz"
"AVIA Tankstelle","Meuselwitzer Str. 34","04613","Lucka"
"AVIA Tankstelle","Freiberger Str. 55","01774","Klingenberg-Ruppendorf"
"AVIA XPress Automatenstation","Oberlausitzer Str. 27","02733","Cunewalde-Weigsdorf"
"AVIA XPress Automatenstation","Zittauer Str. 29c","02788","Zittau-Hirschfelde"
"AVIA XPress Automatenstation","An der Tankstelle 1","02699","Neschwitz"
"AVIA XPress Automatenstation","Am Bahnhof 27","02708","Kittlitz"
"AVIA Tankstelle","Gadewitzer Weg 16","06773","Gr‰fenhainichen"
"Avia Tank- und Servicestation Matthias Schmiedecke","Thomas-M¸ntzer-Str. 40","06406","Bernburg"
"AVIA Automatenstation","B¸rgerseeweg 23","17235","Neustrelitz"
"AVIA Automatenstation","Am Heisterbusch 6","19246","Zarrentin"
"AVIA Automatenstation","Werner - von - Siemens - Str. 1b","19061","Schwerin"
"AVIA Automatenstation","Werner-von-Siemens-Str. 9","17033","Neubrandenburg"
"AVIA Automatenstation","Am Augraben 11","18273","G¸strow"
"AVIA XPress Automatenstation","Tarnower Chaussee 3","18246","B¸tzow"
"Avia Tankstelle Cubus KC GmbH & Co. KG","Tarnower Chaussee 1a","18246","B¸tzow"
"AVIA Automatenstation","Gewerbestr. 15","18299","Laage"
"AVIA Tankstelle","Fritz-Reuter-Str. 43","18239","Satow"
"AVIA Automatenstation","Zur Radewiese 2c","18196","Kavelstorf"
"AVIA Automatenstation","Hohen Tannen 4","18196","Dummerstorf"
"AVIA Automatenstation","Bandelsdorferstraﬂe","18196","Lieblingshof"
"AVIA Tankstelle","Rostocker Str. 93","18236","Krˆpelin"
"AVIA Automatenstation","Rothb‰k 3","18198","Groﬂ Schwaﬂ"
"AVIA Automatenstation","Platz der Freundschaft 16","18059","Rostock"
"AVIA Automatenstation","Ahornring 1b","18184","Roggentin"
"AVIA Automatenstation","Buchenweg 5","18209","Bad Doberan"
"AVIA Automatenstation","Am Liepengraben 5","18147","Rostock"
"AVIA Tankstelle","An der Stadtautobahn 38","18107","Rostock"
"Avia Tankstelle Cubus KC GmbH & Co. KG","An der B 10516","18182","Mˆnchhagen"
"AVIA Automatenstation","Zum Rauhen Berg 40","18507","Grimmen"
"AVIA Tankstelle","Gifhorner Str. 1","29392","Wesendorf"
"AVIA Tankstelle","Lange Str. 87","27305","Bruchhausen-Vilsen"
"AVIA Tankstelle","Lindenstr. 33","27239","Twistringen"
"AVIA Tankstelle","Verdener Str. 16","27299","Langwedel"
"AVIA Tankstelle","Harpstedter Str. 16","28816","Stuhr/Groﬂ-Mackenstedt"
"AVIA Tankstelle","Groﬂe Straﬂe- 92-94","28870","Ottersberg"
"AVIA Tankstelle","Groﬂe Str. 6","28870","Ottersberg"
"AVIA Tankstelle","Hauptstr. 17","27801","Dˆtlingen"
"AVIA Tankstelle","Munderloher Str. 2","26209","Hatten"
"AVIA Tankstelle","Stedinger Str. 6","27777","Ganderkesee"
"AVIA Tankstelle","M¸hlenweg 17","26209","Hatten"
"AVIA Tankstelle","Parkstr. 77","27798","Hude (Oldenburg)"
"AVIA Tankstelle","Freiherr-von-M¸nnich-Str. 9","27798","Hude (Oldenburg)"
"AVIA Tankstelle","Bremer Heerstr. 572","26135","Oldenburg"
"AVIA Tankstelle","Lauenburger Landstr. 8","21039","Bˆrnsen"
"AVIA Tankstelle","Hauptstr. 41","26901","Lorup"
"AVIA Tankstelle","Bremer Heerstr. 295","26135","Oldenburg"
"AVIA Tankstelle","Gehlenberger Hauptstr. 7","26169","Friesoythe"
"AVIA Tankstelle","Hauptstr. 15","26904","Bˆrger"
"Avia Tankstelle August Pickel","Werrastr. 12","26135","Oldenburg"
"AVIA Tankstelle","K¸stenkanalstr. 92","26188","Edewecht"
"AVIA Tankstelle","Cundastr. 13","26897","Esterwegen"
"AVIA Tankstelle","Friedrichsfehner Str. 42","26188","Edewecht"
"AVIA Automatenstation","Gustav-Kunst-Str. 23","20539","Hamburg"
"AVIA Tankstelle","Hauptstr. 2","26909","Neubˆrger"
"AVIA Tankstelle","Kreisstr. 45","26169","Friesoythe"
"AVIA Tankstelle","Papenburger Str. 8","26903","Surwold"
"AVIA Tankstelle","Im Doorgrund 2","26160","Bad Zwischenahn"
"AVIA Tankstelle","Dorfstr. 23","26676","Barﬂel"
"AVIA Tankstelle","Meerkircher Str. 45","26939","Ovelgˆnne"
"AVIA Tankstelle","Dersumer Str. 10","26892","Heede"
"AVIA Tankstelle","Stahlstr. 2","26215","Wiefelstede"
"AVIA Tankstelle","L¸chtenburg Links 65","26871","Papenburg"
"AVIA Tankstelle","Hauptstr. 31","26676","Barﬂel"
"AVIA Tankstelle","1. S¸dwieke 186","26817","Rhauderfehn"
"AVIA XPress Automatenstation","Dorfstr. 5","22964","Steinburg"
"AVIA Tankstelle","Hauptstr. 115","26689","Apen"
"AVIA Tankstelle","Vareler Str. 32","26349","Jade"
"AVIA Tankstelle","Papenburger Str. 73","26810","Westoverledingen"
"AVIA Tankstelle","Zum Spieksee 1","26899","Rhede (Ems)"
"AVIA Tankstelle","Backemoorer Str. 14","26817","Rhauderfehn"
"AVIA Tankstelle","Lindenstr. 1","26936","Stadland"
"AVIA Tankstelle","Lohe 60","22941","Bargteheide"
"AVIA Tankstelle","Westerlandstr. 43809","26847","Detern"
"AVIA Tankstelle","Leerer Str. 39","26810","Westoverledingen"
"AVIA Tankstelle","Osterende 10","26849","Filsum"
"AVIA Tankstelle","Zum Jadebusen 142","26316","Varel"
"AVIA Automatenstation","Rˆgen 10","23843","Bad Oldesloe"
"AVIA Tankstelle","Barnitzer Str. 21","23858","Reinfeld"
"AVIA Tankstelle","An der Ahne 15","26969","Butjadingen"
"AVIA Tankstelle","Marlistr. 40","23566","L¸beck"
"AVIA Automatenstation","Taschenmacherstr. 18","23556","L¸beck"
"Avia Tankstelle Boie","Kanalstr. 24","23552","L¸beck"
"AVIA Tankstelle","Falkenstr. 62","23564","L¸beck"
"AVIA Tankstelle","Poeler Str. 73","23970","Wismar"
"AVIA Automatenstation","Haffburg 8a","23970","Wismar"
"AVIA Tankstelle","Bei der Lohm¸hle 19","23554","L¸beck"
"AVIA Tankstelle","Hofstr. 8","26844","Jemgum"
"AVIA Tankstelle","Forstmeisterweg 85","23568","L¸beck"
"AVIA Automatenstation","Posener Str. 20a","23554","L¸beck"
"AVIA Tankstelle","Tremskamp 32","23611","Bad Schwartau"
"AVIA Automatenstation","Georg-Ohm-Str. 18","23617","Stockelsdorf"
"AVIA Tankstelle","Kirchplatz 4","26969","Butjadingen"
"AVIA Tankstelle","Auf der Bleiche 1","26802","Moormerland"
"AVIA Tankstelle","Zeiss-Str. 2","23626","Ratekau"
"AVIA Tankstelle","Hamburger Str. 103","23795","Bad Segeberg"
"AVIA Tankstelle","Wittmunder Str. 224","26639","Wiesmoor"
"AVIA Tankstelle","Flutstr. 182","26388","Wilhelmshaven"
"AVIA Tankstelle","Hauptstr. 16","26409","Wittmund"
"AVIA Tankstelle","Emder Str. 8","26632","Ihlow"
"AVIA Tankstelle","Werdumer Str. 25","26409","Wittmund-Buttforde"
"AVIA Automatenstation","Industriestr. 5","24647","Wasbek"
"AVIA Tankstelle","Am Berumerfehnkanal 3","26532","Groﬂheide"
"AVIA Tankstelle","Op de Horst 23-25","23743","Grˆnwohldshorst"
"AVIA Tankstelle","Seestr. 5","23747","Dahme"
"AVIA Tankstelle","Br¸gger Chaussee 26","24582","Wattenbek"
"AVIA Tankstelle","An der B‰derstr. 17","23777","Heringsdorf"
"AVIA Tankstelle","Sundweg 99","23774","Heiligenhafen"
"AVIA Tankstelle","Hauptstr. 9","24361","Holzbunge"
"AVIA Tankstelle","Bahnhofstr. 50","24811","Owschlag"
"AVIA Tankstelle","Schrepperie 16","24409","Esgrus"
"AVIA Xpress Tankstelle","Br¸ckenauer Str. 15","36391","Sinntal-Sterbfritz"
"AVIA Tankstelle","Schl¸chterner Str. 14","36391","Sinntal"
"AVIA Tankstelle","Berliner Str. 12","36129","Gersfeld (Rhˆn)"
"AVIA Tankstelle","Am Wasserweg 3","36157","Ebersburg-Thalau"
"AVIA XPress Automatenstation","Burgstr. 21","36163","Poppenhausen"
"AVIA Tankstelle","Gewerbestr. 2","36148","Kalbach-Mittelkalbach"
"AVIA Tankstelle","Schl¸chtener Str. 25","36103","Flieden"
"AVIA Tankstelle","Uerzeller Str. 1","36396","Steinau-Ulmbach"
"AVIA Tankstelle","Th¸ringer Str. 12","36115","Hilders"
"AVIA XPress Automatenstation","Wisselsroder Str. 1","36160","Dipperz"
"AVIA Tankstelle","Fuldaer Str. 26","36124","Eichenzell"
"AVIA Tankstelle","Breitunger Str. 2","36100","Petersberg"
"Avia Tankstelle J. KNITTEL Sˆhne","Dientzenhoferstr. 6-10","36043","Fulda"
"AVIA Tankstelle","Andreasberg 3a","36041","Fulda"
"AVIA Tankstelle","Hauptstr. 10","36167","N¸sttal -Morles"
"AVIA Tankstelle","Frankfurter Str. 3","36154","Hosenfeld"
"AVIA Tankstelle","Bahnhofstr. 76","36355","Grebenhain"
"AVIA Tankstelle","J.-C.-von-Weiﬂ-Str. 1","36448","Bad Liebenstein - Schweina"
"AVIA Xpress Tankstelle","Hersfelder Str. 22","36151","Burghaun"
"AVIA Tankstelle","Eitrastr. 12","36132","Eiterfeld-Arzell"
"AVIA XPress Automatenstation","Friedloser Str. 3","36251","Bad Hersfeld"
"AVIA Tankstelle","Giessener Str. 28","35423","Lich"
"AVIA Tankstelle","Alter Bach 7","37293","Herleshausen-Wommen"
"AVIA Tankstelle","Wilhelmstr. 23","35415","Pohlheim"
"AVIA XPress Automatenstation","Alsfelder Str. 13","36320","Kirtorf"
"AVIA Tankstelle","Ziegenhainer Str. 15","34628","Willingshausen-Merzhausen"
"AVIA Tankstelle","Gloelstr. 12","35576","Wetzlar"
"AVIA Tankstelle","Hohe Str. 1","35576","Wetzlar"
"AVIA Tankstelle","Festungsstr. 11","34613","Schwalmstadt-Ziegenhain"
"AVIA Tankstelle","Bahnhofstr. 33","35112","Fronhausen"
"AVIA Tankstelle","Landstr. 16-18","37284","Waldkappel-Bischhausen"
"AVIA Tankstelle","Frankfurter Str. 57","35781","Weilburg"
"AVIA XPress Automatenstation","In der Werraaue 6","37281","Wanfried"
"AVIA Tankstelle","Br¸hl 11","37269","Eschwege"
"AVIA Tankstelle","Umgehungsstr. 25","35043","Marburg-Cappel"
"Avia Tankstelle Kuehmichel","Hasselbacherstr. 11-13","35799","Merenberg-Allendorf"
"AVIA Xpress Tankstelle","Hasselbacher Str. 41579","35799","Merenberg"
"AVIA Tankstelle","Gladenbacher Str. 9","35102","Lohra"
"Avia Tankstelle J. Knittel Sˆhne GmbH","N¸rnberger Str. 46","34212","Melsungen"
"AVIA Tankstelle","Hauptstr. 62","35080","Hartenrod"
"AVIA Tankstelle","Am ÷lgraben 22","37345","Grossbodungen"
"AVIA Tankstelle","Rˆddenauer Str. 5","35066","Frankenberg"
"AVIA Tankstelle","Bahnhofstr. 47","35216","Biedenkopf-Wallau"
"AVIA Tankstelle","Am Dalsterberg 3","33034","Brakel"
"AVIA Tankstelle","In der Fahrt 8","37603","Holzminden"
"AVIA Tankstelle","Paderborner Str. 28","33184","Altenbeken-Schwaney"
"AVIA Tankstelle","An der B64 Nr. 1","33184","Altenbeken"
"AVIA Tankstelle","Frankfurter Weg 29","33106","Paderborn"
"AVIA Tankstelle","Kleestr. 39","33106","Paderborn"
"AVIA Tankstelle","Bahnhofstr. 46","32805","Horn-Bad Meinberg"
"AVIA Tankstelle","Barntruper Str. 17","32825","Blomberg"
"AVIA Tankstelle","G¸tersloher Str. 17","33161","Hˆvelhof"
"AVIA Tankstelle","Rietberger Str. 135","33129","Delbr¸ck"
"AVIA Tankstelle","Hamelner Str. 43","32683","Barntrup"
"AVIA Tankstelle","Detmolder Str. 41","33161","Hˆvelhof"
"AVIA Tankstelle","Ernst-Hilker-Str. 19","32758","Detmold"
"AVIA Tankstelle","Pivitsheider Str. 143a","32832","Augustdorf"
"AVIA Tankstelle","Alte Chaussee 41579","32825","Blomberg"
"AVIA Tankstelle","F¸rst-Wenzel-Platz 4","33415","Verl"
"AVIA Tankstelle","Lagesche Str. 184","32756","Detmold"
"AVIA Tankstelle","Bentelerstr. 2","33449","Langenberg"
"AVIA XPress Automatenstation","Langestr. 46","33397","Rietberg"
"AVIA Tankstelle","Wiedenbr¸cker Str. 138","33449","Langenberg"
"AVIA Tankstelle","Bielefelder Str. 8","33758","Schloﬂ Holte-Stukenbrock"
"Avia Tankstelle Otto Fricke & Co.","Holter Str. 250","33758","Schloﬂ Holte-Stukenbrock"
"AVIA Tankstelle","Am ÷lbach 15","33334","G¸tersloh"
"AVIA XPress Automatenstation","Wolfsacker 4","38444","Wolfsburg"
"AVIA Tankstelle","Neuenkirchener Str. 111","33332","G¸tersloh"
"AVIA Tankstelle","Carl-Bertelsmann-Str. 255","33335","G¸tersloh"
"AVIA XPress Automatenstation","Carl-Miele-Str. 199","33335","G¸tersloh"
"AVIA Tankstelle","Dammstr. 60","33332","G¸tersloh"
"AVIA Tankstelle","Zur Grossen Heide 51","33335","G¸tersloh"
"Avia Tankstelle Otto Fricke & Co.","Kaiserstr. 36","33330","G¸tersloh"
"AVIA Tankstelle","Berliner Str. 148","33330","G¸tersloh"
"AVIA XPress Automatenstation","Isselhorster Str. 186","33335","G¸tersloh"
"Avia Tankstelle August Schm‰ling","Hohenzollernstr. 72","33330","G¸tersloh"
"AVIA Tankstelle","G¸tersloher Str. 338","33649","Bielefeld"
"AVIA Tankstelle","Bielefelder Str. 28","32107","Bad Salzuflen"
"AVIA Tankstelle","Beelener Str. 112","33442","Herzebrock-Clarholz"
"AVIA Tankstelle","Hallenstr. 5","33609","Bielefeld"
"AVIA XPress Automatenstation","Aufm Kampe 1","33729","Bielefeld"
"AVIA Tankstelle","Brockhagener Str. 123","33803","Steinhagen"
"AVIA Tankstelle","Apfelstr. 233","33611","Bielefeld"
"AVIA Tankstelle","Mindener Str. 179","32049","Herford"
"AVIA Tankstelle","Schwarzer Weg 43557","33824","Werther (Westf.)"
"AVIA Tankstelle","Flettmarer Str. 21","38539","M¸den (Aller)"
"AVIA Tankstelle","Bahnhofstr. 79","32584","Lˆhne"
"AVIA Tankstelle","Volmerdingsener Str. 118","32549","Bad Oeynhausen"
"AVIA Tankstelle","Stemwederberg Str. 47","32351","Stemwede"
"AVIA Tankstelle","Pr. Strˆher Allee 28","32369","Rahden"
"AVIA Tankstelle","Sternenberg S¸d A46","42287","Wuppertal"
"AVIA Tankstelle","Sˆlder Str. 28","44289","Dortmund"
"AVIA Tankstelle","Aplerbecker Str. 377","44287","Dortmund"
"AVIA Tankstelle","Am Westheck 81","44309","Dortmund"
"AVIA Tankstelle","Huckarder Str. 317","44369","Dortmund"
"AVIA Tankstelle","L¸tgendortmunder Hellweg 135","44388","Dortmund"
"AVIA Tankstelle","Bahnhofstr. 102","40883","Ratingen"
"AVIA Tankstelle","Neusser Str. 206","41363","J¸chen"
"AVIA Tankstelle","Beelener Str. 21","48231","Warendorf"
"AVIA Xpress Truck","Hans-Martin-Schleyer-Str. 26","41199","Mˆnchengladbach"
"AVIA XPress Automatenstation","Am Raestruper Bahnhof 62","48291","Telgte"
"AVIA Xpress Truck","Lehmkuhlenweg 14-16","41065","Mˆnchengladbach"
"AVIA Xpress Truck","Karl-Arnold-Str. 23","47877","Willich"
"AVIA Xpress Truck","Sympher Str. 18","47138","Duisburg"
"AVIA Xpress Truck","Industriering 40","41751","Viersen"
"AVIA Tankstelle","Rˆmerstr. 670","47443","Moers"
"AVIA Tankstelle","Rekener Str. 23","45721","Haltern-Lavesum"
"AVIA Tankstelle","Stolze-Schrey-Str. 17","46539","Dinslaken"
"AVIA Tankstelle","Wienbachstr. 23","46286","Dorsten-Wulfen"
"AVIA Xpress Truck","Industriering Ost 82a","47906","Kempen"
"AVIA Xpress Truck","Am Pattberg 20","47445","Moers"
"AVIA Tankstelle","M¸lhausener Str. 39","47929","Grefrath"
"AVIA Tankstelle","Dorfstr. 16","48734","Reken"
"AVIA Tankstelle","Endelner Feld 2","46286","Dorsten"
"AVIA Tankstelle","Alte Weseler Str. 21","46569","H¸nxe"
"AVIA Tankstelle","Heidener Str. 1","48734","Reken"
"AVIA XPress Automatenstation","Silvesterstr. 53","46348","Raesfeld-Erle"
"AVIA Xpress Truck","An der Landwehr 2","41334","Nettetal"
"AVIA Tankstelle","Borkener Str. 44","46348","Raesfeld"
"AVIA Tankstelle","Schepersweg 41-61","46485","Wesel"
"AVIA Tankstelle","An der Bleiche 53","47638","Straelen"
"AVIA Tankstelle","Auf dem Stemmingholt 28","46499","Hamminkeln - Br¸nen"
"AVIA Tankstelle","Auf den B¸lten 55","49448","Stemshorn"
"AVIA XPress Automatenstation","Dorfbauerschaft 6-8","48720","Rosendahl"
"AVIA Tankstelle","Otto-Hahn-Str. 35","46325","Borken"
"Avia Tankstelle Heinrich Klˆcker","Ahauser Str. 21","46325","Borken"
"AVIA XPress Automatenstation","Schuckertstr. 16","48712","Gescher"
"AVIA Tankstelle","Sch¸ringsweg 5","48712","Gescher"
"AVIA Tankstelle","Ahauser Str. 84","46325","Borken"
"AVIA Tankstelle","Alpener Str. 18","47665","Sonsbeck"
"AVIA Tankstelle","Stadtlohner Str. 30","48712","Gescher"
"AVIA Tankstelle","Hauptstr. 66-68","46325","Borken"
"AVIA Tankstelle","Blocktor 36","48565","Steinfurt"
"AVIA Xpress Truck","An de Klus 46","47608","Geldern"
"AVIA Tankstelle","Ahauser Str. 1","48739","Legden"
"AVIA Tankstelle","Hˆwwel 3","46414","Rhede"
"AVIA Tankstelle","Hoogefeldstr. 1","46499","Hamminkeln"
"AVIA Xpress Tankstelle","Klever Str. 6","47623","Kevelaer"
"AVIA Tankstelle","Grabenstr. 47","48703","Stadtlohn"
"AVIA Tankstelle","Dinxperloer Str. 64","46399","Bocholt"
"AVIA Xpress Truck","von Braun Str. 2","48683","Ahaus"
"AVIA Tankstelle","Eper Str. 1","48619","Heek"
"AVIA Tankstelle","Rauhe Str. 2","46459","Rees"
"AVIA Tankstelle","Empeler Str. 49","46459","Rees"
"AVIA Tankstelle","Wahlder Str. 18","49451","Holdorf"
"AVIA Tankstelle","Hamalandstr. 61","48683","Ahaus"
"AVIA Tankstelle","W¸llener Str. 108","48691","Vreden"
"AVIA Tankstelle","Bocholter Str. 6","46419","Isselburg"
"AVIA Tankstelle","Sporker Str. 18","46399","Bocholt"
"AVIA Xpress Goch","Daimler-Str. 4","47574","Goch"
"AVIA Tankstelle","Gronauer Str. 110","48599","Gronau (Westf.)"
"AVIA Tankstelle","Groﬂe Str. 6","49424","Goldenstedt"
"AVIA Tankstelle","M¸hlenstr. 42","49838","Lengerich"
"AVIA Tankstelle","Rechterfelder Str. 45","49429","Visbek"
"AVIA Tankstelle","Kellerhˆher Str. 2","49661","Cloppenburg"
"AVIA Tankstelle","Cloppenburger Str. 21","49696","Molbergen"
"AVIA Tankstelle","Lienersche Str. 6","49699","Lindern (Oldenburg)"
"AVIA Tankstelle","Oldenburger Str. 3","49757","Werlte"
"AVIA Tankstelle","Hauptstr. 95","49846","Hoogstede"
"AVIA Tankstelle","Peheimer Str. 2","49757","Vrees"
"AVIA Tankstelle","Auf dem B¸lt 4","49767","Twist"
"AVIA Tankstelle","Sigiltrastr. 36","49751","Sˆgel"
"AVIA Tankstelle","Franziskusstr. 29","49767","Twist"
"AVIA Tankstelle","Hauptstr. 24","49751","Werpeloh"
"AVIA Tankstelle","Marienstr 37","49779","Oberlangen"
"AVIA Tankstelle","Hauptstr. 24","49779","Niederlangen"
"AVIA Tankstelle","R¸tenbrocker Hauptstr. 20","49733","Haren (Ems)"
"AVIA Tankstelle","Rheinallee 90a","55120","Mainz"
"AVIA Tankstelle","Lennebergstr. 1","55124","Mainz"
"Avia Tankstelle Thelen","Sulzbacher Str. 26","55606","Kirn"
"AVIA Xpress Tankstelle","Industriestr. 9","55487","Sohren"
"AVIA Tankstelle","Hauptstr. 5","57629","Luckenbach"
"AVIA Tankstelle","Pellenzstr. 105","56743","Mendig"
"AVIA Tankstelle","Siegener Str. 82","57223","Kreuztal"
"AVIA XPress Automatenstation","Zehnerstr. 16","53498","Bad Breisig"
"AVIA Tankstelle","Unterm Enschede 13","59939","Olsberg"
"AVIA Tankstelle","Westerwaldstr. 85","53773","Hennef"
"AVIA Tankstelle","Briloner Str. 28","59909","Bestwig"
"AVIA XPress Automatenstation","Auf dem Stahl 4","58840","Plettenberg"
"AVIA Tankstelle","Hauptstr. 521","53347","Alfter"
"Avia Tankstelle Ernst Witkop","Am Fuhrpark 25","58507","L¸denscheid"
"AVIA Tankstelle","Seestr. 1","59519","Mˆhnesee"
"AVIA Tankstelle","Walther-Rathenau-Str. 1","50996","Kˆln"
"AVIA Tankstelle","Soester Str. 31","59597","Erwitte"
"AVIA Tankstelle","Hˆnnetalstr. 50","58710","Menden"
"AVIA Tankstelle","Overweg 19a","59494","Soest"
"AVIA XPress Automatenstation","Ostenfeldmark 8-10","59557","Lippstadt"
"AVIA Tankstelle","Sigefridwall 21","59494","Soest"
"AVIA Tankstelle","Prioreier Str. 48","58091","Hagen"
"AVIA XPress Automatenstation","M¸lheimer Str. 111","51375","Leverkusen"
"AVIA XPress Automatenstation","Schoneberger Str. 1","59505","Bad Sassendorf"
"Avia Tankstelle Steingass Mineralˆle","Bensberger Str. 5","51375","Leverkusen"
"AVIA Tankstelle","Gˆttinger Str. 26","59329","Wadersloh"
"Avia Tankstelle Energiservice Schmitz","Heerstr. 472","50169","Kerpen-Br¸ggen"
"AVIA Tankstelle","Diestedder Str. 64","59510","Lippetal"
"Avia Tankstellen-Service","Loxbaumstr. 113","58097","Hagen"
"AVIA Tankstelle","Bahnhofstr. 66","59514","Welver"
"AVIA Tankstelle","Werkstr. 2","44267","Dortmund"
"AVIA Tankstelle","Bahnstr. 30-32","50170","Kerpen"
"AVIA Tankstelle","Schattweg 8","59174","Kamen"
"AVIA Tankstelle","Oelder Tor 39","59302","Oelde"
"AVIA Tankstelle","An Gut Nazareth 49","52353","D¸ren"
"AVIA Tankstelle","Birkesdorfer Str. 56/58","52353","D¸ren"
"Avia Tankstelle Julius Hoesch","Birkesdorfer Str. 5","52353","D¸ren"
"AVIA Tankstelle","Kreuzstr. 18","59302","Oelde"
"AVIA Tankstelle","Werner Str. 182","59192","Bergkamen"
"AVIA Tankstelle","Vorhelmer Str. 439","59269","Beckum"
"AVIA Tankstelle","Dolberger Str. 145","59229","Ahlen"
"AVIA Tankstelle","Rˆmerstr. 38","59075","Hamm"
"AVIA XPress Automatenstation","Pr‰mienstr. 194","52223","Stolberg"
"AVIA Tankstelle","Pr‰mienstr. 11","52445","Titz"
"AVIA Tankstelle","Scheidentaler Str. 28","69427","Mudau"
"AVIA Tankstelle","Hauptstr. 155","69242","M¸hlhausen"
"AVIA Tankstelle","Erbacher Str. 28","64760","Oberzent-Hetzbach"
"AVIA Tankstelle","Karlsruher Str. 61","69126","Heidelberg"
"AVIA Tankstelle","Heiden‰ckerstr. 36","69207","Sandhausen"
"AVIA Tankstelle","Johann-Wilhelm-Str. 128","69259","Wilhelmsfeld"
"AVIA Tankstelle","Dossenheimer Landstr. 5a","69121","Heidelberg"
"AVIA Tankstelle","Siegfriedstr. 60","64756","Mossautal"
"AVIA Tankstelle","Odenwaldring 1","68723","Schwetzingen"
"AVIA Tankstelle","Hauptstr. 110","63849","Leidersbach"
"AVIA Tankstelle","Mannheimer Landstr. 2","68723","Schwetzingen"
"AVIA Tankstelle","Schriesheimer Str. 34","68526","Ladenburg"
"AVIA Tankstelle","Br¸ckenstr. 3","68549","Ilvesheim"
"Avia Tankstelle Minera Kraftstoffe Mineralˆlwerk Rempel","Rhenaniastr. 130-132","68219","Mannheim"
"AVIA XPress Automatenstation","Rotterdamer Str. 2","68219","Mannheim"
"AVIA Tankstelle","M¸hlstr. 19","67165","Waldsee"
"AVIA Tankstelle","Groﬂostheimer Str. 183","63741","Aschaffenburg"
"AVIA Tankstelle","K‰fertaler Str. 227-229","68167","Mannheim"
"AVIA Tankstelle","Speyerer Str. 64-66","67105","Schifferstadt"
"AVIA Tankstelle","Nibelungenstr. 332","64625","Bensheim-Wilmshausen"
"AVIA Tankstelle","Maudacher Str. 289","67065","Ludwigshafen"
"AVIA Xpress Tankstelle","Burgstr. 8","63637","Jossgrund-Burgjoﬂ"
"AVIA Tankstelle","Darmst‰dter Str. 113-115","64625","Bensheim"
"AVIA Xpress Automatenstation","Amselstr. 10","68307","Mannheim"
"AVIA Tankstelle","Hofackerstr. 17","63776","Mˆmbris-Gunzenbach"
"AVIA Tankstelle","Lindenstr. 15","67454","Hassloch"
"AVIA XPress Automatenstation","Gewerbestr. 30","63619","Bad Orb"
"AVIA Tankstelle","Dudenhˆfer Str. 34","63500","Seligenstadt"
"AVIA Tankstelle","Niederkircher Str. 1","67146","Deidesheim"
"AVIA Tankstelle","Bahnhofstr. 63","68623","Lampertheim-Hofheim"
"AVIA Tankstelle","Erpolzheimer Str. 23","67251","Freinsheim"
"AVIA XPress Automatenstation","Otto-Hahn-Str. 31","63456","Hanau"
"AVIA Xpress Tankstelle","Werthbornstr. 60","63654","Wolferborn"
"AVIA XPress Automatenstation","Linienstr. 62","67316","Carlsberg"
"AVIA XPress Automatenstation","B 44","63263","Neu-Isenburg-Zeppelinheim"
"AVIA Xpress Tankstelle","Jahnstr. 2","67585","Dorn-D¸rkheim"
"AVIA Tankstelle","Flˆrsheimer Str. 51","65795","Hattersheim"
"Avia Tankstelle Thelen","Gr‰fin-Dˆnhoff-Str. 2","65462","Ginsheim-Gustavsburg"
"AVIA Tankstelle","Zeppelinstr. 43805","66953","Pirmasens"
"AVIA Tankstelle","Berliner Ring 11","66955","Pirmasens"
"AVIA Tankstelle","Apostelm¸hle 5","66976","Rodalben"
"AVIA Tankstelle","Hauptstr. 2","67697","Otterberg"
"AVIA Tankstelle","Hauptstr. 8","67724","Gehrweiler"
"AVIA XPress Automatenstation","Niddaer Str. 1","61200","Wˆlfersheim-Berstadt"
"AVIA Tankstelle","Frankfurter Str. 15","61231","Bad Nauheim"
"Avia Tankstelle Fey Energie","Industriestr. 4a","61273","Wehrheim"
"AVIA Tankstelle","Schˆnaustr. 78","65201","Wiesbaden"
"AVIA XPress Automatenstation","Am Dornbusch 43618","61250","Usingen"
"AVIA Tankstelle","Wallackerhof 1","67757","Kreimbach-Kaulbach"
"AVIA Tankstelle","Frankfurter Str. 65","61279","Gr‰venwiesbach"
"AVIA Tankstelle","Glantalstr. 43","66887","Glanbr¸cken"
"AVIA Tankstelle","Bliesgaustr. 27","66440","Blieskastel"
"AVIA Tankstelle","St. Wendeler Str. 71","66903","Dittweiler"
"AVIA Tankstelle","Haintchener Str. 3","65618","Selters (Taunus)"
"AVIA Tankstelle","Obere Kaiserstr. 256","66386","St. Ingbert-Rohrbach"
"AVIA Tankstelle","St.-Ingberter-Str. 120","66386","St. Ingbert"
"AVIA Tankstelle","Kuchenbergstr. 205","66540","Neunkirchen"
"AVIA Tankstelle","Wiesbadener Str. 12a","65549","Limburg"
"AVIA Tankstelle","Limburger Str. 169","65582","Diez"
"AVIA Xpress Automatenstation","Am Herrenwald 13","66640","Namborn"
"AVIA Tankstelle","Heusweilerstr. 18","66265","Heusweiler-Holz"
"AVIA Tankstelle","Bouserstr. 39","66773","Schwalbach"
"AVIA Tankstelle","Enspfuhlstr. 31","66809","Nalbach"
"AVIA Tankstelle","Neresheimer Str. 32","73450","Neresheim-Elchingen"
"AVIA Tankstelle","Jurastr. 2","73432","Aalen"
"AVIA Tankstelle","Bahnhofstr. 119","73430","Aalen"
"AVIA Xpress Automatenstation","Bahnhofstr. 42","73457","Essingen"
"AVIA Tankstelle","Gm¸nder Str. 22","73540","Heubach"
"AVIA Tankstelle","Haller Str. 86","73479","Ellwangen (Jagst)"
"AVIA Tankstelle","Robert-Bosch-Str. 2","73337","Bad ‹berkingen-Hausen"
"AVIA Tankstelle","Donzdorfer Str. 27","73550","Waldstetten-Wiﬂgoldingen"
"AVIA Tankstelle","Hauptstr. 57","73079","S¸ssen"
"AVIA Tankstelle","Kronenstr. 25","73579","Schechingen"
"AVIA XPress Automatenstation","Hauptstr. 57","73527","Schw‰bisch Gm¸nd"
"AVIA Tankstelle","Gm¸nder Str. 5","73575","Leinzell"
"AVIA XPress Automatenstation","Bismarckstr. 29","73084","Salach"
"AVIA XPress Automatenstation","Hauptstr. 43-45","74597","Stimpfach-Randenweiler"
"AVIA Tankstelle","Haller Str. 48","73494","Rosenberg"
"AVIA XPress Automatenstation","Kirchenplatz 14","72589","Westerheim"
"AVIA Tankstelle","Fuchseckstr. 2","73092","Heiningen"
"Avia Tankstelle Mangold Energiehandel GmbH","Wettegasse 10","73116","W‰schenbeuren"
"AVIA Tankstelle","Boller Str. 100","73035","Gˆppingen"
"AVIA Tankstelle","Hauptstr. 117","72525","M¸nsingen"
"AVIA Tankstelle","M¸nsinger Str. 19","72534","Hayingen"
"AVIA Tankstelle","Hauptstr. 52","74429","Sulzbach-Laufen"
"AVIA Tankstelle","Gaildorfer Str. 15","74586","Frankenhardt-Gr¸ndelhardt"
"AVIA Tankstelle","Ellwanger Str. 7","74424","B¸hlertann"
"AVIA XPress Automatenstation","Ulmer Str. 6","73252","Lenningen-Gutenberg"
"AVIA Tankstelle","Murrhardter Str. 29","73642","Welzheim"
"AVIA Tankstelle","Crailsheimer Str. 13","74592","Kirchberg / Jagst"
"AVIA Tankstelle","Rottalstr. 115","74420","Oberrot"
"AVIA Tankstelle","Ulmer Str. 17","73207","Plochingen"
"AVIA Tankstelle","Crailsheimer Str. 56","74523","Schw‰bisch Hall"
"AVIA Tankstelle","Neum‰uerstr. 1","74523","Schw‰bisch Hall"
"AVIA Tankstelle","Hˆrschwager Str. 5","72818","Trochtelfingen"
"AVIA Tankstelle","Daimlerstr. 1","73663","Berglen"
"AVIA Tankstelle","Wilhelmstr. 115","72805","Lichtenstein-Unterhausen"
"AVIA Tankstelle","Schorndorferstr. 26","73630","Remshalden-Grunbach"
"AVIA Tankstelle","Hohenloher Str. 43467","74547","Unterm¸nkheim"
"AVIA XPress Automatenstation","Altenbergstr. 1","71384","Weinstadt-Schnait"
"AVIA Tankstelle","Klosterstr. 71","72793","Pfullingen"
"AVIA Tankstelle","Marktstr. 22","72793","Pfullingen"
"AVIA Tankstelle","Bahnhofstr. 4","74575","Schrozberg"
"AVIA Tankstelle","Hohenzollernstr. 72","72419","Neufra"
"AVIA XPress Automatenstation","Hauptstr. 110","71384","Weinstadt-Str¸mpfelbach"
"AVIA Tankstelle","Endersbacher Str. 45","71334","Waiblingen-Beinstein"
"AVIA Tankstelle","Aspacher Str. 120","71522","Backnang"
"AVIA Tankstelle","Fellbacher Str. 19","71394","Kernen-Rommelshausen"
"AVIA XPress Automatenstation","Riedenstr. 1","74635","Kupferzell"
"AVIA Tankstelle","Fronackerstr. 2","71332","Waiblingen"
"AVIA Tankstelle","Boschstr. 1","71336","Waiblingen-Neustadt"
"AVIA Tankstelle","Neue Str. 20","72770","Reutlingen-Ohmenhausen"
"AVIA Tankstelle","Steinlachstr. 81","72116","Mˆssingen"
"AVIA Tankstelle","Bockelstr. 138","70619","Stuttgart"
"AVIA Tankstelle","Robert-Bosch-Str. 24","74653","Gaisbach"
"AVIA Tankstelle","Schillerstr. 47","71336","Waiblingen-Bittenfeld"
"AVIA Tankstelle","Ailringer Str. 27","74673","Mulfingen"
"AVIA Xpress Automatenstation","Neckarwiesenstr. 7","70188","Stuttgart"
"AVIA Tankstelle","Robert-Bosch-Str. 1","74632","Neuenstein"
"AVIA XPress Automatenstation","W¸rzburger Str. 16","74653","K¸nzelsau"
"AVIA XPress Automatenstation","Klingenstr. 123","70188","Stuttgart-Ost"
"AVIA XPress Automatenstation","Hauptstr. 5","74632","Neuenstein-Kirchensall"
"AVIA Xpress Automatenstation","T¸binger Str. 28","72131","Ofterdingen"
"AVIA Tankstelle","Lautlinger Str. 3","72458","Albstadt"
"Avia TESSOL Kraftstoffe, Mineralˆle und Tankanlagen","Kornbergstr. 36","70176","Stuttgart"
"AVIA Tankstelle","Am Wallgraben 78","70565","Stuttgart-Vaihingen"
"AVIA XPress Automatenstation","Criesbacher Str. 42","74676","Niedernhall"
"AVIA XPress Automatenstation","Ebingertalstr. 48","72459","Albstadt"
"AVIA Tankstelle","Meﬂkircher Str. 42","78333","Stockach"
"AVIA Tankstelle","Alemannenstr. 20","72469","Meﬂstetten"
"Avia Tankstelle Manfred Welsch","Industriestr. 23","78333","Stockach"
"AVIA Tankstelle","Carl-Berberich-Str. 1","74232","Abstatt"
"AVIA Tankstelle","Thanheimer Str. 34","72406","Bisingen"
"AVIA Xpress Automatenstation","K¸ferstr. 16","72145","Hirrlingen"
"AVIA Tankstelle","Lutzstr. 10","74354","Besigheim"
"AVIA Xpress Automatenstation","Neue Balinger Str. 19","72336","Balingen-Ostdorf"
"AVIA Tankstelle","÷hringer Str. 28","74196","Neuenstadt am Kocher"
"Avia Tankstelle A. Wankm¸ller","Carl-Benz-Str. 23","71154","Nufringen"
"AVIA Tankstelle","Affst‰tter Tal 4","71083","Herrenberg"
"AVIA Tankstelle","Weil-der-St‰dter-Str. 57","71272","Renningen"
"AVIA Tankstelle","Mergentheimer Str. 15","74219","Mˆckm¸hl-Z¸ttlingen"
"AVIA Tankstelle","Schweizer Str. 27","72355","Schˆmberg"
"AVIA Tankstelle","Schweizerlandstr. 71","72401","Haigerloch"
"AVIA Tankstelle","Nordstr. 35","75392","Deckenpfronn"
"AVIA Xpress Automatenstation","÷schelbronner Straﬂe","71131","Jettingen"
"AVIA Tankstelle","Adelsheimer Str. 27","74706","Osterburken"
"AVIA Tankstelle","Hauptstr. 99","72184","Eutingen"
"AVIA XPress Automatenstation","Schloﬂstraﬂe- 43557","74078","Heilbronn-Kirchhausen"
"AVIA Tankstelle","Dammstr. 21","72160","Horb am Neckar"
"AVIA Tankstelle","Hirsackerstr. 12","78244","Gottmadingen-Bietingen"
"AVIA Tankstelle","Weiherstr. 17","75446","Wiernsheim"
"AVIA XPress Automatenstation","Robert-Bosch-Str. 14","75365","Calw"
"AVIA Tankstelle","Heinsheimer Str. 52","74906","Bad Rappenau"
"AVIA Tankstelle","Bahnhofstr. 57","74743","Seckach"
"AVIA Tankstelle","Mittelstr. 13","74850","Schefflenz"
"AVIA Tankstelle","Bahnhofstr. 24","75378","Bad Liebenzell"
"AVIA XPress Automatenstation","Albring 11","78658","Zimmern ob Rottweil"
"Avia Tank- und Rastanlage Pforzheim Nord","Bergstr. 105/1 an der A8","75223","Niefern-÷schelbronn"
"AVIA Tankstelle","Stuttgarter Str. 30","78727","Oberndorf am Neckar"
"AVIA Tankstelle","Heilbronner Str. 54","75447","Sternenfels"
"AVIA Tankstelle","Tannenstr. 2","74864","Fahrenbach"
"AVIA Xpress Automatenstation","Gutenbergstr. 18","72175","Dornhan"
"AVIA Tankstelle","Dornstetter Str. 31","72293","Glatten"
"AVIA Tankstelle","Neulandstr. 38","74889","Sinsheim"
"AVIA Tankstelle","Berliner Str. 21","78048","Villingen-Schwenningen"
"AVIA Xpress Automatenstation","Kernerstr. 127","75323","Bad Wildbad"
"AVIA Tankstelle","Heilbronner Str. 29","76703","Kraichtal-Menzingen"
"AVIA Tankstelle","Aichhalder Str. 38","78713","Schramberg"
"AVIA Xpress Automatenstation","Wittlensweiler Str. 72","72250","Freudenstadt"
"Avia Oest Tankstellen","Georg Oest Str. 4","72250","Freudenstadt"
"AVIA Tankstelle","Karlsruher Str. 95","74889","Sinsheim-D¸hren"
"AVIA Tankstelle","Stuttgarter Str 109","72250","Freudenstadt"
"AVIA Tankstelle","Sinsheimer Str. 42","74889","Sinsheim-Hoffenheim"
"AVIA Tankstelle","Bahnhofstr. 1","72275","Alpirsbach"
"AVIA Tankstelle","Eichtersheimer Str. 29","74889","Sinsheim-Eschelbach"
"AVIA Tankstelle","Hauptstr. 73","77761","Schiltach"
"AVIA Tankstelle","Murgtalstr. 48","72270","Baiersbronn"
"AVIA Tankstelle","Alte Landstr. 7","78112","Sankt Georgen"
"AVIA Tankstelle","Sch¸tzenstr. 24","78147","Vˆhrenbach"
"AVIA Tankstelle","Strassburger Str. 304","72250","Freudenstadt"
"AVIA Tankstelle","Landstr. 3","76596","Forbach"
"AVIA Xpress Automatenstation","Ubstadter Str. 19","76698","Ubstadt-Weiher"
"AVIA Tankstelle","Hauptstr. 40","76571","Gaggenau"
"AVIA Tankstelle","Kˆnigsberger Str. 5","76139","Karlsruhe"
"AVIA XPress Automatenstation","Malschbacher Str. 4","76534","Baden-Baden-Geroldsau"
"AVIA Tankstelle","Wilhelm-Hausenstein-Allee 16","76187","Karlsruhe"
"AVIA Tankstelle","Friedrichstr. 118","76456","Kuppenheim"
"AVIA Tankstelle","Ruhesteinstr. 119","77883","Ottenhˆfen im Schwarzwald"
"AVIA Tankstelle","Hauptstr. 34a","76287","Rheinstetten"
"AVIA Tankstelle","Oestliche Rheinbr¸ckenstr. 37a","76187","Karlsruhe-Knielingen"
"AVIA Tankstelle","Schluchseer Str. 6","79837","H‰usern"
"AVIA Tankstelle","Ruhesteinstr. 5","77883","Ottenhˆfen im Schwarzwald"
"AVIA XPress Automatenstation","Hauptstr. 139","76706","Dettenheim-Liedolsheim"
"AVIA Tankstelle","Glottertalstr. 30","79274","St. M‰rgen"
"AVIA Xpress Automatenstation","Oskar-Frey-Str. 30","76661","Philippsburg"
"AVIA Tankstelle","Lammstr. 1","76474","Au am Rhein"
"AVIA Tankstelle","Appenweierer Str. 54b","77704","Oberkirch"
"AVIA Automatenstation","Schelmenwaldplatz 3","76751","Jockgrim"
"AVIA Tankstelle","Jockgrimer Str. 39","76764","Rheinzabern"
"AVIA Tankstelle","Kirchstr. 29","76770","Hatzenb¸hl"
"AVIA Tankstelle","Auﬂerdorf 20","79733","Gˆrwihl"
"AVIA Tankstelle","In der Fellach 12","76756","Bellheim"
"AVIA Tankstelle","Schwarzwaldstr. 2","77871","Renchen"
"AVIA Xpress Automatenstation","Gr¸ntalstr. 16","79682","Todtmoos"
"AVIA Xpress Automatenstation","Ortenaustr. 20","77656","Offenburg"
"AVIA Tankstelle","Franz-Schubert-Str. 2","76863","Herxheim"
"AVIA Tankstelle","Schˆnauer Str. 17","79674","Todtnau"
"AVIA Tankstelle","Waldkircher Str. 7","79211","Denzlingen"
"AVIA Tankstelle","Hauptstr. 17","79730","Murg"
"AVIA Tankstelle","Untere Hauptstr. 39","76887","Oberhausen"
"AVIA XPress Automatenstation","Hauptstr. 5","77743","Neuried-Ichenheim"
"AVIA Tankstelle","Weinstr. 82","76889","Klingenm¸nster"
"AVIA Tankstelle","Queichtalstr. 56","76855","Annweiler-Queichhambach"
"AVIA Tankstelle","Lˆrracher Str. 76","79541","Lˆrrach"
"Deutsche AVIA Mineralˆl","Grillparzerstr. 8","81675","M¸nchen"
"Avia Tankstelle Johann Baptist Wagner","Am Westpark 1","81373","M¸nchen"
"AVIA Tankstelle","Schleiﬂheimer Str. 28","85748","Garching b. M¸nchen"
"Avia Tankstelle Julius Ilmberger Mineralˆl-Vertriebs","Hahilingastr. 5","82041","Oberhaching"
"AVIA Tankstelle","Freisinger Str. 2","85241","Hebertshausen"
"AVIA Tankstelle","Sonnenstr. 11","85232","Bergkirchen"
"AVIA Tankstelle","Dachauer Str. 10","85247","Schwabhausen"
"AVIA Tankstelle","M¸nchner Str. 2","82057","Icking"
"AVIA Tankstelle","Tegernseer Str. 5","83624","Otterfing"
"AVIA Tankstelle","Hauptstr. 1","85254","Sulzemoos"
"AVIA Tankstelle","Thalhauser Str. 44","85354","Freising"
"AVIA Tankstelle","Hauptstr. 19","85643","Tulling"
"AVIA XPress Automatenstation","Augsburger Str. 1","82278","Althegnenberg"
"AVIA XPress Tankstelle","Hauptstr. 7","86559","Adelzhausen"
"AVIA Xpress Tankstelle","Bahnhofstr. 105","82269","Geltendorf"
"AVIA Tankstelle","Erdinger  Str. 18","85456","Wartenberg"
"Avia SIT Freie Tankstellen Singer","Spirkersberg 6","84427","Sankt Wolfgang"
"AVIA Tankstelle","Reithel 1","84405","Dorfen"
"AVIA Tankstelle","M¸nchener Str. 98","86415","Mering"
"AVIA XPress Automatenstation","Bahnhofstr. 30","86551","Aichach"
"AVIA Tankstelle","Hauptstr. 35","83536","Gars a. Inn"
"AVIA Tankstelle","Am Lenghardt 5","84174","Eching"
"AVIA Tankstelle","Marktplatz 16","84428","Buchbach"
"Avia Tankstelle Ilzhˆfers Nachf. Inh. Walch","Siebentischstr. 16a","86161","Augsburg"
"AVIA Tankstelle","Unteriglinger Str. 49","86859","Igling"
"AVIA Tankstelle","Regensburger Str. 64","84048","Mainburg"
"AVIA Tankstelle","Veldener Str. 52","84036","Landshut"
"AVIA Tankstelle","Hauptstr. 67","85123","Karlskron"
"AVIA Tankstelle","Hauptstr. 14","86920","Denklingen"
"AVIA XPress Automatenstation","Hauptstr. 108","86668","Karlshuld"
"AVIA Tankstelle","Am Keltenwall l2","85077","Manching"
"AVIA XPress Automatenstation","Neuburger Str. 27","86676","Ehekirchen"
"AVIA Tankstelle","Kemptener Str. 10","86807","Buchloe"
"AVIA Tankstelle","Lengenfelder Str. 3","86869","Oberostendorf"
"AVIA XPress Automatenstation","Hauptstr. 38","86514","Ustersbach"
"AVIA XPress Automatenstation","Ammergauer Str. 1","86989","Steingaden"
"AVIA Tankstelle","Dorfstr. 16","87675","Rettenbach am Auerberg"
"AVIA Tankstelle","Therese-Studer-Str. 2","87600","Kaufbeuren"
"AVIA Tankstelle","Max-Emanuel-Str. 2","85139","Wettstetten"
"AVIA Tankstelle","Marktstr. 36","86424","Dinkelscherben"
"AVIA Tankstelle","Wertinger Str. 23","86441","Zusmarshausen"
"AVIA Tankstelle","Gewerbering 19","86698","Oberndorf a. Lech"
"AVIA Tankstelle","Hauptstr. 31","84088","Neufahrn"
"AVIA Tankstelle","Gottmannshofer Str. 24","86637","Wertingen"
"AVIA XPress Automatenstation","Kaufbeurener Str. 102","87616","Marktoberdorf"
"AVIA Tankstelle","Hauptstr. 1","87654","Friesenried"
"AVIA Tankstelle","Ursberger Str. 29","86470","Thannhausen"
"AVIA Tankstelle","Straubinger Str. 35","84066","Mallersdorf-Paffenberg"
"AVIA Tankstelle","Hauptstr. 1","84177","Gottfriedingerschwaige"
"AVIA Tankstelle","Kemptener Str. 32","87647","Unterthingau"
"AVIA Tankstelle","Hauptstr. 25","87637","Seeg"
"AVIA Tankstelle","Ottobeurer Str. 36","87733","Markt Rettenbach"
"AVIA XPress Automatenstation","Hauptstr. 28","87659","Hopferau"
"AVIA XPress Automatenstation","Hiebeler Str. 18","87629","F¸ssen"
"AVIA Tankstelle","Gundelfinger Str. 36","89415","Lauingen"
"AVIA Tankstelle","Luitpoldstr. 38","87724","Ottobeuren"
"AVIA Tankstelle","Meilinger Str. 26","87459","Pfronten-Ried"
"AVIA Tankstelle","Hauptstr. 2","87466","Oy-Mittelberg"
"AVIA Tankstelle","Ulmer Str. 85","89312","G¸nzburg"
"Avia Tankstelle Keslar GmbH Energiehandel","Ostbahnhofstr. 1","87437","Kempten"
"AVIA Tankstelle","Bucher Str. 2","89299","Unterroth"
"AVIA Tankstelle","Brenzer Str. 35","89567","Sontheim an der Brenz"
"AVIA Tankstelle","Bahnhofstr. 1","86759","Fessenheim"
"AVIA Xpress Automatenstation","Karatas Str. 3","87700","Memmingen"
"AVIA Tankstelle","Memminger Str. 89","89281","Altenstadt"
"Avia BAB-Tankstelle","BAB Fahrtrichtung S¸d","88451","Dettingen an der Iller"
"AVIA Tankstelle","Kempter Str. 11","87487","Wiggensbach"
"AVIA Tankstelle","Lautracher Str. 10","87764","Legau"
"AVIA Tankstelle","Legauer Str. 3","87452","Altusried-Kimratshofen"
"AVIA Tankstelle","Dorfstr. 2","88430","Rot an der Rot"
"AVIA Tankstelle","Burgberger Str. 26","87549","Rettenberg"
"AVIA Tankstelle","Sonthofer Str. 31","87541","Bad Hindelang"
"AVIA Tankstelle","Kemptener Str. 53","87509","Immenstadt"
"AVIA Tankstelle","Blaubeurer Str. 32","89077","Ulm"
"Avia Tankstelle Hermann Bantleon","Blaubeurerstr. 32","89077","Ulm"
"AVIA Tankstelle","Mittelrainstr. 110","89520","Heidenheim an der Brenz"
"AVIA Tankstelle","Maybachstr. 13","89079","Ulm"
"AVIA Tankstelle","Im Lehrer Feld 49","89081","Ulm"
"Avia Tankstelle Keslar GmbH Energiehandel","Am Lehrer Feld 49","89081","Ulm"
"AVIA Tankstelle","Neutrauchburger Str. 12","88316","Isny im Allg‰u"
"AVIA Tankstelle","In der Vorstadt 24","88299","Leutkirch im Allg‰u"
"Avia Tankstelle Rommel Energie","Bergmannstr. 2","88471","Laupheim"
"AVIA Tankstelle","Schemmerberger Str. 15","88487","Mietingen"
"AVIA Tankstelle","Oberriedstr. 4","88410","Bad Wurzach"
"AVIA Tankstelle","Stephanusstr. 16","88260","Argenb¸hl"
"AVIA Tankstelle","Poststr. 1","88436","Eberhardzell"
"AVIA Tankstelle","Hauptstr. 78","88433","Schemmerhofen"
"AVIA Tankstelle","Ludwig-Maier-Weg 2","87534","Oberstaufen"
"AVIA Tankstelle","Walserstr. 24","87567","Riezlern"
"AVIA XPress Automatenstation","Ehinger Str. 19","89143","Blaubeuren"
"AVIA Tankstelle","Kemptener Str. 49","88178","Heimenkirch"
"AVIA Tankstelle","Dorfstr. 3","88364","Wolfegg-Rˆtenbach"
"AVIA Tankstelle","Blaubeurer Str. 25","89584","Ehingen (Donau)"
"AVIA Tankstelle","Bahnhofstr. 66","88339","Bad Waldsee"
"AVIA XPress Automatenstation","Staufner Str. 2","88179","Oberreute"
"AVIA Tankstelle","Alois-von-Brinz-Str. 3","88171","Weiler (Lindenberg/Allg‰u)"
"AVIA Tankstelle","Emerkinger Str. 44","89597","Munderkingen"
"AVIA Tankstelle","Kemptener Str. 19","88138","Hergensweiler"
"AVIA Tankstelle","Bodenseestr. 57","88239","Wangen-Neuravensburg"
"AVIA Tankstelle","Neue Unlinger Str. 21","88499","Riedlingen"
"AVIA Tankstelle","Ravensburger Str. 17","88069","Tettnang"
"AVIA Tankstelle","S‰gm¸hlstr. 12","88529","Zwiefalten"
"AVIA Tankstelle","Gossetsweiler 101","88263","Horgenzell"
"AVIA Tankstelle","Meersburger Str. 19","88094","Oberteuringen-Neuhaus"
"Avia Tankstelle BAG Raiffeisen","Raiffeisenstr. 10","88094","Oberteuringen"
"AVIA Xpress Automatenstation","Roggenbeurer Str. 6","88693","Deggenhausertal-Wittenhofen"
"AVIA Tankstelle","Markdorfer Str. 16","88682","Salem-Neufrach"
"AVIA Tankstelle","Hauptstr. 37","88662","‹berlingen"
"AVIA Tankstelle","Hauptstr. 21","93333","Neustadt/Schwaig"
"AVIA Tankstelle","Ingolst‰dter Str. 26","93354","Siegenburg"
"AVIA Tankstelle","Neust‰dter Str. 10","93333","Bad Gˆgging"
"AVIA Tankstelle","Neuburger Str. 9","91809","Wellheim"
"AVIA Tankstelle","Bahnhofstr. 8","91795","Dollnstein"
"AVIA Tankstelle","Hauptstr. 29","93346","Ihrlerstein"
"AVIA Tankstelle","Kelheimer Str. 35","93351","Painten"
"Avia Tankstelle Steil Energie","Lachgartenweg 9","91788","Pappenheim"
"AVIA BAB-Tankstelle Pentling Ost","A 93","93080","Pentling"
"AVIA Tankstelle","Krankenhausstr. 13","93104","S¸nching"
"AVIA Tankstelle","Am Reitfeld 2","93161","Sinzing"
"AVIA Tankstelle","An der Heusteige 4","91757","Treuchtlingen"
"AVIA Tankstelle","Eggenfeldener Str. 28","94424","Arnstorf"
"AVIA Tankstelle","Landshuter Str. 110","93053","Regensburg"
"AVIA Tankstelle","Frankenstr. 4","93059","Regensburg"
"AVIA Tankstelle","Amberger Str. 101","93057","Regensburg"
"AVIA Tankstelle","Schlosserweg 1","93176","Beratzhausen"
"AVIA XPress Automatenstation","Ringstr. 1","93105","Tegernheim"
"AVIA Tankstelle","Am Lausser 1","93102","Pfatter"
"AVIA Tankstelle","Point 1","94369","Rain"
"AVIA Tankstelle","M¸nchener Str. 30","91177","Thalm‰ssing"
"AVIA Tankstelle","Regensburger Str. 7","93093","Donaustauf"
"AVIA Tankstelle","Hauptstr. 11","93197","Zeitlarn"
"AVIA Tankstelle","Straubinger Str. 15","93086","Wˆrth"
"AVIA Tankstelle","Straubinger Str. 57","94342","Straﬂkirchen"
"AVIA Tankstelle","Regensburger Str. 2","92358","Seubersdorf"
"AVIA Tankstelle","Kallm¸nzer Str. 10","93128","Regenstauf"
"Avia Tankstelle A. F. Bauer","Gutenbergstr. 22","93128","Regenstauf"
"AVIA Tankstelle","Selingst‰dter Str. 1","91180","Heideck"
"AVIA Tankstelle","Burggriesbacher Str. 6","92342","Freystadt"
"AVIA Tankstelle","An der Hasler Zell 3","93128","Regenstauf"
"AVIA Tankstelle","Regensburger Str. 29","93128","Regenstauf"
"AVIA Tankstelle","Vorwaldstr. 14","93177","Altenthann"
"AVIA Tankstelle","Appianistr. 5","92342","Freystadt"
"AVIA XPress Automatenstation","Pleinfelder Str. 70b","91166","Georgensgm¸nd"
"AVIA Tankstelle","Regensburger Str. 56","93142","Maxh¸tte-Haidhof"
"AVIA Tankstelle","Bayerwaldstr. 3","94360","Mitterfels"
"AVIA Tankstelle","Breitfeld 1","94336","Hunderdorf"
"AVIA XPress Automatenstation","Rother Str. 5","91174","Spalt"
"AVIA Tankstelle","Passauer Str. 45","94086","Bad Griesbach"
"AVIA Tankstelle","Dreichlinger Str. 41","92318","Neumarkt"
"AVIA Tankstelle","Dr.-Josef-Kiener-Str. 1","93167","Falkenstein"
"AVIA Tankstelle","Donaustr. 67","94526","Metten"
"AVIA Tankstelle","Straubinger Str. 8","94354","Haselbach"
"AVIA Tankstelle","Im Gewerbepark 11","93158","Teublitz"
"AVIA Tankstelle","Amberger Str. 2","92287","Schmidm¸hlen"
"Avia Tankstelle Rˆdl","N¸rnberger Str. 41","92318","Neumarkt"
"Avia Tankstelle Rˆdl GmbH","N¸rnbergerstr. 41","92318","Neumarkt"
"AVIA XPress Automatenstation","Gewerbegebiet 4","91183","Abenberg"
"AVIA Tankstelle","Hauptstr. 6","92353","Postbauer-Heng"
"AVIA XPress Automatenstation","Willi-Memmert-Str. 30","91186","B¸chenbach"
"AVIA Tankstelle","Galla 7","94496","Ortenburg"
"AVIA XPress Automatenstation","Meckenloher Str. 8","91126","Rednitzhembach"
"AVIA Tankstelle","Mappacher Str. 61","92436","Bruck i.d.OPf."
"AVIA Tankstelle","Chamer Str. 6","93489","Schorndorf"
"AVIA Tankstelle","Industriestr. 5","92421","Schwandorf"
"AVIA Tankstelle","Hauptstr. 2","91126","Kammerstein"
"AVIA Tankstelle","Hauptstr. 10","92266","Ensdorf"
"AVIA Tankstelle","Neumarkter Str. 12","92283","Lauterhofen"
"AVIA Tankstelle","Burgthanner Str. 34","90559","Burgthann"
"AVIA Tankstelle","Neumarkter Str. 33a","90518","Altdorf b. N¸rnberg"
"AVIA Tankstelle","Oskar von Miller Str. 10","92442","Wackersdorf"
"AVIA Tankstelle","N¸rnberger Str. 84","91126","Schwabach"
"AVIA Tankstelle","Heilsbronner Str. 18a","91564","Neuendettelsau"
"AVIA Tankstelle","Regener Str. 2","94253","Bischofsmais"
"AVIA Tankstelle","Voggenzell 18","94267","Prackenbach"
"AVIA Tankstelle","Schlatzendorf 43","94234","Viechtach"
"AVIA Tankstelle","Hartmannsgrub 1","94244","Geiersthal"
"AVIA Tankstelle","Werner-von-Siemens-Str. 12","93413","Cham"
"AVIA Tankstelle","M¸hlhofer Hauptstr. 42-44","90453","N¸rnberg"
"AVIA Tankstelle","Deggendorfer Str. 11","94244","Teisnach"
"AVIA Tankstelle","Lˆwenberger Str. 1","90475","N¸rnberg"
"AVIA Tankstelle","Chamer Str. 26a","93466","Chamerau"
"AVIA Tankstelle","Dr.-Dˆrfler-Str. 2a","92224","Amberg"
"AVIA XPress Automatenstation","Crailsheimer Str. 14","91555","Feuchtwangen"
"Avia Tankstelle Ernst Braun Mineralˆle","Allersbergerstr. 185","90461","N¸rnberg"
"AVIA XPress Automatenstation","Vogelherdstr. 14","91227","Leinburg"
"AVIA Tankstelle","Langen‰ckerstr. 1","90522","Oberasbach"
"AVIA Tankstelle","Essenweinstr. 3-7","90443","N¸rnberg"
"Avia Tankstelle Parkhaus Adlerstrasse","Adlerstr. 43681","90403","N¸rnberg"
"AVIA Tankstelle","Bˆhmer Str. 36","92444","Rˆtz"
"AVIA Tankstelle","Marienbergstr. 26","94261","Kirchdorf i. Wald"
"AVIA Tankstelle","Passauer Str. 4","94513","Schˆnberg"
"AVIA Tankstelle","ƒuﬂere Groﬂweidenm¸hlstr. 2","90419","N¸rnberg"
"AVIA XPress Automatenstation","Hauptstr. 26","93495","Weiding"
"AVIA XPress Automatenstation","Happurger Str. 14a","91224","Hohenstadt"
"AVIA Tankstelle","Bahnhofstr. 62","94249","Bodenmais"
"AVIA Tankstelle","N¸rnberger Str. 137","91217","Hersbruck"
"AVIA Tankstelle","Altdorfer Str. 93","91207","Lauf"
"AVIA Tankstelle","Chamer Str. 31","93473","Arnschwang"
"AVIA XPress Automatenstation","In der Seel 1","91611","Lehrberg"
"AVIA Tankstelle","Theresienthaler Str. 7","94227","Zwiesel"
"AVIA Tankstelle","Rothenburger Str. 15","91625","Schnelldorf"
"AVIA Tankstelle","N¸rnberger Str. 27","92242","Hirschau"
"AVIA Tankstelle","Passauer Str. 41","94133","Rˆhrnbach"
"AVIA Tankstelle","Hauptstr. 50","94258","Frauenau"
"AVIA Tankstelle","Chamer Str. 6","93437","Furth"
"AVIA Tankstelle","Adam-Wild-Str. 1","93437","Furth im Wald"
"AVIA Tankstelle","Eschlkamer Str. 18","93437","Furth im Wald"
"AVIA Tankstelle","Am Lerchenfeld 22","93449","Waldm¸nchen"
"AVIA Tankstelle","Ansbacher Str. 1","91583","Schillingsf¸rst"
"AVIA Tankstelle","Rathausstr. 8","92275","Eschenfelden"
"AVIA Tankstelle","Hauptstr. 1","94252","Bayerisch Eisenstein"
"AVIA Tankstelle","Groﬂenschwandner Str. 9","92723","T‰nnesberg"
"AVIA Tankstelle","Schwabsrother Str. 4","91608","Geslau"
"AVIA Tankstelle","Windsheimer Str. 47","91459","Markt Erlbach"
"AVIA Tankstelle","Rothenburger Str. 3","91610","Insingen"
"Avia Tankstelle Schˆpper & Knoll - Taubertal","Am Igelsbach 19","91541","Rothenburg o.d.T."
"AVIA Tankstelle","W¸rzburger Str. 60","91613","Marktbergel"
"AVIA Tankstelle","Bayreuther Str. 22","91282","Betzenstein"
"AVIA Tankstelle","Schloﬂgasse 8","91593","Burgbernheim"
"AVIA Tankstelle","Degelsdorfer Str. 6","91275","Auerbach"
"AVIA Tankstelle","Forchheimer Str. 16","91090","Effeltrich"
"AVIA Tankstelle","Oberndorf Nr. 18","91472","Ipsheim"
"AVIA Tankstelle","Gewerbegebiet Ost 1","91085","Weisendorf"
"AVIA Tankstelle","Waidhauser Str. 14","92693","Eslarn"
"AVIA Tankstelle","Talstr. 108a","91349","Egloffstein"
"AVIA Tankstelle","Hausener Str. 5","91336","Heroldsbach"
"AVIA Tankstelle","Bayreuther Str. 12","91281","Kirchenthumbach"
"AVIA Tankstelle","Bahnhofstr. 11","91486","Uehlfeld"
"AVIA Tankstelle","Grafenwˆhrer Str. 6","92690","Pressath"
"AVIA Tankstelle","Kemnather Str. 20","92690","Pressath"
"AVIA Tankstelle","Flossenb¸rger Str. 18","92685","Floss"
"AVIA Tankstelle","Rothenburger Str. 35","97215","Uffenheim"
"AVIA Tankstelle","Bad Mergentheimer Str. 23","97993","Creglingen"
"AVIA XPress Automatenstation","Bischof-Heinrich-Str. 23","91257","Pegnitz"
"AVIA Tankstelle","N¸rnberger Str. 1","91443","Scheinfeld"
"AVIA Tankstelle","Hˆchstadter Str. 11","96172","M¸hlhausen"
"AVIA Tankstelle","Rothenburger Str. 12","97285","Rˆttingen"
"AVIA Tankstelle","Michelfelder Str. 7","97340","Marktbreit"
"AVIA Tankstelle","Glasstr. 2","95466","Weidenberg"
"AVIA Tankstelle","Moosstr. 111","96050","Bamberg"
"AVIA Tankstelle","Schˆnhaider Str. 24","95676","Wiesau"
"AVIA Tankstelle","Herrenwiesenstr. 61","97980","Bad Mergentheim"
"AVIA Automatenstation","Raiffeisenplatz 3","97253","Gaukˆnigshofen"
"AVIA Tankstelle","Zur Wasserscheide 1","97944","Boxberg-Schwabhausen"
"AVIA Tankstelle","Bamberger Str. 44","96173","Oberhaid"
"AVIA Tankstelle","Hauptstr. 31","96181","Rauhenebrach-Untersteinbach"
"AVIA Tankstelle","Hauptstr. 56","97353","Wiesentheid-Reupelsdorf"
"AVIA Tankstelle","Berndorfer Str. 24","95349","Thurnau"
"AVIA Tankstelle","Neuses Am Sand 31","97357","Prichsenstadt-Neuses"
"AVIA Tankstelle","Waldershofer Str. 14","95615","Marktredwitz"
"AVIA Xpress Automatenstation","Mainstockheimer Str. 1","97337","Dettelbach"
"AVIA Tankstelle","Marktredwitzer Str. 44","95632","Wunsiedel"
"AVIA Tankstelle","Mitterteicher Str. 11","95652","Waldsassen"
"AVIA XPress Automatenstation","Glaserm¸hle 1","95493","Bischofsgr¸n"
"AVIA Tankstelle","Hauptstr. 1","97513","Michelau i. Steigerwald"
"AVIA Tankstelle","Kirchheimer Str. 54","97271","Kleinrinderfeld"
"AVIA Tankstelle","Berliner Str. 15","95367","Trebgast"
"AVIA Tankstelle","Hauptstr. 2","97950","Grossrinderfeld"
"AVIA Tankstelle","Wirsberger Str. 28","95339","Neuenmarkt"
"AVIA Tankstelle","Bayreuther Str. 36","95163","Weiﬂenstadt"
"AVIA Tankstelle","Bamberger Str. 50","97475","Zeil a. Main"
"AVIA Tankstelle","Zeiler Str. 8","97437","Haﬂfurt"
"AVIA Tankstelle","W¸rzburger Str. 3","97277","Neubrunn"
"AVIA XPress Automatenstation","Kronacher Str. 31","95346","Stadtsteinach"
"AVIA Tankstelle","Coburger Str. 45","96274","Itzgrund"
"AVIA Tankstelle","Weissenbacher Str. 26","95100","Selb"
"AVIA Tankstelle","Geschwister-Scholl-Str. 5","95100","Selb"
"AVIA Tankstelle","Hauptstr. 38","97453","Schonungen"
"AVIA Tankstelle","Selber Str. 20","95173","Schˆnwald"
"AVIA Tankstelle","Wertheimer Str. 87","97900","K¸lsheim-Hundheim"
"AVIA Tankstelle","Pfaffenpfad 11","97440","Werneck"
"AVIA Tankstelle","Bamberger Str. 30","96317","Kronach"
"AVIA XPress Automatenstation","Coburger Str. 36","96237","Ebersdorf b. Coburg"
"AVIA Tankstelle","Jahnstr. 43747","96364","Marktrodach"
"AVIA Automatenstation","Siemensstr. 5","97855","Triefenstein-Lengfurt"
"AVIA Tankstelle","Am Jˆspershecklein 5","97828","Marktheidenfeld"
"AVIA Tankstelle","Coburger Str. 24","96479","Weitramsdorf"
"AVIA Tankstelle","Bahnhofstr. 35","96524","Fˆritztal OT Neuhaus-Schierschnitz"
"AVIA Tankstelle","Heubischer Str. 70","96465","Neustadt b. Coburg"
"AVIA Tankstelle","Eckardtstr. 14","96465","Neustadt b. Coburg"
"AVIA Tankstelle","Volkershausener Str. 39","97711","Maﬂbach"
"AVIA Tankstelle","Rainbr¸nnlein 294","98663","Bad Colberg-Heldburg"
"AVIA Tankstelle","Karlstadter Str. 8","97737","Gem¸nden-Wernfeld"
"AVIA Tankstelle","Weyersfelder Str. 3","97783","Karsbach-Weyersfeld"
"AVIA Tankstelle","Am Bahnhof 25","97762","Hammelburg"
"AVIA Tankstelle","M¸nnerst‰dter Str. 3","97688","Bad Kissingen"
"AVIA XPress Automatenstation","Hofweg 45","97737","Gem¸nden a. M."
"AVIA Tankstelle","Meininger Str. 9","97702","M¸nnerstadt"
"AVIA Tankstelle","Hildburgh‰user Str. 80","98673","Eisfeld"
"AVIA Tankstelle","Br¸ckenstr. 2","97708","Bad Bocklet-Steinach"
"AVIA Tankstelle","Meininger str. 32","98631","Rˆmhild"
"AVIA Tankstelle","Eisfelder Str. 48","98724","Neuhaus am Rennweg"
"AVIA Tankstelle","Kreuzbergstr. 22","97705","Burkardroth-Stangenroth"
"Avia Autobahntankstelle Rhˆn-Ost","A 7","97795","Schondra"
"AVIA Tankstelle","Neust‰dter Str. 50","98667","Schˆnbrunn"
"AVIA Tankstelle","Hildburgh‰user Str. 23","98553","Schleusingen"
"AVIA Xpress Tankstelle","Schwarzburger Str. 28a","98746","Katzh¸tte"
"AVIA Tankstelle","Hildburgh‰user Str. 5","98660","Themar"
"AVIA Tankstelle","Weimarer Str. 1","97638","Mellrichstadt"
"AVIA Tankstelle","Goldbergstr. 18","98701","Altenfeld"
"AVIA Tankstelle","Paulinenstr. 1a","97645","Ostheim v. d. Rhoen"
"AVIA Tankstelle","Nordheimer Str. 10","97645","Ostheim"
"AVIA Tankstelle","Ringstr. 4","98617","S¸lzfeld"
"AVIA Tankstelle","Groﬂbreitenbacherstr. 31a","98694","Ilmenau OT Gehren"
"AVIA Tankstelle","Hochrhˆnstr. 11","97650","Fladungen"
"AVIA Tankstelle","Oelm¸hle 14","98597","Breitungen"
"AVIA Tankstelle","Vor dem Lohe 1","99628","Buttst‰dt"
"AVIA Tankstelle","Weimarische Str. 10","99625","Kˆlleda"
"AVIA Tankstelle","Strauﬂfurter Str. 3","99631","Weissensee"
"AVIA Tankstelle","Im Rieth 2","99638","Kindelbr¸ck"
